{
  "type": "FeatureCollection",
  "name": "01_partido_hurlingham",
  "metadata": {
    "generated_at": "2026-06-15T02:04:23.824601+00:00",
    "crs": "EPSG:4326",
    "scope": "Partido de Hurlingham, Buenos Aires, Argentina",
    "source_name": "OSM / Overpass package",
    "source_zip": "C:\\Users\\corebi\\Downloads\\hurlingham_geo_hierarchy_package.zip"
  },
  "features": [
    {
      "type": "Feature",
      "properties": {
        "level": 1,
        "level_name": "partido",
        "canonical_name": "Partido de Hurlingham",
        "partido_name": "Partido de Hurlingham",
        "source_method": "derived_from_uploaded_osm_linework_union",
        "source_confidence": "medium",
        "needs_manual_review": false,
        "source_feature_count": 1,
        "generated_at": "2026-06-15T02:04:23.824601+00:00",
        "area_km2": 34.886434,
        "feature_id": "partido_hurlingham"
      },
      "geometry": {
        "type": "Polygon",
        "coordinates": [
          [
            [
              -58.655067,
              -34.629223
            ],
            [
              -58.655403914,
              -34.628923375
            ],
            [
              -58.655582,
              -34.628765
            ],
            [
              -58.655638574,
              -34.628719972
            ],
            [
              -58.655960602,
              -34.628463664
            ],
            [
              -58.656458565,
              -34.628067326
            ],
            [
              -58.6564638,
              -34.6280631
            ],
            [
              -58.656464352,
              -34.628062672
            ],
            [
              -58.656624,
              -34.627914
            ],
            [
              -58.6572328,
              -34.627441578
            ],
            [
              -58.657307,
              -34.627384
            ],
            [
              -58.657393654,
              -34.62730897
            ],
            [
              -58.657963,
              -34.626816
            ],
            [
              -58.658966,
              -34.626007
            ],
            [
              -58.659551485,
              -34.625526378
            ],
            [
              -58.65977,
              -34.625347
            ],
            [
              -58.660583,
              -34.62468
            ],
            [
              -58.660974835,
              -34.624357371
            ],
            [
              -58.662174,
              -34.62337
            ],
            [
              -58.665775,
              -34.62043
            ],
            [
              -58.665809958,
              -34.620400811
            ],
            [
              -58.666702,
              -34.619656
            ],
            [
              -58.667664,
              -34.618862
            ],
            [
              -58.669575,
              -34.617275
            ],
            [
              -58.67143,
              -34.61574
            ],
            [
              -58.671997,
              -34.61528
            ],
            [
              -58.67363,
              -34.613945
            ],
            [
              -58.674446,
              -34.613255
            ],
            [
              -58.676086,
              -34.61192
            ],
            [
              -58.676895,
              -34.611263
            ],
            [
              -58.677803,
              -34.610523
            ],
            [
              -58.679333,
              -34.609283
            ],
            [
              -58.68175,
              -34.607292
            ],
            [
              -58.68259,
              -34.606598
            ],
            [
              -58.683395,
              -34.605946
            ],
            [
              -58.684383,
              -34.605156
            ],
            [
              -58.68385,
              -34.60465
            ],
            [
              -58.683266,
              -34.60414
            ],
            [
              -58.682697,
              -34.603653
            ],
            [
              -58.682117,
              -34.603127
            ],
            [
              -58.685925,
              -34.600067
            ],
            [
              -58.686672,
              -34.59946
            ],
            [
              -58.687485,
              -34.59881
            ],
            [
              -58.687984,
              -34.598408
            ],
            [
              -58.68911,
              -34.597504
            ],
            [
              -58.690002,
              -34.596798
            ],
            [
              -58.69264,
              -34.59467
            ],
            [
              -58.69348,
              -34.593987
            ],
            [
              -58.691536,
              -34.592587
            ],
            [
              -58.690956,
              -34.59217
            ],
            [
              -58.687584,
              -34.58975
            ],
            [
              -58.684517,
              -34.58866
            ],
            [
              -58.68332,
              -34.587955
            ],
            [
              -58.68239,
              -34.587013
            ],
            [
              -58.681065,
              -34.584023
            ],
            [
              -58.679573,
              -34.582207
            ],
            [
              -58.67767,
              -34.57988
            ],
            [
              -58.675797,
              -34.57847
            ],
            [
              -58.67284,
              -34.577427
            ],
            [
              -58.671246,
              -34.57675
            ],
            [
              -58.66997,
              -34.576023
            ],
            [
              -58.667053,
              -34.573433
            ],
            [
              -58.666245,
              -34.572643
            ],
            [
              -58.65981,
              -34.568657
            ],
            [
              -58.658115,
              -34.567608
            ],
            [
              -58.656933,
              -34.566906
            ],
            [
              -58.655575,
              -34.566254
            ],
            [
              -58.654667,
              -34.56574
            ],
            [
              -58.654408,
              -34.56564
            ],
            [
              -58.65408,
              -34.56554
            ],
            [
              -58.65375,
              -34.56549
            ],
            [
              -58.65313,
              -34.565426
            ],
            [
              -58.65273,
              -34.565357
            ],
            [
              -58.652454,
              -34.565258
            ],
            [
              -58.65222,
              -34.565136
            ],
            [
              -58.651962,
              -34.56496
            ],
            [
              -58.651375,
              -34.564514
            ],
            [
              -58.650894,
              -34.56422
            ],
            [
              -58.650578,
              -34.564087
            ],
            [
              -58.650337,
              -34.564026
            ],
            [
              -58.649746,
              -34.5639
            ],
            [
              -58.648956,
              -34.563717
            ],
            [
              -58.646416,
              -34.56308
            ],
            [
              -58.641316117,
              -34.567199164
            ],
            [
              -58.639297,
              -34.56883
            ],
            [
              -58.638283,
              -34.569633
            ],
            [
              -58.6373,
              -34.57046
            ],
            [
              -58.636383,
              -34.571217
            ],
            [
              -58.635628,
              -34.571857
            ],
            [
              -58.63486,
              -34.57251
            ],
            [
              -58.634125,
              -34.573166
            ],
            [
              -58.632687,
              -34.574375
            ],
            [
              -58.631523,
              -34.575348
            ],
            [
              -58.63041,
              -34.576286
            ],
            [
              -58.62895,
              -34.577507
            ],
            [
              -58.628426,
              -34.57794
            ],
            [
              -58.62794,
              -34.57835
            ],
            [
              -58.62392,
              -34.58172
            ],
            [
              -58.621246,
              -34.583992
            ],
            [
              -58.621238785,
              -34.583998185
            ],
            [
              -58.62112,
              -34.5841
            ],
            [
              -58.620197,
              -34.584892
            ],
            [
              -58.619799239,
              -34.585232315
            ],
            [
              -58.61965,
              -34.58536
            ],
            [
              -58.618668998,
              -34.586206284
            ],
            [
              -58.618565,
              -34.586296
            ],
            [
              -58.618527986,
              -34.586326921
            ],
            [
              -58.617435,
              -34.58724
            ],
            [
              -58.616756,
              -34.587822
            ],
            [
              -58.616429137,
              -34.587994879
            ],
            [
              -58.616410303,
              -34.58800484
            ],
            [
              -58.61641,
              -34.588005
            ],
            [
              -58.616410821,
              -34.588208958
            ],
            [
              -58.616413,
              -34.58875
            ],
            [
              -58.616463,
              -34.59036
            ],
            [
              -58.616484172,
              -34.590518213
            ],
            [
              -58.616592,
              -34.591324
            ],
            [
              -58.616863,
              -34.592487
            ],
            [
              -58.617367,
              -34.594265
            ],
            [
              -58.617485,
              -34.594936
            ],
            [
              -58.61772,
              -34.59574
            ],
            [
              -58.61792737,
              -34.596031614
            ],
            [
              -58.61804,
              -34.59619
            ],
            [
              -58.61833,
              -34.596474
            ],
            [
              -58.618540087,
              -34.596672302
            ],
            [
              -58.618846511,
              -34.596961538
            ],
            [
              -58.618847,
              -34.596962
            ],
            [
              -58.619134269,
              -34.597688167
            ],
            [
              -58.619404,
              -34.59837
            ],
            [
              -58.619542788,
              -34.598632751
            ],
            [
              -58.62049,
              -34.600426
            ],
            [
              -58.62094,
              -34.60128
            ],
            [
              -58.621105371,
              -34.601510547
            ],
            [
              -58.62111,
              -34.601517
            ],
            [
              -58.621110376,
              -34.601517734
            ],
            [
              -58.62125011,
              -34.601790799
            ],
            [
              -58.621330699,
              -34.601948283
            ],
            [
              -58.62135,
              -34.601986
            ],
            [
              -58.621352333,
              -34.602009076
            ],
            [
              -58.621387,
              -34.602352
            ],
            [
              -58.621326,
              -34.602726
            ],
            [
              -58.62082,
              -34.604393
            ],
            [
              -58.620646654,
              -34.604617387
            ],
            [
              -58.62064,
              -34.604626
            ],
            [
              -58.620438863,
              -34.60477179
            ],
            [
              -58.620193,
              -34.60495
            ],
            [
              -58.620180764,
              -34.604967986
            ],
            [
              -58.619827,
              -34.605488
            ],
            [
              -58.61977,
              -34.60566
            ],
            [
              -58.6198,
              -34.606476
            ],
            [
              -58.619984,
              -34.60732
            ],
            [
              -58.620094,
              -34.60807
            ],
            [
              -58.6202,
              -34.608856
            ],
            [
              -58.62036,
              -34.60924
            ],
            [
              -58.620476309,
              -34.609375693
            ],
            [
              -58.620564,
              -34.609478
            ],
            [
              -58.620833796,
              -34.609743886
            ],
            [
              -58.621323,
              -34.610226
            ],
            [
              -58.621662,
              -34.610493
            ],
            [
              -58.62182,
              -34.610836
            ],
            [
              -58.621716,
              -34.611374
            ],
            [
              -58.621353,
              -34.612
            ],
            [
              -58.621,
              -34.612484
            ],
            [
              -58.620193,
              -34.613766
            ],
            [
              -58.620132,
              -34.614258
            ],
            [
              -58.62021,
              -34.614635
            ],
            [
              -58.620327,
              -34.61488
            ],
            [
              -58.620426,
              -34.615158
            ],
            [
              -58.620388,
              -34.61562
            ],
            [
              -58.619305,
              -34.61749
            ],
            [
              -58.61851,
              -34.618824
            ],
            [
              -58.618326958,
              -34.619135171
            ],
            [
              -58.61831,
              -34.619164
            ],
            [
              -58.618297543,
              -34.619189091
            ],
            [
              -58.6181,
              -34.619587
            ],
            [
              -58.617928,
              -34.62
            ],
            [
              -58.617935,
              -34.620358
            ],
            [
              -58.618195,
              -34.621708
            ],
            [
              -58.61839,
              -34.62272
            ],
            [
              -58.618652,
              -34.623913
            ],
            [
              -58.6189,
              -34.624557
            ],
            [
              -58.61933,
              -34.62585
            ],
            [
              -58.619423,
              -34.62603
            ],
            [
              -58.619465,
              -34.626163
            ],
            [
              -58.619479035,
              -34.626209221
            ],
            [
              -58.61954,
              -34.62641
            ],
            [
              -58.619556933,
              -34.626426933
            ],
            [
              -58.6196,
              -34.62647
            ],
            [
              -58.619662769,
              -34.626518991
            ],
            [
              -58.619682,
              -34.626534
            ],
            [
              -58.61969304,
              -34.62661312
            ],
            [
              -58.619694,
              -34.62662
            ],
            [
              -58.619737513,
              -34.626791838
            ],
            [
              -58.61993,
              -34.627552
            ],
            [
              -58.620243,
              -34.62853
            ],
            [
              -58.620099355,
              -34.628706902
            ],
            [
              -58.62004,
              -34.62878
            ],
            [
              -58.61994,
              -34.628864
            ],
            [
              -58.619872227,
              -34.628908805
            ],
            [
              -58.61976,
              -34.628983
            ],
            [
              -58.619907,
              -34.62961
            ],
            [
              -58.620066394,
              -34.630225592
            ],
            [
              -58.620197,
              -34.63073
            ],
            [
              -58.620223236,
              -34.630816205
            ],
            [
              -58.620240706,
              -34.630873604
            ],
            [
              -58.620382443,
              -34.631339311
            ],
            [
              -58.6204,
              -34.631397
            ],
            [
              -58.620412162,
              -34.631412517
            ],
            [
              -58.620846602,
              -34.631966788
            ],
            [
              -58.621426,
              -34.632706
            ],
            [
              -58.62673,
              -34.632797
            ],
            [
              -58.63391,
              -34.632473
            ],
            [
              -58.64618,
              -34.631424
            ],
            [
              -58.64806,
              -34.6313
            ],
            [
              -58.6499,
              -34.631332
            ],
            [
              -58.65138,
              -34.631413
            ],
            [
              -58.652878,
              -34.631554
            ],
            [
              -58.653625,
              -34.631657
            ],
            [
              -58.653656,
              -34.631275
            ],
            [
              -58.65371,
              -34.630753
            ],
            [
              -58.65373,
              -34.630653
            ],
            [
              -58.65376,
              -34.63055
            ],
            [
              -58.65382,
              -34.6304
            ],
            [
              -58.653984,
              -34.630116
            ],
            [
              -58.654001894,
              -34.630100626
            ],
            [
              -58.654159568,
              -34.629965159
            ],
            [
              -58.65441,
              -34.62975
            ],
            [
              -58.65495,
              -34.62932
            ],
            [
              -58.655067,
              -34.629223
            ]
          ]
        ]
      },
      "id": "partido_hurlingham"
    }
  ]
}
