{
  "type": "FeatureCollection",
  "name": "02_localidades_hurlingham",
  "metadata": {
    "generated_at": "2026-06-15T02:04:23.824601+00:00",
    "crs": "EPSG:4326",
    "scope": "Partido de Hurlingham, Buenos Aires, Argentina",
    "source_name": "OSM / Overpass package",
    "source_zip": "C:\\Users\\corebi\\Downloads\\hurlingham_geo_hierarchy_package.zip",
    "data_confidence": "low_medium"
  },
  "features": [
    {
      "type": "Feature",
      "properties": {
        "level": 2,
        "level_name": "localidad",
        "canonical_name": "Hurlingham",
        "locality_name": "Hurlingham",
        "parent_partido": "Partido de Hurlingham",
        "source_method": "manual_dissolve_from_candidate_zones_dissolved_clipped",
        "source_confidence": "low_medium",
        "source_warning": "Capa operativa aproximada. Regenerar con queries/02_localidades_hurlingham.overpassql para límites oficiales OSM.",
        "needs_manual_review": true,
        "source_feature_count": 1,
        "generated_at": "2026-06-15T02:04:23.824601+00:00",
        "area_km2": 10.145589,
        "feature_id": "locality_hurlingham"
      },
      "geometry": {
        "type": "Polygon",
        "coordinates": [
          [
            [
              -58.6409973,
              -34.6066794
            ],
            [
              -58.6414704,
              -34.6072493
            ],
            [
              -58.6419384,
              -34.6078032
            ],
            [
              -58.6424157,
              -34.6083787
            ],
            [
              -58.6428846,
              -34.6089209
            ],
            [
              -58.6435736,
              -34.6083668
            ],
            [
              -58.6443874,
              -34.6077189
            ],
            [
              -58.6451408,
              -34.6071266
            ],
            [
              -58.6459614,
              -34.606462
            ],
            [
              -58.6462317,
              -34.6062421
            ],
            [
              -58.6466709,
              -34.6058892
            ],
            [
              -58.6473092,
              -34.6053686
            ],
            [
              -58.6482544,
              -34.6046168
            ],
            [
              -58.6488282,
              -34.6041461
            ],
            [
              -58.6491123,
              -34.603918
            ],
            [
              -58.6494968,
              -34.6036051
            ],
            [
              -58.6500227,
              -34.6031772
            ],
            [
              -58.650962,
              -34.6024266
            ],
            [
              -58.6519961,
              -34.6015722
            ],
            [
              -58.6515879,
              -34.6012253
            ],
            [
              -58.6514548,
              -34.6011055
            ],
            [
              -58.6512208,
              -34.600907
            ],
            [
              -58.6508831,
              -34.6006115
            ],
            [
              -58.6508348,
              -34.6005715
            ],
            [
              -58.6504187,
              -34.6002271
            ],
            [
              -58.6508105,
              -34.599877
            ],
            [
              -58.6508534,
              -34.5998224
            ],
            [
              -58.6507964,
              -34.5997532
            ],
            [
              -58.6503335,
              -34.5991732
            ],
            [
              -58.6499176,
              -34.5986504
            ],
            [
              -58.6498731,
              -34.5985951
            ],
            [
              -58.6494816,
              -34.598129
            ],
            [
              -58.6493948,
              -34.5980189
            ],
            [
              -58.6490148,
              -34.5975206
            ],
            [
              -58.6489326,
              -34.5974221
            ],
            [
              -58.6484609,
              -34.5968487
            ],
            [
              -58.6478421,
              -34.5960723
            ],
            [
              -58.6472003,
              -34.5952628
            ],
            [
              -58.6477406,
              -34.5948465
            ],
            [
              -58.6483438,
              -34.5943689
            ],
            [
              -58.6486352,
              -34.5941224
            ],
            [
              -58.6488733,
              -34.5939126
            ],
            [
              -58.6489949,
              -34.593814
            ],
            [
              -58.6491109,
              -34.5937103
            ],
            [
              -58.6493652,
              -34.5935106
            ],
            [
              -58.649587,
              -34.593335
            ],
            [
              -58.6502292,
              -34.5928266
            ],
            [
              -58.6508429,
              -34.5923364
            ],
            [
              -58.6514226,
              -34.5918545
            ],
            [
              -58.652096,
              -34.5913203
            ],
            [
              -58.6531208,
              -34.5904866
            ],
            [
              -58.6534931,
              -34.5901848
            ],
            [
              -58.6540213,
              -34.5897566
            ],
            [
              -58.6533055,
              -34.5891502
            ],
            [
              -58.6531698,
              -34.5890353
            ],
            [
              -58.6522658,
              -34.5882671
            ],
            [
              -58.6516091,
              -34.5877134
            ],
            [
              -58.6508795,
              -34.5870931
            ],
            [
              -58.6505638,
              -34.586828
            ],
            [
              -58.6504961,
              -34.5867813
            ],
            [
              -58.6503347,
              -34.5866701
            ],
            [
              -58.6503129,
              -34.5866551
            ],
            [
              -58.6502565,
              -34.5866163
            ],
            [
              -58.6495466,
              -34.5861301
            ],
            [
              -58.6494683,
              -34.5860788
            ],
            [
              -58.6486388,
              -34.5855347
            ],
            [
              -58.6477655,
              -34.5849678
            ],
            [
              -58.6469444,
              -34.5844144
            ],
            [
              -58.6464191,
              -34.5839651
            ],
            [
              -58.646317,
              -34.5838633
            ],
            [
              -58.6462736,
              -34.5838209
            ],
            [
              -58.646165,
              -34.5837198
            ],
            [
              -58.6460715,
              -34.583636
            ],
            [
              -58.6454877,
              -34.5831357
            ],
            [
              -58.6454049,
              -34.5830648
            ],
            [
              -58.6446918,
              -34.5824152
            ],
            [
              -58.6439549,
              -34.5817803
            ],
            [
              -58.6432361,
              -34.5811398
            ],
            [
              -58.6424868,
              -34.5804637
            ],
            [
              -58.6417395,
              -34.5798077
            ],
            [
              -58.6409538,
              -34.5791447
            ],
            [
              -58.6412941,
              -34.5788653
            ],
            [
              -58.6413902,
              -34.5787865
            ],
            [
              -58.6414157,
              -34.5787665
            ],
            [
              -58.6415392,
              -34.5786696
            ],
            [
              -58.6417352,
              -34.578515
            ],
            [
              -58.6422725,
              -34.5781065
            ],
            [
              -58.6424332,
              -34.5779843
            ],
            [
              -58.6432542,
              -34.5773663
            ],
            [
              -58.6446651,
              -34.5762379
            ],
            [
              -58.6458074,
              -34.5753388
            ],
            [
              -58.6463059,
              -34.5749458
            ],
            [
              -58.6464539,
              -34.5748313
            ],
            [
              -58.6465821,
              -34.5747291
            ],
            [
              -58.6472796,
              -34.5741732
            ],
            [
              -58.6481163,
              -34.5735071
            ],
            [
              -58.6483522,
              -34.5733231
            ],
            [
              -58.648592,
              -34.5731331
            ],
            [
              -58.6489542,
              -34.5728562
            ],
            [
              -58.6490697,
              -34.5727628
            ],
            [
              -58.6498578,
              -34.5721252
            ],
            [
              -58.6503947,
              -34.57171
            ],
            [
              -58.650563,
              -34.5715789
            ],
            [
              -58.651029,
              -34.5712177
            ],
            [
              -58.6513615,
              -34.5709475
            ],
            [
              -58.6516892,
              -34.5706642
            ],
            [
              -58.6518953,
              -34.5704634
            ],
            [
              -58.6526306,
              -34.5695911
            ],
            [
              -58.6531482,
              -34.568977
            ],
            [
              -58.6525628,
              -34.5688903
            ],
            [
              -58.6522249,
              -34.5688352
            ],
            [
              -58.6520061,
              -34.5687995
            ],
            [
              -58.6509436,
              -34.5686376
            ],
            [
              -58.6478541,
              -34.5681766
            ],
            [
              -58.6476946,
              -34.5681522
            ],
            [
              -58.6475704,
              -34.5681331
            ],
            [
              -58.6461957,
              -34.5679316
            ],
            [
              -58.6434958,
              -34.567533
            ],
            [
              -58.641316118,
              -34.567199164
            ],
            [
              -58.641316117,
              -34.567199164
            ],
            [
              -58.639297,
              -34.56883
            ],
            [
              -58.638283,
              -34.569633
            ],
            [
              -58.6373,
              -34.57046
            ],
            [
              -58.636383,
              -34.571217
            ],
            [
              -58.635628,
              -34.571857
            ],
            [
              -58.63486,
              -34.57251
            ],
            [
              -58.634125,
              -34.573166
            ],
            [
              -58.632687,
              -34.574375
            ],
            [
              -58.631523,
              -34.575348
            ],
            [
              -58.63041,
              -34.576286
            ],
            [
              -58.62895,
              -34.577507
            ],
            [
              -58.628426,
              -34.57794
            ],
            [
              -58.62794,
              -34.57835
            ],
            [
              -58.62392,
              -34.58172
            ],
            [
              -58.621246,
              -34.583992
            ],
            [
              -58.621238785,
              -34.583998185
            ],
            [
              -58.62112,
              -34.5841
            ],
            [
              -58.620197,
              -34.584892
            ],
            [
              -58.619799239,
              -34.585232315
            ],
            [
              -58.619799232,
              -34.585232321
            ],
            [
              -58.6196557,
              -34.5853613
            ],
            [
              -58.618669037,
              -34.58620625
            ],
            [
              -58.618668998,
              -34.586206284
            ],
            [
              -58.618565,
              -34.586296
            ],
            [
              -58.618527986,
              -34.586326921
            ],
            [
              -58.617435,
              -34.58724
            ],
            [
              -58.616756,
              -34.587822
            ],
            [
              -58.616429137,
              -34.587994879
            ],
            [
              -58.616410303,
              -34.58800484
            ],
            [
              -58.61641,
              -34.588005
            ],
            [
              -58.616410821,
              -34.588208958
            ],
            [
              -58.616413,
              -34.58875
            ],
            [
              -58.616463,
              -34.59036
            ],
            [
              -58.616484172,
              -34.590518213
            ],
            [
              -58.616592,
              -34.591324
            ],
            [
              -58.616863,
              -34.592487
            ],
            [
              -58.617367,
              -34.594265
            ],
            [
              -58.617485,
              -34.594936
            ],
            [
              -58.61772,
              -34.59574
            ],
            [
              -58.61792737,
              -34.596031614
            ],
            [
              -58.61804,
              -34.59619
            ],
            [
              -58.61833,
              -34.596474
            ],
            [
              -58.618540087,
              -34.596672302
            ],
            [
              -58.61854038,
              -34.596672578
            ],
            [
              -58.6188461,
              -34.5969605
            ],
            [
              -58.61884651,
              -34.596961537
            ],
            [
              -58.618846511,
              -34.596961538
            ],
            [
              -58.618847,
              -34.596962
            ],
            [
              -58.619134269,
              -34.597688167
            ],
            [
              -58.619404,
              -34.59837
            ],
            [
              -58.619542788,
              -34.598632751
            ],
            [
              -58.62049,
              -34.600426
            ],
            [
              -58.62094,
              -34.60128
            ],
            [
              -58.621105371,
              -34.601510547
            ],
            [
              -58.62111,
              -34.601517
            ],
            [
              -58.621110376,
              -34.601517734
            ],
            [
              -58.621183005,
              -34.601659665
            ],
            [
              -58.62125011,
              -34.601790799
            ],
            [
              -58.621330699,
              -34.601948283
            ],
            [
              -58.62135,
              -34.601986
            ],
            [
              -58.621352333,
              -34.602009076
            ],
            [
              -58.621387,
              -34.602352
            ],
            [
              -58.621326,
              -34.602726
            ],
            [
              -58.62082,
              -34.604393
            ],
            [
              -58.620646654,
              -34.604617387
            ],
            [
              -58.62064,
              -34.604626
            ],
            [
              -58.620438863,
              -34.60477179
            ],
            [
              -58.620193,
              -34.60495
            ],
            [
              -58.620180764,
              -34.604967986
            ],
            [
              -58.619827,
              -34.605488
            ],
            [
              -58.61977,
              -34.60566
            ],
            [
              -58.6198,
              -34.606476
            ],
            [
              -58.619984,
              -34.60732
            ],
            [
              -58.620094,
              -34.60807
            ],
            [
              -58.6202,
              -34.608856
            ],
            [
              -58.62036,
              -34.60924
            ],
            [
              -58.620476309,
              -34.609375693
            ],
            [
              -58.620564,
              -34.609478
            ],
            [
              -58.620833796,
              -34.609743886
            ],
            [
              -58.6213242,
              -34.6102252
            ],
            [
              -58.6216651,
              -34.6104937
            ],
            [
              -58.6218204,
              -34.6108365
            ],
            [
              -58.6217179,
              -34.6113751
            ],
            [
              -58.6213553,
              -34.611999
            ],
            [
              -58.6210018,
              -34.6124855
            ],
            [
              -58.6214721,
              -34.6124064
            ],
            [
              -58.6215072,
              -34.6123926
            ],
            [
              -58.6218396,
              -34.6123367
            ],
            [
              -58.6224154,
              -34.6122405
            ],
            [
              -58.6230039,
              -34.6121275
            ],
            [
              -58.6236274,
              -34.6120135
            ],
            [
              -58.6236882,
              -34.6120023
            ],
            [
              -58.6244052,
              -34.6118778
            ],
            [
              -58.6261592,
              -34.6115602
            ],
            [
              -58.6263238,
              -34.6115203
            ],
            [
              -58.6263877,
              -34.6114942
            ],
            [
              -58.6266041,
              -34.6117614
            ],
            [
              -58.6269789,
              -34.6114727
            ],
            [
              -58.6279515,
              -34.6107068
            ],
            [
              -58.6286689,
              -34.6101187
            ],
            [
              -58.629251,
              -34.6096596
            ],
            [
              -58.6301926,
              -34.6089055
            ],
            [
              -58.6312053,
              -34.6080912
            ],
            [
              -58.6319768,
              -34.6074641
            ],
            [
              -58.6324277,
              -34.6070942
            ],
            [
              -58.632973,
              -34.6066575
            ],
            [
              -58.6329986,
              -34.6066372
            ],
            [
              -58.6331106,
              -34.6065455
            ],
            [
              -58.6332791,
              -34.6064156
            ],
            [
              -58.6339599,
              -34.6058793
            ],
            [
              -58.6344323,
              -34.6054896
            ],
            [
              -58.6349594,
              -34.6050789
            ],
            [
              -58.6352391,
              -34.604867
            ],
            [
              -58.6353547,
              -34.6047665
            ],
            [
              -58.6360865,
              -34.6041719
            ],
            [
              -58.636738,
              -34.6036421
            ],
            [
              -58.6373071,
              -34.6031924
            ],
            [
              -58.6380872,
              -34.6038676
            ],
            [
              -58.6387806,
              -34.6044524
            ],
            [
              -58.6394775,
              -34.605037
            ],
            [
              -58.6400118,
              -34.6054915
            ],
            [
              -58.6400728,
              -34.6055558
            ],
            [
              -58.6405427,
              -34.606123
            ],
            [
              -58.6409973,
              -34.6066794
            ]
          ]
        ]
      },
      "id": "locality_hurlingham"
    },
    {
      "type": "Feature",
      "properties": {
        "level": 2,
        "level_name": "localidad",
        "canonical_name": "Villa Tesei",
        "locality_name": "Villa Tesei",
        "parent_partido": "Partido de Hurlingham",
        "source_method": "manual_dissolve_from_candidate_zones_dissolved_clipped",
        "source_confidence": "low_medium",
        "source_warning": "Capa operativa aproximada. Regenerar con queries/02_localidades_hurlingham.overpassql para límites oficiales OSM.",
        "needs_manual_review": true,
        "source_feature_count": 1,
        "generated_at": "2026-06-15T02:04:23.824601+00:00",
        "area_km2": 9.094917,
        "feature_id": "locality_villatesei"
      },
      "geometry": {
        "type": "Polygon",
        "coordinates": [
          [
            [
              -58.64618,
              -34.631424
            ],
            [
              -58.64806,
              -34.6313
            ],
            [
              -58.6499,
              -34.631332
            ],
            [
              -58.65138,
              -34.631413
            ],
            [
              -58.652878,
              -34.631554
            ],
            [
              -58.653625,
              -34.631657
            ],
            [
              -58.653656,
              -34.631275
            ],
            [
              -58.65371,
              -34.630753
            ],
            [
              -58.65373,
              -34.630653
            ],
            [
              -58.65376,
              -34.63055
            ],
            [
              -58.65382,
              -34.6304
            ],
            [
              -58.653984,
              -34.630116
            ],
            [
              -58.654001894,
              -34.630100626
            ],
            [
              -58.654159568,
              -34.629965159
            ],
            [
              -58.65441,
              -34.62975
            ],
            [
              -58.65495,
              -34.62932
            ],
            [
              -58.655067,
              -34.629223
            ],
            [
              -58.655403914,
              -34.628923375
            ],
            [
              -58.655582,
              -34.628765
            ],
            [
              -58.655638574,
              -34.628719972
            ],
            [
              -58.655960602,
              -34.628463664
            ],
            [
              -58.656458565,
              -34.628067326
            ],
            [
              -58.6564638,
              -34.6280631
            ],
            [
              -58.656464352,
              -34.628062672
            ],
            [
              -58.656624,
              -34.627914
            ],
            [
              -58.6572328,
              -34.627441578
            ],
            [
              -58.657232808,
              -34.627441572
            ],
            [
              -58.6573198,
              -34.6273704
            ],
            [
              -58.657393645,
              -34.627308978
            ],
            [
              -58.657393654,
              -34.62730897
            ],
            [
              -58.657963,
              -34.626816
            ],
            [
              -58.658966,
              -34.626007
            ],
            [
              -58.659551485,
              -34.625526378
            ],
            [
              -58.65977,
              -34.625347
            ],
            [
              -58.660583,
              -34.62468
            ],
            [
              -58.660974835,
              -34.624357371
            ],
            [
              -58.662174,
              -34.62337
            ],
            [
              -58.665775,
              -34.62043
            ],
            [
              -58.665809958,
              -34.620400811
            ],
            [
              -58.6641776,
              -34.6190507
            ],
            [
              -58.6634144,
              -34.6184218
            ],
            [
              -58.6626393,
              -34.6177819
            ],
            [
              -58.6617443,
              -34.6170431
            ],
            [
              -58.6610375,
              -34.616471
            ],
            [
              -58.6599732,
              -34.6173509
            ],
            [
              -58.6588982,
              -34.6182216
            ],
            [
              -58.6582055,
              -34.618799
            ],
            [
              -58.6578436,
              -34.6191022
            ],
            [
              -58.6565817,
              -34.6201551
            ],
            [
              -58.6558705,
              -34.6207361
            ],
            [
              -58.655316,
              -34.6202725
            ],
            [
              -58.6549599,
              -34.6199748
            ],
            [
              -58.6548969,
              -34.6199203
            ],
            [
              -58.6548422,
              -34.619873
            ],
            [
              -58.6547403,
              -34.6197849
            ],
            [
              -58.6541111,
              -34.6192409
            ],
            [
              -58.6537021,
              -34.6188986
            ],
            [
              -58.6524593,
              -34.6178487
            ],
            [
              -58.6539328,
              -34.6166406
            ],
            [
              -58.6553398,
              -34.6154705
            ],
            [
              -58.65536,
              -34.6154272
            ],
            [
              -58.6553529,
              -34.6153838
            ],
            [
              -58.6552957,
              -34.6153231
            ],
            [
              -58.654722,
              -34.6149178
            ],
            [
              -58.654023,
              -34.6144142
            ],
            [
              -58.6532547,
              -34.6138757
            ],
            [
              -58.6525411,
              -34.6133556
            ],
            [
              -58.6517877,
              -34.6127899
            ],
            [
              -58.6525378,
              -34.6121986
            ],
            [
              -58.6525714,
              -34.6121546
            ],
            [
              -58.6525824,
              -34.6121054
            ],
            [
              -58.652568,
              -34.6120596
            ],
            [
              -58.6525401,
              -34.6120266
            ],
            [
              -58.6514296,
              -34.611311
            ],
            [
              -58.651123,
              -34.611106
            ],
            [
              -58.6502515,
              -34.6105359
            ],
            [
              -58.6493092,
              -34.6099358
            ],
            [
              -58.6499017,
              -34.6094186
            ],
            [
              -58.6503731,
              -34.6090375
            ],
            [
              -58.6510066,
              -34.6085279
            ],
            [
              -58.6514768,
              -34.6081509
            ],
            [
              -58.6519241,
              -34.607786
            ],
            [
              -58.6518662,
              -34.6077339
            ],
            [
              -58.6513368,
              -34.6072795
            ],
            [
              -58.6507762,
              -34.6067933
            ],
            [
              -58.650186,
              -34.6062933
            ],
            [
              -58.6496234,
              -34.6058023
            ],
            [
              -58.6495376,
              -34.6057285
            ],
            [
              -58.6489242,
              -34.605215
            ],
            [
              -58.6483024,
              -34.604674
            ],
            [
              -58.6482544,
              -34.6046168
            ],
            [
              -58.6473092,
              -34.6053686
            ],
            [
              -58.6466709,
              -34.6058892
            ],
            [
              -58.6462317,
              -34.6062421
            ],
            [
              -58.6459614,
              -34.606462
            ],
            [
              -58.6451408,
              -34.6071266
            ],
            [
              -58.6443874,
              -34.6077189
            ],
            [
              -58.6435736,
              -34.6083668
            ],
            [
              -58.6428846,
              -34.6089209
            ],
            [
              -58.6424157,
              -34.6083787
            ],
            [
              -58.6419384,
              -34.6078032
            ],
            [
              -58.6414704,
              -34.6072493
            ],
            [
              -58.6409973,
              -34.6066794
            ],
            [
              -58.6405427,
              -34.606123
            ],
            [
              -58.6400728,
              -34.6055558
            ],
            [
              -58.6400118,
              -34.6054915
            ],
            [
              -58.6394775,
              -34.605037
            ],
            [
              -58.6387806,
              -34.6044524
            ],
            [
              -58.6380872,
              -34.6038676
            ],
            [
              -58.6373071,
              -34.6031924
            ],
            [
              -58.636738,
              -34.6036421
            ],
            [
              -58.6360865,
              -34.6041719
            ],
            [
              -58.6353547,
              -34.6047665
            ],
            [
              -58.6352391,
              -34.604867
            ],
            [
              -58.6349594,
              -34.6050789
            ],
            [
              -58.6344323,
              -34.6054896
            ],
            [
              -58.6339599,
              -34.6058793
            ],
            [
              -58.6332791,
              -34.6064156
            ],
            [
              -58.6331106,
              -34.6065455
            ],
            [
              -58.6329986,
              -34.6066372
            ],
            [
              -58.632973,
              -34.6066575
            ],
            [
              -58.6324277,
              -34.6070942
            ],
            [
              -58.6319768,
              -34.6074641
            ],
            [
              -58.6312053,
              -34.6080912
            ],
            [
              -58.6301926,
              -34.6089055
            ],
            [
              -58.629251,
              -34.6096596
            ],
            [
              -58.6286689,
              -34.6101187
            ],
            [
              -58.6279515,
              -34.6107068
            ],
            [
              -58.6269789,
              -34.6114727
            ],
            [
              -58.6266041,
              -34.6117614
            ],
            [
              -58.6263877,
              -34.6114942
            ],
            [
              -58.6263238,
              -34.6115203
            ],
            [
              -58.6261592,
              -34.6115602
            ],
            [
              -58.6244052,
              -34.6118778
            ],
            [
              -58.6236882,
              -34.6120023
            ],
            [
              -58.6236274,
              -34.6120135
            ],
            [
              -58.6230039,
              -34.6121275
            ],
            [
              -58.6224154,
              -34.6122405
            ],
            [
              -58.6218396,
              -34.6123367
            ],
            [
              -58.6215072,
              -34.6123926
            ],
            [
              -58.6214721,
              -34.6124064
            ],
            [
              -58.6210018,
              -34.6124855
            ],
            [
              -58.6213553,
              -34.611999
            ],
            [
              -58.6217179,
              -34.6113751
            ],
            [
              -58.6218204,
              -34.6108365
            ],
            [
              -58.6216651,
              -34.6104937
            ],
            [
              -58.6213242,
              -34.6102252
            ],
            [
              -58.620833796,
              -34.609743886
            ],
            [
              -58.621323,
              -34.610226
            ],
            [
              -58.621662,
              -34.610493
            ],
            [
              -58.62182,
              -34.610836
            ],
            [
              -58.621716,
              -34.611374
            ],
            [
              -58.621353,
              -34.612
            ],
            [
              -58.621,
              -34.612484
            ],
            [
              -58.620193,
              -34.613766
            ],
            [
              -58.620132,
              -34.614258
            ],
            [
              -58.62021,
              -34.614635
            ],
            [
              -58.620327,
              -34.61488
            ],
            [
              -58.620426,
              -34.615158
            ],
            [
              -58.620388,
              -34.61562
            ],
            [
              -58.619305,
              -34.61749
            ],
            [
              -58.61851,
              -34.618824
            ],
            [
              -58.618326958,
              -34.619135171
            ],
            [
              -58.61831,
              -34.619164
            ],
            [
              -58.618297543,
              -34.619189091
            ],
            [
              -58.6181,
              -34.619587
            ],
            [
              -58.617928,
              -34.62
            ],
            [
              -58.617935,
              -34.620358
            ],
            [
              -58.618195,
              -34.621708
            ],
            [
              -58.61839,
              -34.62272
            ],
            [
              -58.618652,
              -34.623913
            ],
            [
              -58.6189,
              -34.624557
            ],
            [
              -58.61933,
              -34.62585
            ],
            [
              -58.619423,
              -34.62603
            ],
            [
              -58.619465,
              -34.626163
            ],
            [
              -58.619479035,
              -34.626209221
            ],
            [
              -58.61954,
              -34.62641
            ],
            [
              -58.619556933,
              -34.626426933
            ],
            [
              -58.6196,
              -34.62647
            ],
            [
              -58.619662769,
              -34.626518991
            ],
            [
              -58.619682,
              -34.626534
            ],
            [
              -58.61969304,
              -34.62661312
            ],
            [
              -58.6196956,
              -34.62662
            ],
            [
              -58.619737503,
              -34.626791798
            ],
            [
              -58.619737513,
              -34.626791838
            ],
            [
              -58.61993,
              -34.627552
            ],
            [
              -58.620243,
              -34.62853
            ],
            [
              -58.620099355,
              -34.628706902
            ],
            [
              -58.62004,
              -34.62878
            ],
            [
              -58.61994,
              -34.628864
            ],
            [
              -58.619872227,
              -34.628908805
            ],
            [
              -58.61976,
              -34.628983
            ],
            [
              -58.619907,
              -34.62961
            ],
            [
              -58.620066394,
              -34.630225592
            ],
            [
              -58.6201994,
              -34.6307286
            ],
            [
              -58.620223236,
              -34.630816205
            ],
            [
              -58.620230429,
              -34.63083984
            ],
            [
              -58.620240706,
              -34.630873604
            ],
            [
              -58.620382443,
              -34.631339311
            ],
            [
              -58.620382443,
              -34.631339312
            ],
            [
              -58.6203896,
              -34.6313465
            ],
            [
              -58.620412162,
              -34.631412517
            ],
            [
              -58.620846602,
              -34.631966788
            ],
            [
              -58.621426,
              -34.632706
            ],
            [
              -58.62673,
              -34.632797
            ],
            [
              -58.63391,
              -34.632473
            ],
            [
              -58.64618,
              -34.631424
            ]
          ]
        ]
      },
      "id": "locality_villatesei"
    },
    {
      "type": "Feature",
      "properties": {
        "level": 2,
        "level_name": "localidad",
        "canonical_name": "William C. Morris",
        "locality_name": "William C. Morris",
        "parent_partido": "Partido de Hurlingham",
        "source_method": "manual_dissolve_from_candidate_zones_dissolved_clipped",
        "source_confidence": "low_medium",
        "source_warning": "Capa operativa aproximada. Regenerar con queries/02_localidades_hurlingham.overpassql para límites oficiales OSM.",
        "needs_manual_review": true,
        "source_feature_count": 1,
        "generated_at": "2026-06-15T02:04:23.824601+00:00",
        "area_km2": 15.645876,
        "feature_id": "locality_williamcmorris"
      },
      "geometry": {
        "type": "Polygon",
        "coordinates": [
          [
            [
              -58.6508831,
              -34.6006115
            ],
            [
              -58.6512208,
              -34.600907
            ],
            [
              -58.6514548,
              -34.6011055
            ],
            [
              -58.6515879,
              -34.6012253
            ],
            [
              -58.6519961,
              -34.6015722
            ],
            [
              -58.650962,
              -34.6024266
            ],
            [
              -58.6500227,
              -34.6031772
            ],
            [
              -58.6494968,
              -34.6036051
            ],
            [
              -58.6491123,
              -34.603918
            ],
            [
              -58.6488282,
              -34.6041461
            ],
            [
              -58.6482544,
              -34.6046168
            ],
            [
              -58.6483024,
              -34.604674
            ],
            [
              -58.6489242,
              -34.605215
            ],
            [
              -58.6495376,
              -34.6057285
            ],
            [
              -58.6496234,
              -34.6058023
            ],
            [
              -58.650186,
              -34.6062933
            ],
            [
              -58.6507762,
              -34.6067933
            ],
            [
              -58.6513368,
              -34.6072795
            ],
            [
              -58.6518662,
              -34.6077339
            ],
            [
              -58.6519241,
              -34.607786
            ],
            [
              -58.6514768,
              -34.6081509
            ],
            [
              -58.6510066,
              -34.6085279
            ],
            [
              -58.6503731,
              -34.6090375
            ],
            [
              -58.6499017,
              -34.6094186
            ],
            [
              -58.6493092,
              -34.6099358
            ],
            [
              -58.6502515,
              -34.6105359
            ],
            [
              -58.651123,
              -34.611106
            ],
            [
              -58.6514296,
              -34.611311
            ],
            [
              -58.6525401,
              -34.6120266
            ],
            [
              -58.652568,
              -34.6120596
            ],
            [
              -58.6525824,
              -34.6121054
            ],
            [
              -58.6525714,
              -34.6121546
            ],
            [
              -58.6525378,
              -34.6121986
            ],
            [
              -58.6517877,
              -34.6127899
            ],
            [
              -58.6525411,
              -34.6133556
            ],
            [
              -58.6532547,
              -34.6138757
            ],
            [
              -58.654023,
              -34.6144142
            ],
            [
              -58.654722,
              -34.6149178
            ],
            [
              -58.6552957,
              -34.6153231
            ],
            [
              -58.6553529,
              -34.6153838
            ],
            [
              -58.65536,
              -34.6154272
            ],
            [
              -58.6553398,
              -34.6154705
            ],
            [
              -58.6539328,
              -34.6166406
            ],
            [
              -58.6524593,
              -34.6178487
            ],
            [
              -58.6537021,
              -34.6188986
            ],
            [
              -58.6541111,
              -34.6192409
            ],
            [
              -58.6547403,
              -34.6197849
            ],
            [
              -58.6548422,
              -34.619873
            ],
            [
              -58.6548969,
              -34.6199203
            ],
            [
              -58.6549599,
              -34.6199748
            ],
            [
              -58.655316,
              -34.6202725
            ],
            [
              -58.6558705,
              -34.6207361
            ],
            [
              -58.6565817,
              -34.6201551
            ],
            [
              -58.6578436,
              -34.6191022
            ],
            [
              -58.6582055,
              -34.618799
            ],
            [
              -58.6588982,
              -34.6182216
            ],
            [
              -58.6599732,
              -34.6173509
            ],
            [
              -58.6610375,
              -34.616471
            ],
            [
              -58.6617443,
              -34.6170431
            ],
            [
              -58.6626393,
              -34.6177819
            ],
            [
              -58.6634144,
              -34.6184218
            ],
            [
              -58.6641776,
              -34.6190507
            ],
            [
              -58.665809958,
              -34.620400811
            ],
            [
              -58.666702,
              -34.619656
            ],
            [
              -58.667664,
              -34.618862
            ],
            [
              -58.669575,
              -34.617275
            ],
            [
              -58.67143,
              -34.61574
            ],
            [
              -58.671997,
              -34.61528
            ],
            [
              -58.67363,
              -34.613945
            ],
            [
              -58.674446,
              -34.613255
            ],
            [
              -58.676086,
              -34.61192
            ],
            [
              -58.676895,
              -34.611263
            ],
            [
              -58.677803,
              -34.610523
            ],
            [
              -58.679333,
              -34.609283
            ],
            [
              -58.68175,
              -34.607292
            ],
            [
              -58.68259,
              -34.606598
            ],
            [
              -58.683395,
              -34.605946
            ],
            [
              -58.684383,
              -34.605156
            ],
            [
              -58.68385,
              -34.60465
            ],
            [
              -58.683266,
              -34.60414
            ],
            [
              -58.682697,
              -34.603653
            ],
            [
              -58.682117,
              -34.603127
            ],
            [
              -58.685925,
              -34.600067
            ],
            [
              -58.686672,
              -34.59946
            ],
            [
              -58.687485,
              -34.59881
            ],
            [
              -58.687984,
              -34.598408
            ],
            [
              -58.68911,
              -34.597504
            ],
            [
              -58.690002,
              -34.596798
            ],
            [
              -58.69264,
              -34.59467
            ],
            [
              -58.69348,
              -34.593987
            ],
            [
              -58.691536,
              -34.592587
            ],
            [
              -58.690956,
              -34.59217
            ],
            [
              -58.687584,
              -34.58975
            ],
            [
              -58.684517,
              -34.58866
            ],
            [
              -58.68332,
              -34.587955
            ],
            [
              -58.68239,
              -34.587013
            ],
            [
              -58.681065,
              -34.584023
            ],
            [
              -58.679573,
              -34.582207
            ],
            [
              -58.67767,
              -34.57988
            ],
            [
              -58.675797,
              -34.57847
            ],
            [
              -58.67284,
              -34.577427
            ],
            [
              -58.671246,
              -34.57675
            ],
            [
              -58.66997,
              -34.576023
            ],
            [
              -58.667053,
              -34.573433
            ],
            [
              -58.666245,
              -34.572643
            ],
            [
              -58.65981,
              -34.568657
            ],
            [
              -58.658115,
              -34.567608
            ],
            [
              -58.656933,
              -34.566906
            ],
            [
              -58.655575,
              -34.566254
            ],
            [
              -58.654667,
              -34.56574
            ],
            [
              -58.654408,
              -34.56564
            ],
            [
              -58.65408,
              -34.56554
            ],
            [
              -58.65375,
              -34.56549
            ],
            [
              -58.65313,
              -34.565426
            ],
            [
              -58.65273,
              -34.565357
            ],
            [
              -58.652454,
              -34.565258
            ],
            [
              -58.65222,
              -34.565136
            ],
            [
              -58.651962,
              -34.56496
            ],
            [
              -58.651375,
              -34.564514
            ],
            [
              -58.650894,
              -34.56422
            ],
            [
              -58.650578,
              -34.564087
            ],
            [
              -58.650337,
              -34.564026
            ],
            [
              -58.649746,
              -34.5639
            ],
            [
              -58.648956,
              -34.563717
            ],
            [
              -58.646416,
              -34.56308
            ],
            [
              -58.641316118,
              -34.567199164
            ],
            [
              -58.6434958,
              -34.567533
            ],
            [
              -58.6461957,
              -34.5679316
            ],
            [
              -58.6475704,
              -34.5681331
            ],
            [
              -58.6476946,
              -34.5681522
            ],
            [
              -58.6478541,
              -34.5681766
            ],
            [
              -58.6509436,
              -34.5686376
            ],
            [
              -58.6520061,
              -34.5687995
            ],
            [
              -58.6522249,
              -34.5688352
            ],
            [
              -58.6525628,
              -34.5688903
            ],
            [
              -58.6531482,
              -34.568977
            ],
            [
              -58.6526306,
              -34.5695911
            ],
            [
              -58.6518953,
              -34.5704634
            ],
            [
              -58.6516892,
              -34.5706642
            ],
            [
              -58.6513615,
              -34.5709475
            ],
            [
              -58.651029,
              -34.5712177
            ],
            [
              -58.650563,
              -34.5715789
            ],
            [
              -58.6503947,
              -34.57171
            ],
            [
              -58.6498578,
              -34.5721252
            ],
            [
              -58.6490697,
              -34.5727628
            ],
            [
              -58.6489542,
              -34.5728562
            ],
            [
              -58.648592,
              -34.5731331
            ],
            [
              -58.6483522,
              -34.5733231
            ],
            [
              -58.6481163,
              -34.5735071
            ],
            [
              -58.6472796,
              -34.5741732
            ],
            [
              -58.6465821,
              -34.5747291
            ],
            [
              -58.6464539,
              -34.5748313
            ],
            [
              -58.6463059,
              -34.5749458
            ],
            [
              -58.6458074,
              -34.5753388
            ],
            [
              -58.6446651,
              -34.5762379
            ],
            [
              -58.6432542,
              -34.5773663
            ],
            [
              -58.6424332,
              -34.5779843
            ],
            [
              -58.6422725,
              -34.5781065
            ],
            [
              -58.6417352,
              -34.578515
            ],
            [
              -58.6415392,
              -34.5786696
            ],
            [
              -58.6414157,
              -34.5787665
            ],
            [
              -58.6413902,
              -34.5787865
            ],
            [
              -58.6412941,
              -34.5788653
            ],
            [
              -58.6409538,
              -34.5791447
            ],
            [
              -58.6417395,
              -34.5798077
            ],
            [
              -58.6424868,
              -34.5804637
            ],
            [
              -58.6432361,
              -34.5811398
            ],
            [
              -58.6439549,
              -34.5817803
            ],
            [
              -58.6446918,
              -34.5824152
            ],
            [
              -58.6454049,
              -34.5830648
            ],
            [
              -58.6454877,
              -34.5831357
            ],
            [
              -58.6460715,
              -34.583636
            ],
            [
              -58.646165,
              -34.5837198
            ],
            [
              -58.6462736,
              -34.5838209
            ],
            [
              -58.646317,
              -34.5838633
            ],
            [
              -58.6464191,
              -34.5839651
            ],
            [
              -58.6469444,
              -34.5844144
            ],
            [
              -58.6477655,
              -34.5849678
            ],
            [
              -58.6486388,
              -34.5855347
            ],
            [
              -58.6494683,
              -34.5860788
            ],
            [
              -58.6495466,
              -34.5861301
            ],
            [
              -58.6502565,
              -34.5866163
            ],
            [
              -58.6503129,
              -34.5866551
            ],
            [
              -58.6503347,
              -34.5866701
            ],
            [
              -58.6504961,
              -34.5867813
            ],
            [
              -58.6505638,
              -34.586828
            ],
            [
              -58.6508795,
              -34.5870931
            ],
            [
              -58.6516091,
              -34.5877134
            ],
            [
              -58.6522658,
              -34.5882671
            ],
            [
              -58.6531698,
              -34.5890353
            ],
            [
              -58.6533055,
              -34.5891502
            ],
            [
              -58.6540213,
              -34.5897566
            ],
            [
              -58.6534931,
              -34.5901848
            ],
            [
              -58.6531208,
              -34.5904866
            ],
            [
              -58.652096,
              -34.5913203
            ],
            [
              -58.6514226,
              -34.5918545
            ],
            [
              -58.6508429,
              -34.5923364
            ],
            [
              -58.6502292,
              -34.5928266
            ],
            [
              -58.649587,
              -34.593335
            ],
            [
              -58.6493652,
              -34.5935106
            ],
            [
              -58.6491109,
              -34.5937103
            ],
            [
              -58.6489949,
              -34.593814
            ],
            [
              -58.6488733,
              -34.5939126
            ],
            [
              -58.6486352,
              -34.5941224
            ],
            [
              -58.6483438,
              -34.5943689
            ],
            [
              -58.6477406,
              -34.5948465
            ],
            [
              -58.6472003,
              -34.5952628
            ],
            [
              -58.6478421,
              -34.5960723
            ],
            [
              -58.6484609,
              -34.5968487
            ],
            [
              -58.6489326,
              -34.5974221
            ],
            [
              -58.6490148,
              -34.5975206
            ],
            [
              -58.6493948,
              -34.5980189
            ],
            [
              -58.6494816,
              -34.598129
            ],
            [
              -58.6498731,
              -34.5985951
            ],
            [
              -58.6499176,
              -34.5986504
            ],
            [
              -58.6503335,
              -34.5991732
            ],
            [
              -58.6507964,
              -34.5997532
            ],
            [
              -58.6508534,
              -34.5998224
            ],
            [
              -58.6508105,
              -34.599877
            ],
            [
              -58.6504187,
              -34.6002271
            ],
            [
              -58.6508348,
              -34.6005715
            ],
            [
              -58.6508831,
              -34.6006115
            ]
          ]
        ]
      },
      "id": "locality_williamcmorris"
    }
  ]
}
