{
  "type": "FeatureCollection",
  "name": "04_gaps_zonas_hurlingham_final",
  "metadata": {
    "generated_at": "2026-06-15T02:04:23.824601+00:00",
    "crs": "EPSG:4326",
    "scope": "Partido de Hurlingham, Buenos Aires, Argentina",
    "source_name": "Derived from partido minus final zone polygons",
    "data_confidence": "diagnostic",
    "gap_count": 16,
    "manual_updated_at": "2026-06-29T00:07:53+00:00",
    "manual_gap_subtractions": [
      {
        "zone_name": "Los Troncos",
        "area_km2": 0.081326,
        "source_method": "manual_operational_polygon_from_user_boundary"
      }
    ]
  },
  "features": [
    {
      "type": "Feature",
      "properties": {
        "level": 99,
        "level_name": "gap_diagnostico",
        "gap_id": "GAP_001",
        "canonical_name": "Gap 001",
        "parent_partido": "Partido de Hurlingham",
        "likely_missing_zone_candidates": "",
        "source_method": "derived_partido_minus_final_zone_polygons",
        "source_confidence": "diagnostic",
        "needs_manual_review": true,
        "source_warning": "Sector no cubierto por zonas finales. Usar para priorizar revision geometrica.",
        "generated_at": "2026-06-15T02:04:23.824601+00:00",
        "area_km2": 0.000143,
        "feature_id": "gap_001"
      },
      "geometry": {
        "type": "Polygon",
        "coordinates": [
          [
            [
              -58.6550702,
              -34.6291993
            ],
            [
              -58.6549297,
              -34.6293097
            ],
            [
              -58.6544427,
              -34.6297213
            ],
            [
              -58.654160238,
              -34.629964583
            ],
            [
              -58.65441,
              -34.62975
            ],
            [
              -58.65495,
              -34.62932
            ],
            [
              -58.655067,
              -34.629223
            ],
            [
              -58.655403906,
              -34.628923382
            ],
            [
              -58.6550702,
              -34.6291993
            ]
          ]
        ]
      },
      "id": "gap_001"
    },
    {
      "type": "Feature",
      "properties": {
        "level": 99,
        "level_name": "gap_diagnostico",
        "gap_id": "GAP_004",
        "canonical_name": "Gap 004",
        "parent_partido": "Partido de Hurlingham",
        "likely_missing_zone_candidates": "",
        "source_method": "derived_partido_minus_final_zone_polygons",
        "source_confidence": "diagnostic",
        "needs_manual_review": true,
        "source_warning": "Sector no cubierto por zonas finales. Usar para priorizar revision geometrica.",
        "generated_at": "2026-06-15T02:04:23.824601+00:00",
        "area_km2": 5.7e-05,
        "feature_id": "gap_004"
      },
      "geometry": {
        "type": "Polygon",
        "coordinates": [
          [
            [
              -58.660583,
              -34.62468
            ],
            [
              -58.660974835,
              -34.624357371
            ],
            [
              -58.6606945,
              -34.6245827
            ],
            [
              -58.6606371,
              -34.6246297
            ],
            [
              -58.6597957,
              -34.6253221
            ],
            [
              -58.659551496,
              -34.625526369
            ],
            [
              -58.65977,
              -34.625347
            ],
            [
              -58.660583,
              -34.62468
            ]
          ]
        ]
      },
      "id": "gap_004"
    },
    {
      "type": "Feature",
      "properties": {
        "level": 99,
        "level_name": "gap_diagnostico",
        "gap_id": "GAP_005",
        "canonical_name": "Gap 005",
        "parent_partido": "Partido de Hurlingham",
        "likely_missing_zone_candidates": "San Dami?n (remanente diagn?stico luego de descontar Los Troncos)",
        "source_method": "derived_partido_minus_final_zone_polygons",
        "source_confidence": "diagnostic",
        "needs_manual_review": true,
        "source_warning": "Sector no cubierto por zonas finales. Los Troncos fue descontado como zona manual operativa; revisar el remanente.",
        "generated_at": "2026-06-15T02:04:23.824601+00:00",
        "area_km2": 9.78402,
        "feature_id": "gap_005"
      },
      "geometry": {
        "type": "MultiPolygon",
        "coordinates": [
          [
            [
              [
                -58.669575,
                -34.617275
              ],
              [
                -58.67143,
                -34.61574
              ],
              [
                -58.671997,
                -34.61528
              ],
              [
                -58.67363,
                -34.613945
              ],
              [
                -58.674446,
                -34.613255
              ],
              [
                -58.676086,
                -34.61192
              ],
              [
                -58.676895,
                -34.611263
              ],
              [
                -58.677803,
                -34.610523
              ],
              [
                -58.679333,
                -34.609283
              ],
              [
                -58.68175,
                -34.607292
              ],
              [
                -58.68259,
                -34.606598
              ],
              [
                -58.683395,
                -34.605946
              ],
              [
                -58.684383,
                -34.605156
              ],
              [
                -58.68385,
                -34.60465
              ],
              [
                -58.683266,
                -34.60414
              ],
              [
                -58.682697,
                -34.603653
              ],
              [
                -58.682117,
                -34.603127
              ],
              [
                -58.685925,
                -34.600067
              ],
              [
                -58.686672,
                -34.59946
              ],
              [
                -58.687485,
                -34.59881
              ],
              [
                -58.687984,
                -34.598408
              ],
              [
                -58.68911,
                -34.597504
              ],
              [
                -58.690002,
                -34.596798
              ],
              [
                -58.69264,
                -34.59467
              ],
              [
                -58.69348,
                -34.593987
              ],
              [
                -58.691536,
                -34.592587
              ],
              [
                -58.690956,
                -34.59217
              ],
              [
                -58.687584,
                -34.58975
              ],
              [
                -58.684517,
                -34.58866
              ],
              [
                -58.68332,
                -34.587955
              ],
              [
                -58.68239,
                -34.587013
              ],
              [
                -58.681065,
                -34.584023
              ],
              [
                -58.679573,
                -34.582207
              ],
              [
                -58.67767,
                -34.57988
              ],
              [
                -58.675797,
                -34.57847
              ],
              [
                -58.67284,
                -34.577427
              ],
              [
                -58.671246,
                -34.57675
              ],
              [
                -58.66997,
                -34.576023
              ],
              [
                -58.667053,
                -34.573433
              ],
              [
                -58.666245,
                -34.572643
              ],
              [
                -58.65981,
                -34.568657
              ],
              [
                -58.658115,
                -34.567608
              ],
              [
                -58.656933,
                -34.566906
              ],
              [
                -58.655575,
                -34.566254
              ],
              [
                -58.654667,
                -34.56574
              ],
              [
                -58.654408,
                -34.56564
              ],
              [
                -58.65408,
                -34.56554
              ],
              [
                -58.65375,
                -34.56549
              ],
              [
                -58.65313,
                -34.565426
              ],
              [
                -58.65273,
                -34.565357
              ],
              [
                -58.652454,
                -34.565258
              ],
              [
                -58.65222,
                -34.565136
              ],
              [
                -58.651962,
                -34.56496
              ],
              [
                -58.651375,
                -34.564514
              ],
              [
                -58.650894,
                -34.56422
              ],
              [
                -58.650578,
                -34.564087
              ],
              [
                -58.650337,
                -34.564026
              ],
              [
                -58.649746,
                -34.5639
              ],
              [
                -58.648956,
                -34.563717
              ],
              [
                -58.646416,
                -34.56308
              ],
              [
                -58.6413161,
                -34.5671992
              ],
              [
                -58.6434958,
                -34.567533
              ],
              [
                -58.6461957,
                -34.5679316
              ],
              [
                -58.6475704,
                -34.5681331
              ],
              [
                -58.6476946,
                -34.5681522
              ],
              [
                -58.6478541,
                -34.5681766
              ],
              [
                -58.6509436,
                -34.5686376
              ],
              [
                -58.6520061,
                -34.5687995
              ],
              [
                -58.6522249,
                -34.5688352
              ],
              [
                -58.6525628,
                -34.5688903
              ],
              [
                -58.6531482,
                -34.568977
              ],
              [
                -58.6526306,
                -34.5695911
              ],
              [
                -58.6518953,
                -34.5704634
              ],
              [
                -58.6516892,
                -34.5706642
              ],
              [
                -58.6513615,
                -34.5709475
              ],
              [
                -58.651029,
                -34.5712177
              ],
              [
                -58.650563,
                -34.5715789
              ],
              [
                -58.6507317,
                -34.5717294
              ],
              [
                -58.6508266,
                -34.5718125
              ],
              [
                -58.6509518,
                -34.5717143
              ],
              [
                -58.6515309,
                -34.5712599
              ],
              [
                -58.6517146,
                -34.5711274
              ],
              [
                -58.6517609,
                -34.5711167
              ],
              [
                -58.6517954,
                -34.5711291
              ],
              [
                -58.6518858,
                -34.571207
              ],
              [
                -58.652033,
                -34.5713387
              ],
              [
                -58.6521856,
                -34.5714754
              ],
              [
                -58.6526549,
                -34.5710959
              ],
              [
                -58.6530876,
                -34.5707476
              ],
              [
                -58.6538113,
                -34.5713691
              ],
              [
                -58.6545936,
                -34.570744
              ],
              [
                -58.6548786,
                -34.5709946
              ],
              [
                -58.655341,
                -34.5714013
              ],
              [
                -58.6561893,
                -34.5721284
              ],
              [
                -58.6569493,
                -34.5728081
              ],
              [
                -58.6578676,
                -34.5721028
              ],
              [
                -58.6584808,
                -34.5726386
              ],
              [
                -58.6594968,
                -34.5735244
              ],
              [
                -58.6595594,
                -34.5735828
              ],
              [
                -58.6595808,
                -34.5736028
              ],
              [
                -58.6601553,
                -34.574353
              ],
              [
                -58.6607378,
                -34.5751069
              ],
              [
                -58.6613105,
                -34.5758675
              ],
              [
                -58.6614075,
                -34.5759911
              ],
              [
                -58.6615345,
                -34.5761649
              ],
              [
                -58.6616861,
                -34.5760904
              ],
              [
                -58.6624244,
                -34.5757026
              ],
              [
                -58.6624663,
                -34.5756939
              ],
              [
                -58.6625078,
                -34.575716
              ],
              [
                -58.66337,
                -34.576602
              ],
              [
                -58.6640898,
                -34.5773228
              ],
              [
                -58.6641351,
                -34.5773682
              ],
              [
                -58.6644406,
                -34.5776688
              ],
              [
                -58.6644767,
                -34.5777019
              ],
              [
                -58.6647748,
                -34.5779722
              ],
              [
                -58.6644777,
                -34.5781752
              ],
              [
                -58.6647005,
                -34.5783415
              ],
              [
                -58.6673997,
                -34.5804233
              ],
              [
                -58.6673174,
                -34.5805253
              ],
              [
                -58.6672068,
                -34.5807147
              ],
              [
                -58.666846,
                -34.5810393
              ],
              [
                -58.667125,
                -34.5812767
              ],
              [
                -58.6666784,
                -34.5816598
              ],
              [
                -58.6668997,
                -34.5818177
              ],
              [
                -58.6669761,
                -34.5818752
              ],
              [
                -58.6674656,
                -34.5823025
              ],
              [
                -58.6679363,
                -34.5825432
              ],
              [
                -58.6682045,
                -34.5826547
              ],
              [
                -58.669728,
                -34.5831946
              ],
              [
                -58.670581,
                -34.5834861
              ],
              [
                -58.6708921,
                -34.5832167
              ],
              [
                -58.6709428,
                -34.5831714
              ],
              [
                -58.6710452,
                -34.5832498
              ],
              [
                -58.6711444,
                -34.58334
              ],
              [
                -58.6714276,
                -34.5836158
              ],
              [
                -58.6717005,
                -34.5839038
              ],
              [
                -58.6726155,
                -34.5849148
              ],
              [
                -58.6728739,
                -34.5851906
              ],
              [
                -58.6739688,
                -34.5863465
              ],
              [
                -58.672786,
                -34.5873044
              ],
              [
                -58.6709845,
                -34.5887383
              ],
              [
                -58.6684722,
                -34.5907372
              ],
              [
                -58.6683778,
                -34.5908323
              ],
              [
                -58.6692354,
                -34.591578
              ],
              [
                -58.6700642,
                -34.592337
              ],
              [
                -58.6712229,
                -34.5933931
              ],
              [
                -58.6702567,
                -34.594153
              ],
              [
                -58.6692345,
                -34.5950009
              ],
              [
                -58.6686226,
                -34.5954722
              ],
              [
                -58.6680259,
                -34.5959464
              ],
              [
                -58.667445,
                -34.5964062
              ],
              [
                -58.6668182,
                -34.5969387
              ],
              [
                -58.666228,
                -34.5974088
              ],
              [
                -58.6656433,
                -34.5978891
              ],
              [
                -58.6650612,
                -34.5983618
              ],
              [
                -58.6645012,
                -34.598833
              ],
              [
                -58.6634634,
                -34.5996776
              ],
              [
                -58.6638778,
                -34.6000148
              ],
              [
                -58.6639025,
                -34.6000562
              ],
              [
                -58.6638786,
                -34.6000872
              ],
              [
                -58.6629434,
                -34.600857
              ],
              [
                -58.6619899,
                -34.6016427
              ],
              [
                -58.6611738,
                -34.6023092
              ],
              [
                -58.6603818,
                -34.6029513
              ],
              [
                -58.6584181,
                -34.6046795
              ],
              [
                -58.658291,
                -34.6045895
              ],
              [
                -58.6582855,
                -34.6045875
              ],
              [
                -58.657666,
                -34.6041568
              ],
              [
                -58.6570535,
                -34.6037229
              ],
              [
                -58.6564086,
                -34.6032644
              ],
              [
                -58.6554534,
                -34.6025866
              ],
              [
                -58.6545335,
                -34.601913
              ],
              [
                -58.6530093,
                -34.600779
              ],
              [
                -58.6517,
                -34.60185
              ],
              [
                -58.6517028,
                -34.6018145
              ],
              [
                -58.650962,
                -34.6024266
              ],
              [
                -58.6500227,
                -34.6031772
              ],
              [
                -58.6494968,
                -34.6036051
              ],
              [
                -58.6491123,
                -34.603918
              ],
              [
                -58.6488282,
                -34.6041461
              ],
              [
                -58.6482544,
                -34.6046168
              ],
              [
                -58.6483024,
                -34.604674
              ],
              [
                -58.6489242,
                -34.605215
              ],
              [
                -58.6495376,
                -34.6057285
              ],
              [
                -58.6496234,
                -34.6058023
              ],
              [
                -58.650186,
                -34.6062933
              ],
              [
                -58.6507762,
                -34.6067933
              ],
              [
                -58.6513368,
                -34.6072795
              ],
              [
                -58.6518662,
                -34.6077339
              ],
              [
                -58.6519241,
                -34.607786
              ],
              [
                -58.6514768,
                -34.6081509
              ],
              [
                -58.6510066,
                -34.6085279
              ],
              [
                -58.6503731,
                -34.6090375
              ],
              [
                -58.6499017,
                -34.6094186
              ],
              [
                -58.6493092,
                -34.6099358
              ],
              [
                -58.6502515,
                -34.6105359
              ],
              [
                -58.651123,
                -34.611106
              ],
              [
                -58.6514296,
                -34.611311
              ],
              [
                -58.6525401,
                -34.6120266
              ],
              [
                -58.652568,
                -34.6120596
              ],
              [
                -58.6525824,
                -34.6121054
              ],
              [
                -58.6525714,
                -34.6121546
              ],
              [
                -58.6525378,
                -34.6121986
              ],
              [
                -58.6517877,
                -34.6127899
              ],
              [
                -58.6525411,
                -34.6133556
              ],
              [
                -58.6532547,
                -34.6138757
              ],
              [
                -58.654023,
                -34.6144142
              ],
              [
                -58.654722,
                -34.6149178
              ],
              [
                -58.6552957,
                -34.6153231
              ],
              [
                -58.6553529,
                -34.6153838
              ],
              [
                -58.65536,
                -34.6154272
              ],
              [
                -58.6553398,
                -34.6154705
              ],
              [
                -58.6539328,
                -34.6166406
              ],
              [
                -58.6524593,
                -34.6178487
              ],
              [
                -58.6537021,
                -34.6188986
              ],
              [
                -58.6541111,
                -34.6192409
              ],
              [
                -58.6547403,
                -34.6197849
              ],
              [
                -58.6548422,
                -34.619873
              ],
              [
                -58.6548969,
                -34.6199203
              ],
              [
                -58.6549599,
                -34.6199748
              ],
              [
                -58.655316,
                -34.6202725
              ],
              [
                -58.6558705,
                -34.6207361
              ],
              [
                -58.6565817,
                -34.6201551
              ],
              [
                -58.6578436,
                -34.6191022
              ],
              [
                -58.6582055,
                -34.618799
              ],
              [
                -58.6588982,
                -34.6182216
              ],
              [
                -58.6599732,
                -34.6173509
              ],
              [
                -58.6610375,
                -34.616471
              ],
              [
                -58.6617443,
                -34.6170431
              ],
              [
                -58.6626393,
                -34.6177819
              ],
              [
                -58.6634144,
                -34.6184218
              ],
              [
                -58.6641776,
                -34.6190507
              ],
              [
                -58.66581,
                -34.6204008
              ],
              [
                -58.666702,
                -34.619656
              ],
              [
                -58.667664,
                -34.618862
              ],
              [
                -58.669575,
                -34.617275
              ]
            ]
          ],
          [
            [
              [
                -58.6556854,
                -34.5985816
              ],
              [
                -58.6548671,
                -34.5978832
              ],
              [
                -58.6540381,
                -34.5972125
              ],
              [
                -58.6554802,
                -34.5987577
              ],
              [
                -58.6556854,
                -34.5985816
              ]
            ]
          ],
          [
            [
              [
                -58.6509166,
                -34.5997117
              ],
              [
                -58.6508889,
                -34.5997477
              ],
              [
                -58.6508534,
                -34.5998224
              ],
              [
                -58.6508105,
                -34.599877
              ],
              [
                -58.6504187,
                -34.6002271
              ],
              [
                -58.6508348,
                -34.6005715
              ],
              [
                -58.6508831,
                -34.6006115
              ],
              [
                -58.6512208,
                -34.600907
              ],
              [
                -58.6514548,
                -34.6011055
              ],
              [
                -58.6515879,
                -34.6012253
              ],
              [
                -58.6519961,
                -34.6015722
              ],
              [
                -58.6517397,
                -34.6013543
              ],
              [
                -58.6519366,
                -34.5988945
              ],
              [
                -58.6509166,
                -34.5997117
              ]
            ]
          ]
        ]
      },
      "id": "gap_005"
    },
    {
      "type": "Feature",
      "properties": {
        "level": 99,
        "level_name": "gap_diagnostico",
        "gap_id": "GAP_006",
        "canonical_name": "Gap 006",
        "parent_partido": "Partido de Hurlingham",
        "likely_missing_zone_candidates": "",
        "source_method": "derived_partido_minus_final_zone_polygons",
        "source_confidence": "diagnostic",
        "needs_manual_review": true,
        "source_warning": "Sector no cubierto por zonas finales. Usar para priorizar revision geometrica.",
        "generated_at": "2026-06-15T02:04:23.824601+00:00",
        "area_km2": 3.6e-05,
        "feature_id": "gap_006"
      },
      "geometry": {
        "type": "Polygon",
        "coordinates": [
          [
            [
              -58.618669045,
              -34.586206243
            ],
            [
              -58.6196557,
              -34.5853613
            ],
            [
              -58.619799232,
              -34.585232321
            ],
            [
              -58.61965,
              -34.58536
            ],
            [
              -58.618669045,
              -34.586206243
            ]
          ]
        ]
      },
      "id": "gap_006"
    },
    {
      "type": "Feature",
      "properties": {
        "level": 99,
        "level_name": "gap_diagnostico",
        "gap_id": "GAP_007",
        "canonical_name": "Gap 007",
        "parent_partido": "Partido de Hurlingham",
        "likely_missing_zone_candidates": "",
        "source_method": "derived_partido_minus_final_zone_polygons",
        "source_confidence": "diagnostic",
        "needs_manual_review": true,
        "source_warning": "Sector no cubierto por zonas finales. Usar para priorizar revision geometrica.",
        "generated_at": "2026-06-15T02:04:23.824601+00:00",
        "area_km2": 0.000255,
        "feature_id": "gap_007"
      },
      "geometry": {
        "type": "Polygon",
        "coordinates": [
          [
            [
              -58.617435,
              -34.58724
            ],
            [
              -58.616756,
              -34.587822
            ],
            [
              -58.61642915,
              -34.587994872
            ],
            [
              -58.6168726,
              -34.5877872
            ],
            [
              -58.6168812,
              -34.5877329
            ],
            [
              -58.6169092,
              -34.5876946
            ],
            [
              -58.6174585,
              -34.5872389
            ],
            [
              -58.6181837,
              -34.5866205
            ],
            [
              -58.6183383,
              -34.5864887
            ],
            [
              -58.618527986,
              -34.586326921
            ],
            [
              -58.617435,
              -34.58724
            ]
          ]
        ]
      },
      "id": "gap_007"
    },
    {
      "type": "Feature",
      "properties": {
        "level": 99,
        "level_name": "gap_diagnostico",
        "gap_id": "GAP_009",
        "canonical_name": "Gap 009",
        "parent_partido": "Partido de Hurlingham",
        "likely_missing_zone_candidates": "",
        "source_method": "derived_partido_minus_final_zone_polygons",
        "source_confidence": "diagnostic",
        "needs_manual_review": true,
        "source_warning": "Sector no cubierto por zonas finales. Usar para priorizar revision geometrica.",
        "generated_at": "2026-06-15T02:04:23.824601+00:00",
        "area_km2": 0.00012,
        "feature_id": "gap_009"
      },
      "geometry": {
        "type": "Polygon",
        "coordinates": [
          [
            [
              -58.616863,
              -34.592487
            ],
            [
              -58.617367,
              -34.594265
            ],
            [
              -58.617485,
              -34.594936
            ],
            [
              -58.61772,
              -34.59574
            ],
            [
              -58.617927368,
              -34.596031611
            ],
            [
              -58.6177246,
              -34.5957407
            ],
            [
              -58.6174867,
              -34.5949376
            ],
            [
              -58.6173695,
              -34.594266
            ],
            [
              -58.6168666,
              -34.592489
            ],
            [
              -58.6165938,
              -34.5913269
            ],
            [
              -58.616484226,
              -34.590518617
            ],
            [
              -58.616592,
              -34.591324
            ],
            [
              -58.616863,
              -34.592487
            ]
          ]
        ]
      },
      "id": "gap_009"
    },
    {
      "type": "Feature",
      "properties": {
        "level": 99,
        "level_name": "gap_diagnostico",
        "gap_id": "GAP_011",
        "canonical_name": "Gap 011",
        "parent_partido": "Partido de Hurlingham",
        "likely_missing_zone_candidates": "",
        "source_method": "derived_partido_minus_final_zone_polygons",
        "source_confidence": "diagnostic",
        "needs_manual_review": true,
        "source_warning": "Sector no cubierto por zonas finales. Usar para priorizar revision geometrica.",
        "generated_at": "2026-06-15T02:04:23.824601+00:00",
        "area_km2": 6.2e-05,
        "feature_id": "gap_011"
      },
      "geometry": {
        "type": "Polygon",
        "coordinates": [
          [
            [
              -58.62094,
              -34.60128
            ],
            [
              -58.621105369,
              -34.601510545
            ],
            [
              -58.6209454,
              -34.6012808
            ],
            [
              -58.6204933,
              -34.6004273
            ],
            [
              -58.619542884,
              -34.598632932
            ],
            [
              -58.62049,
              -34.600426
            ],
            [
              -58.62094,
              -34.60128
            ]
          ]
        ]
      },
      "id": "gap_011"
    },
    {
      "type": "Feature",
      "properties": {
        "level": 99,
        "level_name": "gap_diagnostico",
        "gap_id": "GAP_012",
        "canonical_name": "Gap 012",
        "parent_partido": "Partido de Hurlingham",
        "likely_missing_zone_candidates": "",
        "source_method": "derived_partido_minus_final_zone_polygons",
        "source_confidence": "diagnostic",
        "needs_manual_review": true,
        "source_warning": "Sector no cubierto por zonas finales. Usar para priorizar revision geometrica.",
        "generated_at": "2026-06-15T02:04:23.824601+00:00",
        "area_km2": 1.7e-05,
        "feature_id": "gap_012"
      },
      "geometry": {
        "type": "Polygon",
        "coordinates": [
          [
            [
              -58.621330697,
              -34.60194828
            ],
            [
              -58.621294,
              -34.6018617
            ],
            [
              -58.6211107,
              -34.6015182
            ],
            [
              -58.621110379,
              -34.60151774
            ],
            [
              -58.62125011,
              -34.601790799
            ],
            [
              -58.621330697,
              -34.60194828
            ]
          ]
        ]
      },
      "id": "gap_012"
    },
    {
      "type": "Feature",
      "properties": {
        "level": 99,
        "level_name": "gap_diagnostico",
        "gap_id": "GAP_013",
        "canonical_name": "Gap 013",
        "parent_partido": "Partido de Hurlingham",
        "likely_missing_zone_candidates": "",
        "source_method": "derived_partido_minus_final_zone_polygons",
        "source_confidence": "diagnostic",
        "needs_manual_review": true,
        "source_warning": "Sector no cubierto por zonas finales. Usar para priorizar revision geometrica.",
        "generated_at": "2026-06-15T02:04:23.824601+00:00",
        "area_km2": 0.000133,
        "feature_id": "gap_013"
      },
      "geometry": {
        "type": "Polygon",
        "coordinates": [
          [
            [
              -58.621326,
              -34.602726
            ],
            [
              -58.62082,
              -34.604393
            ],
            [
              -58.620646655,
              -34.604617386
            ],
            [
              -58.6207437,
              -34.6045131
            ],
            [
              -58.6208231,
              -34.6043938
            ],
            [
              -58.6213298,
              -34.6027265
            ],
            [
              -58.6213909,
              -34.6023525
            ],
            [
              -58.6213865,
              -34.6021666
            ],
            [
              -58.621352333,
              -34.60200908
            ],
            [
              -58.621387,
              -34.602352
            ],
            [
              -58.621326,
              -34.602726
            ]
          ]
        ]
      },
      "id": "gap_013"
    },
    {
      "type": "Feature",
      "properties": {
        "level": 99,
        "level_name": "gap_diagnostico",
        "gap_id": "GAP_014",
        "canonical_name": "Gap 014",
        "parent_partido": "Partido de Hurlingham",
        "likely_missing_zone_candidates": "",
        "source_method": "derived_partido_minus_final_zone_polygons",
        "source_confidence": "diagnostic",
        "needs_manual_review": true,
        "source_warning": "Sector no cubierto por zonas finales. Usar para priorizar revision geometrica.",
        "generated_at": "2026-06-15T02:04:23.824601+00:00",
        "area_km2": 8.6e-05,
        "feature_id": "gap_014"
      },
      "geometry": {
        "type": "Polygon",
        "coordinates": [
          [
            [
              -58.61977,
              -34.60566
            ],
            [
              -58.6198,
              -34.606476
            ],
            [
              -58.619984,
              -34.60732
            ],
            [
              -58.620094,
              -34.60807
            ],
            [
              -58.6202,
              -34.608856
            ],
            [
              -58.62036,
              -34.60924
            ],
            [
              -58.620476222,
              -34.609375592
            ],
            [
              -58.6203621,
              -34.6092409
            ],
            [
              -58.620203,
              -34.6088556
            ],
            [
              -58.620096,
              -34.6080708
            ],
            [
              -58.6199849,
              -34.6073203
            ],
            [
              -58.6198023,
              -34.606478
            ],
            [
              -58.619772,
              -34.6056627
            ],
            [
              -58.6198286,
              -34.6054919
            ],
            [
              -58.620180754,
              -34.604968
            ],
            [
              -58.619827,
              -34.605488
            ],
            [
              -58.61977,
              -34.60566
            ]
          ]
        ]
      },
      "id": "gap_014"
    },
    {
      "type": "Feature",
      "properties": {
        "level": 99,
        "level_name": "gap_diagnostico",
        "gap_id": "GAP_015",
        "canonical_name": "Gap 015",
        "parent_partido": "Partido de Hurlingham",
        "likely_missing_zone_candidates": "",
        "source_method": "derived_partido_minus_final_zone_polygons",
        "source_confidence": "diagnostic",
        "needs_manual_review": true,
        "source_warning": "Sector no cubierto por zonas finales. Usar para priorizar revision geometrica.",
        "generated_at": "2026-06-15T02:04:23.824601+00:00",
        "area_km2": 0.000193,
        "feature_id": "gap_015"
      },
      "geometry": {
        "type": "Polygon",
        "coordinates": [
          [
            [
              -58.621662,
              -34.610493
            ],
            [
              -58.62182,
              -34.610836
            ],
            [
              -58.621716,
              -34.611374
            ],
            [
              -58.621353,
              -34.612
            ],
            [
              -58.621,
              -34.612484
            ],
            [
              -58.620193,
              -34.613766
            ],
            [
              -58.620132,
              -34.614258
            ],
            [
              -58.62021,
              -34.614635
            ],
            [
              -58.620327,
              -34.61488
            ],
            [
              -58.620426,
              -34.615158
            ],
            [
              -58.620388,
              -34.61562
            ],
            [
              -58.619305,
              -34.61749
            ],
            [
              -58.61851,
              -34.618824
            ],
            [
              -58.618326958,
              -34.619135171
            ],
            [
              -58.6185099,
              -34.6188281
            ],
            [
              -58.6190075,
              -34.6179928
            ],
            [
              -58.6193066,
              -34.6174906
            ],
            [
              -58.6203902,
              -34.6156179
            ],
            [
              -58.6204283,
              -34.6151614
            ],
            [
              -58.6203309,
              -34.6148828
            ],
            [
              -58.620211,
              -34.614636
            ],
            [
              -58.6201934,
              -34.6145498
            ],
            [
              -58.6201343,
              -34.6142601
            ],
            [
              -58.6201958,
              -34.613768
            ],
            [
              -58.6210018,
              -34.6124855
            ],
            [
              -58.6213553,
              -34.611999
            ],
            [
              -58.6217179,
              -34.6113751
            ],
            [
              -58.6218204,
              -34.6108365
            ],
            [
              -58.6216651,
              -34.6104937
            ],
            [
              -58.6213242,
              -34.6102252
            ],
            [
              -58.620833942,
              -34.60974403
            ],
            [
              -58.621323,
              -34.610226
            ],
            [
              -58.621662,
              -34.610493
            ]
          ]
        ]
      },
      "id": "gap_015"
    },
    {
      "type": "Feature",
      "properties": {
        "level": 99,
        "level_name": "gap_diagnostico",
        "gap_id": "GAP_016",
        "canonical_name": "Gap 016",
        "parent_partido": "Partido de Hurlingham",
        "likely_missing_zone_candidates": "",
        "source_method": "derived_partido_minus_final_zone_polygons",
        "source_confidence": "diagnostic",
        "needs_manual_review": true,
        "source_warning": "Sector no cubierto por zonas finales. Usar para priorizar revision geometrica.",
        "generated_at": "2026-06-15T02:04:23.824601+00:00",
        "area_km2": 0.00019,
        "feature_id": "gap_016"
      },
      "geometry": {
        "type": "Polygon",
        "coordinates": [
          [
            [
              -58.6181,
              -34.619587
            ],
            [
              -58.617928,
              -34.62
            ],
            [
              -58.617935,
              -34.620358
            ],
            [
              -58.618195,
              -34.621708
            ],
            [
              -58.61839,
              -34.62272
            ],
            [
              -58.618652,
              -34.623913
            ],
            [
              -58.6189,
              -34.624557
            ],
            [
              -58.61933,
              -34.62585
            ],
            [
              -58.619423,
              -34.62603
            ],
            [
              -58.619465,
              -34.626163
            ],
            [
              -58.619479031,
              -34.626209206
            ],
            [
              -58.6194671,
              -34.6261623
            ],
            [
              -58.6194242,
              -34.6260298
            ],
            [
              -58.6193334,
              -34.6258517
            ],
            [
              -58.6189019,
              -34.6245578
            ],
            [
              -58.6186567,
              -34.6239131
            ],
            [
              -58.618392,
              -34.6227181
            ],
            [
              -58.618198,
              -34.6217083
            ],
            [
              -58.6180739,
              -34.6210625
            ],
            [
              -58.6179384,
              -34.6203575
            ],
            [
              -58.6179293,
              -34.6199981
            ],
            [
              -58.618101,
              -34.6195896
            ],
            [
              -58.618297543,
              -34.619189091
            ],
            [
              -58.6181,
              -34.619587
            ]
          ]
        ]
      },
      "id": "gap_016"
    },
    {
      "type": "Feature",
      "properties": {
        "level": 99,
        "level_name": "gap_diagnostico",
        "gap_id": "GAP_017",
        "canonical_name": "Gap 017",
        "parent_partido": "Partido de Hurlingham",
        "likely_missing_zone_candidates": "",
        "source_method": "derived_partido_minus_final_zone_polygons",
        "source_confidence": "diagnostic",
        "needs_manual_review": true,
        "source_warning": "Sector no cubierto por zonas finales. Usar para priorizar revision geometrica.",
        "generated_at": "2026-06-15T02:04:23.824601+00:00",
        "area_km2": 3.2e-05,
        "feature_id": "gap_017"
      },
      "geometry": {
        "type": "Polygon",
        "coordinates": [
          [
            [
              -58.619662769,
              -34.626518991
            ],
            [
              -58.6196794,
              -34.626474
            ],
            [
              -58.6196038,
              -34.6264493
            ],
            [
              -58.619556933,
              -34.626426933
            ],
            [
              -58.6196,
              -34.62647
            ],
            [
              -58.619662769,
              -34.626518991
            ]
          ]
        ]
      },
      "id": "gap_017"
    },
    {
      "type": "Feature",
      "properties": {
        "level": 99,
        "level_name": "gap_diagnostico",
        "gap_id": "GAP_019",
        "canonical_name": "Gap 019",
        "parent_partido": "Partido de Hurlingham",
        "likely_missing_zone_candidates": "",
        "source_method": "derived_partido_minus_final_zone_polygons",
        "source_confidence": "diagnostic",
        "needs_manual_review": true,
        "source_warning": "Sector no cubierto por zonas finales. Usar para priorizar revision geometrica.",
        "generated_at": "2026-06-15T02:04:23.824601+00:00",
        "area_km2": 1.7e-05,
        "feature_id": "gap_019"
      },
      "geometry": {
        "type": "Polygon",
        "coordinates": [
          [
            [
              -58.62004,
              -34.62878
            ],
            [
              -58.61994,
              -34.628864
            ],
            [
              -58.619872227,
              -34.628908805
            ],
            [
              -58.6199457,
              -34.628867
            ],
            [
              -58.6200064,
              -34.628823
            ],
            [
              -58.6200511,
              -34.6287756
            ],
            [
              -58.620099355,
              -34.628706902
            ],
            [
              -58.62004,
              -34.62878
            ]
          ]
        ]
      },
      "id": "gap_019"
    },
    {
      "type": "Feature",
      "properties": {
        "level": 99,
        "level_name": "gap_diagnostico",
        "gap_id": "GAP_022",
        "canonical_name": "Gap 022",
        "parent_partido": "Partido de Hurlingham",
        "likely_missing_zone_candidates": "El Libertador (0.187 km2)",
        "source_method": "derived_partido_minus_final_zone_polygons",
        "source_confidence": "diagnostic",
        "needs_manual_review": true,
        "source_warning": "Sector no cubierto por zonas finales. Usar para priorizar revision geometrica.",
        "generated_at": "2026-06-15T02:04:23.824601+00:00",
        "area_km2": 0.187213,
        "feature_id": "gap_022"
      },
      "geometry": {
        "type": "Polygon",
        "coordinates": [
          [
            [
              -58.62673,
              -34.632797
            ],
            [
              -58.63391,
              -34.632473
            ],
            [
              -58.64618,
              -34.631424
            ],
            [
              -58.64806,
              -34.6313
            ],
            [
              -58.6499,
              -34.631332
            ],
            [
              -58.65138,
              -34.631413
            ],
            [
              -58.652878,
              -34.631554
            ],
            [
              -58.653625,
              -34.631657
            ],
            [
              -58.653656,
              -34.631275
            ],
            [
              -58.65371,
              -34.630753
            ],
            [
              -58.65373,
              -34.630653
            ],
            [
              -58.65376,
              -34.63055
            ],
            [
              -58.65382,
              -34.6304
            ],
            [
              -58.653984,
              -34.630116
            ],
            [
              -58.654001894,
              -34.630100626
            ],
            [
              -58.6537413,
              -34.630038
            ],
            [
              -58.6536769,
              -34.6300318
            ],
            [
              -58.6535614,
              -34.630018
            ],
            [
              -58.6534578,
              -34.6300409
            ],
            [
              -58.653365,
              -34.6300774
            ],
            [
              -58.6532524,
              -34.6301295
            ],
            [
              -58.6531741,
              -34.6301675
            ],
            [
              -58.6524516,
              -34.6305446
            ],
            [
              -58.6520644,
              -34.6307869
            ],
            [
              -58.6518956,
              -34.6308701
            ],
            [
              -58.6517825,
              -34.6308985
            ],
            [
              -58.6516626,
              -34.6309129
            ],
            [
              -58.6511925,
              -34.630933
            ],
            [
              -58.6507232,
              -34.6309249
            ],
            [
              -58.6503645,
              -34.630912
            ],
            [
              -58.6501506,
              -34.6309145
            ],
            [
              -58.6491132,
              -34.6308942
            ],
            [
              -58.6488598,
              -34.6308865
            ],
            [
              -58.648725,
              -34.6308837
            ],
            [
              -58.6486378,
              -34.6308819
            ],
            [
              -58.6480302,
              -34.630881
            ],
            [
              -58.6470949,
              -34.6309062
            ],
            [
              -58.6460547,
              -34.6309774
            ],
            [
              -58.6459153,
              -34.6309891
            ],
            [
              -58.6457976,
              -34.6309983
            ],
            [
              -58.6452357,
              -34.6310421
            ],
            [
              -58.6434247,
              -34.6312046
            ],
            [
              -58.6416589,
              -34.6313507
            ],
            [
              -58.6414208,
              -34.6313713
            ],
            [
              -58.6412187,
              -34.6313902
            ],
            [
              -58.6408056,
              -34.6314253
            ],
            [
              -58.6396111,
              -34.6315268
            ],
            [
              -58.6375021,
              -34.6316976
            ],
            [
              -58.6372861,
              -34.6317142
            ],
            [
              -58.637166,
              -34.6317237
            ],
            [
              -58.6367071,
              -34.6317577
            ],
            [
              -58.6358899,
              -34.6318378
            ],
            [
              -58.6357267,
              -34.6318548
            ],
            [
              -58.6355619,
              -34.6318714
            ],
            [
              -58.6346433,
              -34.6319629
            ],
            [
              -58.6335764,
              -34.6320517
            ],
            [
              -58.6329791,
              -34.6320967
            ],
            [
              -58.6327181,
              -34.6321123
            ],
            [
              -58.6322949,
              -34.6321193
            ],
            [
              -58.632173,
              -34.6321094
            ],
            [
              -58.6320644,
              -34.6320814
            ],
            [
              -58.6314608,
              -34.6318392
            ],
            [
              -58.6309456,
              -34.6316235
            ],
            [
              -58.6305836,
              -34.6314353
            ],
            [
              -58.630148,
              -34.6312117
            ],
            [
              -58.6300482,
              -34.6311337
            ],
            [
              -58.6299391,
              -34.6311469
            ],
            [
              -58.6298013,
              -34.6311635
            ],
            [
              -58.6296463,
              -34.6311845
            ],
            [
              -58.6291297,
              -34.6312713
            ],
            [
              -58.628874,
              -34.6313143
            ],
            [
              -58.6288261,
              -34.6313277
            ],
            [
              -58.6288007,
              -34.6313376
            ],
            [
              -58.6287452,
              -34.6313794
            ],
            [
              -58.6286678,
              -34.6314516
            ],
            [
              -58.628116,
              -34.6320077
            ],
            [
              -58.628055,
              -34.6320692
            ],
            [
              -58.627997,
              -34.6321228
            ],
            [
              -58.6279237,
              -34.6321906
            ],
            [
              -58.6278568,
              -34.6322469
            ],
            [
              -58.6278091,
              -34.6322799
            ],
            [
              -58.6277461,
              -34.6323163
            ],
            [
              -58.6277005,
              -34.6323384
            ],
            [
              -58.6276614,
              -34.6323581
            ],
            [
              -58.6276066,
              -34.632377
            ],
            [
              -58.6275664,
              -34.6323891
            ],
            [
              -58.6275087,
              -34.6324013
            ],
            [
              -58.6274501,
              -34.6324121
            ],
            [
              -58.6273786,
              -34.63242
            ],
            [
              -58.6269413,
              -34.6324307
            ],
            [
              -58.6257937,
              -34.6324185
            ],
            [
              -58.6256631,
              -34.632413
            ],
            [
              -58.6253093,
              -34.6324006
            ],
            [
              -58.6248923,
              -34.6324005
            ],
            [
              -58.6243054,
              -34.6323779
            ],
            [
              -58.6240257,
              -34.6323649
            ],
            [
              -58.6236557,
              -34.6323439
            ],
            [
              -58.6231444,
              -34.6323224
            ],
            [
              -58.6228321,
              -34.6323136
            ],
            [
              -58.6222631,
              -34.6322984
            ],
            [
              -58.621905,
              -34.6322925
            ],
            [
              -58.6215195,
              -34.6322858
            ],
            [
              -58.6214523,
              -34.6322744
            ],
            [
              -58.6213836,
              -34.6322594
            ],
            [
              -58.620846602,
              -34.631966788
            ],
            [
              -58.621426,
              -34.632706
            ],
            [
              -58.62673,
              -34.632797
            ]
          ]
        ]
      },
      "id": "gap_022"
    },
    {
      "type": "Feature",
      "properties": {
        "level": 99,
        "level_name": "gap_diagnostico",
        "gap_id": "GAP_023",
        "canonical_name": "Gap 023",
        "parent_partido": "Partido de Hurlingham",
        "likely_missing_zone_candidates": "El Libertador (0.387 km2)",
        "source_method": "derived_partido_minus_final_zone_polygons",
        "source_confidence": "diagnostic",
        "needs_manual_review": true,
        "source_warning": "Sector no cubierto por zonas finales. Usar para priorizar revision geometrica.",
        "generated_at": "2026-06-15T02:04:23.824601+00:00",
        "area_km2": 0.387015,
        "feature_id": "gap_023"
      },
      "geometry": {
        "type": "Polygon",
        "coordinates": [
          [
            [
              -58.6497018,
              -34.6201312
            ],
            [
              -58.6491482,
              -34.6205981
            ],
            [
              -58.6485167,
              -34.621122
            ],
            [
              -58.647958,
              -34.6216001
            ],
            [
              -58.6473758,
              -34.6220886
            ],
            [
              -58.6466212,
              -34.6226881
            ],
            [
              -58.6458907,
              -34.6232932
            ],
            [
              -58.6449266,
              -34.6240894
            ],
            [
              -58.6440299,
              -34.6248365
            ],
            [
              -58.6430681,
              -34.6256408
            ],
            [
              -58.6426253,
              -34.6260253
            ],
            [
              -58.6425407,
              -34.6260686
            ],
            [
              -58.6432293,
              -34.6269238
            ],
            [
              -58.6437675,
              -34.6275675
            ],
            [
              -58.6438067,
              -34.6276237
            ],
            [
              -58.6438241,
              -34.6276784
            ],
            [
              -58.6439652,
              -34.6276816
            ],
            [
              -58.6440522,
              -34.6276711
            ],
            [
              -58.6447507,
              -34.6275502
            ],
            [
              -58.6465851,
              -34.627222
            ],
            [
              -58.6474417,
              -34.6270856
            ],
            [
              -58.6483379,
              -34.6269449
            ],
            [
              -58.6509278,
              -34.6247733
            ],
            [
              -58.6519886,
              -34.6239159
            ],
            [
              -58.6531548,
              -34.6229634
            ],
            [
              -58.651373,
              -34.6214977
            ],
            [
              -58.6509639,
              -34.621142
            ],
            [
              -58.6497018,
              -34.6201312
            ]
          ]
        ]
      },
      "id": "gap_023"
    }
  ]
}
