{
  "type": "FeatureCollection",
  "name": "arba_departamento_hurlingham",
  "metadata": {
    "generated_at": "2026-06-29T00:09:48.931378+00:00",
    "crs": "EPSG:4326",
    "scope": "Partido de Hurlingham, Buenos Aires, Argentina",
    "source_name": "ARBA GeoARBA",
    "source_url": "https://www.arba.gov.ar/geoarba/inicio.asp",
    "wfs_url": "https://geo.arba.gov.ar/geoserver/idera/wfs?service=WFS&request=GetCapabilities&version=2.0.0",
    "wfs_type": "idera:Departamento",
    "source_archive": "135_departamentos.tar.gz",
    "input_crs": "EPSG:5347",
    "metric_crs_used_for_source_area": "EPSG:5347",
    "license": "Public official geospatial data; cite ARBA/GeoARBA. Commercialization restrictions may apply according to IDEBA notice.",
    "data_confidence": "high",
    "notes": null,
    "total_source_records": 1,
    "output_feature_count": 1,
    "outside_hurlingham_zone_count": 0,
    "invalid_geometries_repaired": 0,
    "geometry_type_counts": {
      "Polygon": 1
    },
    "assigned_zone_counts": {
      "Los Troncos": 1
    }
  },
  "features": [
    {
      "type": "Feature",
      "properties": {
        "cca": "135",
        "cde": "06408",
        "fna": "Partido de Hurlingham",
        "gna": "Partido",
        "nam": "Hurlingham",
        "sag": "ARBA",
        "ara3": 35.21,
        "arl": 35.43,
        "source_name": "ARBA GeoARBA",
        "source_url": "https://www.arba.gov.ar/geoarba/inicio.asp",
        "source_layer": "Departamento / Partido",
        "source_archive": "135_departamentos.tar.gz",
        "wfs_type": "idera:Departamento",
        "input_crs": "EPSG:5347",
        "generated_at": "2026-06-29T00:09:48.931378+00:00",
        "assigned_zone_name": "Los Troncos",
        "data_confidence": "high"
      },
      "geometry": {
        "type": "Polygon",
        "coordinates": [
          [
            [
              -58.6463792,
              -34.5627807
            ],
            [
              -58.6441899,
              -34.5646223
            ],
            [
              -58.6367856,
              -34.5709067
            ],
            [
              -58.6302569,
              -34.5763893
            ],
            [
              -58.625255,
              -34.5805472
            ],
            [
              -58.619418,
              -34.5855082
            ],
            [
              -58.6165299,
              -34.5880008
            ],
            [
              -58.6164252,
              -34.5885433
            ],
            [
              -58.616562,
              -34.5899893
            ],
            [
              -58.6166754,
              -34.5905313
            ],
            [
              -58.6168732,
              -34.5907162
            ],
            [
              -58.6171578,
              -34.5929444
            ],
            [
              -58.617841,
              -34.5955669
            ],
            [
              -58.6180354,
              -34.5959675
            ],
            [
              -58.6187087,
              -34.5965563
            ],
            [
              -58.6187836,
              -34.5968893
            ],
            [
              -58.6192023,
              -34.5980521
            ],
            [
              -58.6196089,
              -34.5982341
            ],
            [
              -58.6209525,
              -34.6008229
            ],
            [
              -58.6208327,
              -34.6009271
            ],
            [
              -58.6213205,
              -34.6018126
            ],
            [
              -58.621435,
              -34.6021792
            ],
            [
              -58.6212591,
              -34.6044123
            ],
            [
              -58.6205249,
              -34.6050682
            ],
            [
              -58.6203287,
              -34.6047837
            ],
            [
              -58.619776,
              -34.6053918
            ],
            [
              -58.6198606,
              -34.6061311
            ],
            [
              -58.6199908,
              -34.6067635
            ],
            [
              -58.6200839,
              -34.6072129
            ],
            [
              -58.6201819,
              -34.6085756
            ],
            [
              -58.620295,
              -34.6090252
            ],
            [
              -58.6211834,
              -34.6099816
            ],
            [
              -58.6217972,
              -34.6105365
            ],
            [
              -58.6219902,
              -34.6110202
            ],
            [
              -58.6218004,
              -34.6114741
            ],
            [
              -58.6212366,
              -34.6124296
            ],
            [
              -58.6200702,
              -34.6140599
            ],
            [
              -58.6206662,
              -34.6153911
            ],
            [
              -58.6193253,
              -34.617974
            ],
            [
              -58.619153,
              -34.6179732
            ],
            [
              -58.6180137,
              -34.6200427
            ],
            [
              -58.618259,
              -34.6203965
            ],
            [
              -58.6185756,
              -34.6211022
            ],
            [
              -58.6183632,
              -34.6210997
            ],
            [
              -58.6184505,
              -34.6216593
            ],
            [
              -58.6185097,
              -34.6220357
            ],
            [
              -58.6187535,
              -34.6232984
            ],
            [
              -58.6189729,
              -34.6240508
            ],
            [
              -58.6190224,
              -34.624562
            ],
            [
              -58.6192861,
              -34.6249639
            ],
            [
              -58.6198315,
              -34.6248812
            ],
            [
              -58.6201656,
              -34.6256988
            ],
            [
              -58.6197006,
              -34.6257893
            ],
            [
              -58.6196628,
              -34.6265678
            ],
            [
              -58.6197249,
              -34.6266512
            ],
            [
              -58.6199014,
              -34.6276585
            ],
            [
              -58.6202172,
              -34.6285472
            ],
            [
              -58.62,
              -34.6288319
            ],
            [
              -58.6197488,
              -34.6290557
            ],
            [
              -58.61994,
              -34.6297264
            ],
            [
              -58.6201232,
              -34.6303859
            ],
            [
              -58.6201999,
              -34.6306859
            ],
            [
              -58.6202325,
              -34.6308256
            ],
            [
              -58.6203476,
              -34.6312837
            ],
            [
              -58.620379,
              -34.6314187
            ],
            [
              -58.6206721,
              -34.6314086
            ],
            [
              -58.6213922,
              -34.6322465
            ],
            [
              -58.6281823,
              -34.6324806
            ],
            [
              -58.6282073,
              -34.6321298
            ],
            [
              -58.6294776,
              -34.6324154
            ],
            [
              -58.6297648,
              -34.6316972
            ],
            [
              -58.630089,
              -34.6316563
            ],
            [
              -58.6309485,
              -34.6315546
            ],
            [
              -58.6309832,
              -34.6317944
            ],
            [
              -58.6315247,
              -34.6317526
            ],
            [
              -58.6320786,
              -34.6321418
            ],
            [
              -58.6397947,
              -34.6314756
            ],
            [
              -58.6458103,
              -34.6309841
            ],
            [
              -58.6476795,
              -34.6308231
            ],
            [
              -58.6511789,
              -34.6309159
            ],
            [
              -58.6517008,
              -34.6308897
            ],
            [
              -58.6521471,
              -34.630767
            ],
            [
              -58.652984,
              -34.63018
            ],
            [
              -58.6530991,
              -34.6302423
            ],
            [
              -58.653334,
              -34.6300792
            ],
            [
              -58.6539788,
              -34.6300253
            ],
            [
              -58.6571088,
              -34.6274719
            ],
            [
              -58.6590064,
              -34.6259367
            ],
            [
              -58.6614348,
              -34.6239229
            ],
            [
              -58.6621528,
              -34.6233282
            ],
            [
              -58.6627418,
              -34.6228405
            ],
            [
              -58.6662306,
              -34.6200039
            ],
            [
              -58.6782838,
              -34.6102179
            ],
            [
              -58.6843819,
              -34.6051715
            ],
            [
              -58.6822225,
              -34.6032336
            ],
            [
              -58.6939997,
              -34.5936875
            ],
            [
              -58.693896,
              -34.5935532
            ],
            [
              -58.6937972,
              -34.5934406
            ],
            [
              -58.6936614,
              -34.5932598
            ],
            [
              -58.6935452,
              -34.5930698
            ],
            [
              -58.6935184,
              -34.5930167
            ],
            [
              -58.6934866,
              -34.5929377
            ],
            [
              -58.6934634,
              -34.5928568
            ],
            [
              -58.6934488,
              -34.5927744
            ],
            [
              -58.6934428,
              -34.5926913
            ],
            [
              -58.6934457,
              -34.5926082
            ],
            [
              -58.6934572,
              -34.5925255
            ],
            [
              -58.6934775,
              -34.592444
            ],
            [
              -58.6935063,
              -34.5923643
            ],
            [
              -58.6935636,
              -34.5922757
            ],
            [
              -58.6937148,
              -34.5920057
            ],
            [
              -58.6937196,
              -34.5919957
            ],
            [
              -58.6937463,
              -34.5919318
            ],
            [
              -58.6937661,
              -34.5918662
            ],
            [
              -58.6937789,
              -34.5917994
            ],
            [
              -58.6937804,
              -34.5917878
            ],
            [
              -58.6937827,
              -34.5917468
            ],
            [
              -58.6937806,
              -34.5917057
            ],
            [
              -58.6937743,
              -34.591665
            ],
            [
              -58.6937635,
              -34.5916249
            ],
            [
              -58.6937487,
              -34.5915856
            ],
            [
              -58.6937298,
              -34.5915476
            ],
            [
              -58.693707,
              -34.5915111
            ],
            [
              -58.6936803,
              -34.5914764
            ],
            [
              -58.6936502,
              -34.5914437
            ],
            [
              -58.6936167,
              -34.5914134
            ],
            [
              -58.6935801,
              -34.5913856
            ],
            [
              -58.6935408,
              -34.5913604
            ],
            [
              -58.693257,
              -34.5911868
            ],
            [
              -58.6930688,
              -34.5910716
            ],
            [
              -58.6927166,
              -34.5908855
            ],
            [
              -58.692636,
              -34.590866
            ],
            [
              -58.6925379,
              -34.5908493
            ],
            [
              -58.6924383,
              -34.5908395
            ],
            [
              -58.6923381,
              -34.5908371
            ],
            [
              -58.692238,
              -34.5908418
            ],
            [
              -58.6921389,
              -34.5908538
            ],
            [
              -58.6920413,
              -34.5908729
            ],
            [
              -58.6919462,
              -34.5908989
            ],
            [
              -58.6918542,
              -34.5909317
            ],
            [
              -58.6917659,
              -34.590971
            ],
            [
              -58.6916821,
              -34.5910165
            ],
            [
              -58.6916034,
              -34.5910678
            ],
            [
              -58.6915875,
              -34.591076
            ],
            [
              -58.6915258,
              -34.591104
            ],
            [
              -58.6914614,
              -34.5911274
            ],
            [
              -58.6913948,
              -34.5911462
            ],
            [
              -58.6913264,
              -34.59116
            ],
            [
              -58.6912569,
              -34.5911688
            ],
            [
              -58.6911867,
              -34.5911726
            ],
            [
              -58.6911163,
              -34.5911713
            ],
            [
              -58.6910464,
              -34.591165
            ],
            [
              -58.6909774,
              -34.5911536
            ],
            [
              -58.6909099,
              -34.5911373
            ],
            [
              -58.6908443,
              -34.5911162
            ],
            [
              -58.6907811,
              -34.5910905
            ],
            [
              -58.690721,
              -34.5910603
            ],
            [
              -58.6907162,
              -34.5910598
            ],
            [
              -58.6906699,
              -34.5910544
            ],
            [
              -58.6906241,
              -34.5910455
            ],
            [
              -58.6905795,
              -34.5910334
            ],
            [
              -58.6905365,
              -34.5910181
            ],
            [
              -58.6904951,
              -34.5909998
            ],
            [
              -58.6904558,
              -34.5909785
            ],
            [
              -58.6904189,
              -34.5909545
            ],
            [
              -58.6903848,
              -34.590928
            ],
            [
              -58.6903535,
              -34.5908991
            ],
            [
              -58.6903253,
              -34.590868
            ],
            [
              -58.6903007,
              -34.5908351
            ],
            [
              -58.6902794,
              -34.5908004
            ],
            [
              -58.6902722,
              -34.5907872
            ],
            [
              -58.6901551,
              -34.5905984
            ],
            [
              -58.6900185,
              -34.5904187
            ],
            [
              -58.6900184,
              -34.5904185
            ],
            [
              -58.689995,
              -34.5903681
            ],
            [
              -58.6899771,
              -34.590316
            ],
            [
              -58.6899647,
              -34.590263
            ],
            [
              -58.689958,
              -34.5902093
            ],
            [
              -58.6899569,
              -34.5901552
            ],
            [
              -58.6899615,
              -34.5901014
            ],
            [
              -58.6899762,
              -34.5899615
            ],
            [
              -58.6899799,
              -34.5897466
            ],
            [
              -58.6899609,
              -34.5895322
            ],
            [
              -58.6899032,
              -34.5891777
            ],
            [
              -58.6899034,
              -34.5891753
            ],
            [
              -58.6899036,
              -34.5891621
            ],
            [
              -58.6899023,
              -34.5891489
            ],
            [
              -58.6898996,
              -34.5891359
            ],
            [
              -58.6898957,
              -34.589123
            ],
            [
              -58.6898905,
              -34.5891105
            ],
            [
              -58.6898838,
              -34.5890985
            ],
            [
              -58.6898759,
              -34.5890869
            ],
            [
              -58.6898669,
              -34.589076
            ],
            [
              -58.6898567,
              -34.5890658
            ],
            [
              -58.6898455,
              -34.5890563
            ],
            [
              -58.6898333,
              -34.5890477
            ],
            [
              -58.6898204,
              -34.58904
            ],
            [
              -58.6898067,
              -34.5890333
            ],
            [
              -58.6898044,
              -34.5890324
            ],
            [
              -58.6897112,
              -34.5889957
            ],
            [
              -58.6896146,
              -34.5889658
            ],
            [
              -58.6895152,
              -34.588943
            ],
            [
              -58.6894138,
              -34.5889275
            ],
            [
              -58.689311,
              -34.5889194
            ],
            [
              -58.6891969,
              -34.5889132
            ],
            [
              -58.6888433,
              -34.5888768
            ],
            [
              -58.688495,
              -34.5888151
            ],
            [
              -58.6881545,
              -34.5887285
            ],
            [
              -58.688095,
              -34.5887075
            ],
            [
              -58.6879392,
              -34.5886431
            ],
            [
              -58.687791,
              -34.5885678
            ],
            [
              -58.6876512,
              -34.588482
            ],
            [
              -58.6876173,
              -34.5884607
            ],
            [
              -58.6875673,
              -34.5884337
            ],
            [
              -58.6875145,
              -34.5884105
            ],
            [
              -58.6874595,
              -34.5883912
            ],
            [
              -58.6874026,
              -34.5883759
            ],
            [
              -58.6873444,
              -34.5883648
            ],
            [
              -58.6872852,
              -34.5883578
            ],
            [
              -58.6872255,
              -34.5883552
            ],
            [
              -58.6871659,
              -34.5883569
            ],
            [
              -58.6871065,
              -34.5883629
            ],
            [
              -58.687048,
              -34.5883732
            ],
            [
              -58.6869909,
              -34.5883877
            ],
            [
              -58.6869355,
              -34.5884062
            ],
            [
              -58.6869204,
              -34.5884117
            ],
            [
              -58.6867906,
              -34.5884538
            ],
            [
              -58.6866568,
              -34.5884864
            ],
            [
              -58.68652,
              -34.5885091
            ],
            [
              -58.6863815,
              -34.588522
            ],
            [
              -58.6863311,
              -34.5885241
            ],
            [
              -58.6862148,
              -34.5885227
            ],
            [
              -58.6860991,
              -34.588513
            ],
            [
              -58.6860434,
              -34.58851
            ],
            [
              -58.6859307,
              -34.5885222
            ],
            [
              -58.6858662,
              -34.5885605
            ],
            [
              -58.6858068,
              -34.5885857
            ],
            [
              -58.6856196,
              -34.5885945
            ],
            [
              -58.6855335,
              -34.5885805
            ],
            [
              -58.6853872,
              -34.5885364
            ],
            [
              -58.6852817,
              -34.5885011
            ],
            [
              -58.6852053,
              -34.5884635
            ],
            [
              -58.6851114,
              -34.5884424
            ],
            [
              -58.6850394,
              -34.5884016
            ],
            [
              -58.684962,
              -34.5883811
            ],
            [
              -58.68494,
              -34.5883357
            ],
            [
              -58.6849485,
              -34.5882676
            ],
            [
              -58.6849482,
              -34.5882277
            ],
            [
              -58.6849137,
              -34.5880791
            ],
            [
              -58.684846,
              -34.5879086
            ],
            [
              -58.6847394,
              -34.5877309
            ],
            [
              -58.6846645,
              -34.5876736
            ],
            [
              -58.6845275,
              -34.587565
            ],
            [
              -58.6843795,
              -34.5875261
            ],
            [
              -58.6842974,
              -34.5874933
            ],
            [
              -58.6841507,
              -34.5874453
            ],
            [
              -58.6841243,
              -34.5873657
            ],
            [
              -58.6840693,
              -34.5870845
            ],
            [
              -58.6840609,
              -34.5870551
            ],
            [
              -58.6840495,
              -34.5870263
            ],
            [
              -58.684035,
              -34.5869986
            ],
            [
              -58.6840177,
              -34.5869719
            ],
            [
              -58.6839977,
              -34.5869466
            ],
            [
              -58.683975,
              -34.5869229
            ],
            [
              -58.683847,
              -34.5867885
            ],
            [
              -58.6837335,
              -34.5866453
            ],
            [
              -58.6836401,
              -34.5865022
            ],
            [
              -58.6836204,
              -34.5864774
            ],
            [
              -58.6836034,
              -34.5864515
            ],
            [
              -58.6835892,
              -34.5864243
            ],
            [
              -58.683578,
              -34.5863962
            ],
            [
              -58.6835696,
              -34.5863675
            ],
            [
              -58.6835644,
              -34.5863382
            ],
            [
              -58.6835624,
              -34.5863087
            ],
            [
              -58.6835624,
              -34.5862944
            ],
            [
              -58.6835754,
              -34.5861423
            ],
            [
              -58.6836043,
              -34.5859918
            ],
            [
              -58.683649,
              -34.5858439
            ],
            [
              -58.6836556,
              -34.5858259
            ],
            [
              -58.6836619,
              -34.5857782
            ],
            [
              -58.6836732,
              -34.5857313
            ],
            [
              -58.6836894,
              -34.5856853
            ],
            [
              -58.6837104,
              -34.5856408
            ],
            [
              -58.6837206,
              -34.5856223
            ],
            [
              -58.6837414,
              -34.5855825
            ],
            [
              -58.6837579,
              -34.5855414
            ],
            [
              -58.68377,
              -34.5854993
            ],
            [
              -58.6837776,
              -34.5854563
            ],
            [
              -58.6837806,
              -34.5854131
            ],
            [
              -58.6837791,
              -34.5853697
            ],
            [
              -58.6837731,
              -34.5853268
            ],
            [
              -58.6837715,
              -34.5853188
            ],
            [
              -58.6836994,
              -34.5849876
            ],
            [
              -58.6836722,
              -34.5848243
            ],
            [
              -58.6836624,
              -34.5846598
            ],
            [
              -58.6836699,
              -34.5844952
            ],
            [
              -58.6836947,
              -34.5843317
            ],
            [
              -58.6837282,
              -34.5841981
            ],
            [
              -58.6837434,
              -34.5841495
            ],
            [
              -58.6837533,
              -34.5840998
            ],
            [
              -58.6837579,
              -34.5840497
            ],
            [
              -58.6837573,
              -34.5839994
            ],
            [
              -58.6837513,
              -34.5839493
            ],
            [
              -58.6837401,
              -34.5838998
            ],
            [
              -58.6837238,
              -34.5838513
            ],
            [
              -58.6837024,
              -34.5838043
            ],
            [
              -58.6836761,
              -34.5837589
            ],
            [
              -58.683645,
              -34.5837157
            ],
            [
              -58.6836096,
              -34.5836747
            ],
            [
              -58.68357,
              -34.5836365
            ],
            [
              -58.6835266,
              -34.5836013
            ],
            [
              -58.6835203,
              -34.5835968
            ],
            [
              -58.6834765,
              -34.5835721
            ],
            [
              -58.6834354,
              -34.5835444
            ],
            [
              -58.6833974,
              -34.5835138
            ],
            [
              -58.6833628,
              -34.5834805
            ],
            [
              -58.6833318,
              -34.5834449
            ],
            [
              -58.6833282,
              -34.5834403
            ],
            [
              -58.6831785,
              -34.5832643
            ],
            [
              -58.6830108,
              -34.5830998
            ],
            [
              -58.6828264,
              -34.5829479
            ],
            [
              -58.6827445,
              -34.5828883
            ],
            [
              -58.6823873,
              -34.5825655
            ],
            [
              -58.6820655,
              -34.582218
            ],
            [
              -58.6819209,
              -34.5820389
            ],
            [
              -58.6818424,
              -34.5818798
            ],
            [
              -58.6817809,
              -34.5817156
            ],
            [
              -58.6817435,
              -34.5815774
            ],
            [
              -58.6817411,
              -34.5815519
            ],
            [
              -58.6817361,
              -34.5815267
            ],
            [
              -58.6817284,
              -34.581502
            ],
            [
              -58.6817182,
              -34.581478
            ],
            [
              -58.6817055,
              -34.5814547
            ],
            [
              -58.6816904,
              -34.5814326
            ],
            [
              -58.681673,
              -34.5814115
            ],
            [
              -58.6816533,
              -34.5813918
            ],
            [
              -58.6816318,
              -34.5813735
            ],
            [
              -58.6816084,
              -34.581357
            ],
            [
              -58.6815833,
              -34.5813421
            ],
            [
              -58.6815568,
              -34.5813291
            ],
            [
              -58.6815289,
              -34.5813181
            ],
            [
              -58.6815001,
              -34.5813091
            ],
            [
              -58.6814703,
              -34.5813022
            ],
            [
              -58.6814401,
              -34.5812976
            ],
            [
              -58.6814094,
              -34.5812951
            ],
            [
              -58.6813786,
              -34.5812947
            ],
            [
              -58.6813478,
              -34.5812967
            ],
            [
              -58.6813207,
              -34.5813003
            ],
            [
              -58.6812748,
              -34.5813062
            ],
            [
              -58.6812283,
              -34.5813088
            ],
            [
              -58.6811818,
              -34.581308
            ],
            [
              -58.6811355,
              -34.5813039
            ],
            [
              -58.6810899,
              -34.5812964
            ],
            [
              -58.6810724,
              -34.5812927
            ],
            [
              -58.6809563,
              -34.5812407
            ],
            [
              -58.6809007,
              -34.5812082
            ],
            [
              -58.6807612,
              -34.5811212
            ],
            [
              -58.6806073,
              -34.5810413
            ],
            [
              -58.6803154,
              -34.5809652
            ],
            [
              -58.68,
              -34.5809132
            ],
            [
              -58.6797214,
              -34.5808615
            ],
            [
              -58.6794795,
              -34.5808103
            ],
            [
              -58.67926,
              -34.5807471
            ],
            [
              -58.6789751,
              -34.5806285
            ],
            [
              -58.6788146,
              -34.5805538
            ],
            [
              -58.6787056,
              -34.5804676
            ],
            [
              -58.6786408,
              -34.5803818
            ],
            [
              -58.6786005,
              -34.5802955
            ],
            [
              -58.6784962,
              -34.5801263
            ],
            [
              -58.6784907,
              -34.5801092
            ],
            [
              -58.6784725,
              -34.5800634
            ],
            [
              -58.6784494,
              -34.5800191
            ],
            [
              -58.6784219,
              -34.5799766
            ],
            [
              -58.6783898,
              -34.5799363
            ],
            [
              -58.6783537,
              -34.5798984
            ],
            [
              -58.6783138,
              -34.5798633
            ],
            [
              -58.6782703,
              -34.5798312
            ],
            [
              -58.6782236,
              -34.5798023
            ],
            [
              -58.678174,
              -34.579777
            ],
            [
              -58.6780642,
              -34.5797245
            ],
            [
              -58.6777189,
              -34.5795371
            ],
            [
              -58.6773946,
              -34.5793255
            ],
            [
              -58.6773498,
              -34.5792934
            ],
            [
              -58.677247,
              -34.5792102
            ],
            [
              -58.6771534,
              -34.5791197
            ],
            [
              -58.6770698,
              -34.579023
            ],
            [
              -58.6769965,
              -34.5789205
            ],
            [
              -58.6769944,
              -34.5789172
            ],
            [
              -58.6769757,
              -34.5788917
            ],
            [
              -58.6769544,
              -34.5788677
            ],
            [
              -58.6769307,
              -34.5788453
            ],
            [
              -58.6769046,
              -34.5788247
            ],
            [
              -58.6768766,
              -34.578806
            ],
            [
              -58.6768467,
              -34.5787895
            ],
            [
              -58.6768151,
              -34.5787752
            ],
            [
              -58.6767821,
              -34.5787631
            ],
            [
              -58.6767481,
              -34.5787535
            ],
            [
              -58.6767438,
              -34.5787525
            ],
            [
              -58.6766218,
              -34.5787178
            ],
            [
              -58.6765039,
              -34.5786745
            ],
            [
              -58.676391,
              -34.5786228
            ],
            [
              -58.6762536,
              -34.5785594
            ],
            [
              -58.6760954,
              -34.5784999
            ],
            [
              -58.6759315,
              -34.5784522
            ],
            [
              -58.6759282,
              -34.5784525
            ],
            [
              -58.6758887,
              -34.5784553
            ],
            [
              -58.6758489,
              -34.5784552
            ],
            [
              -58.6758094,
              -34.5784522
            ],
            [
              -58.6757704,
              -34.5784465
            ],
            [
              -58.6757321,
              -34.5784378
            ],
            [
              -58.6756948,
              -34.5784265
            ],
            [
              -58.675689,
              -34.5784246
            ],
            [
              -58.6755052,
              -34.5783692
            ],
            [
              -58.6753162,
              -34.5783273
            ],
            [
              -58.675191,
              -34.5783097
            ],
            [
              -58.675016,
              -34.5782737
            ],
            [
              -58.6748454,
              -34.5782253
            ],
            [
              -58.6746806,
              -34.5781648
            ],
            [
              -58.6746683,
              -34.5781595
            ],
            [
              -58.6746361,
              -34.5781436
            ],
            [
              -58.6746057,
              -34.5781256
            ],
            [
              -58.6745775,
              -34.5781053
            ],
            [
              -58.6745514,
              -34.5780831
            ],
            [
              -58.6745278,
              -34.5780592
            ],
            [
              -58.6745067,
              -34.5780335
            ],
            [
              -58.6744885,
              -34.5780066
            ],
            [
              -58.6744732,
              -34.5779783
            ],
            [
              -58.6744609,
              -34.5779491
            ],
            [
              -58.6744224,
              -34.577852
            ],
            [
              -58.6743414,
              -34.5776865
            ],
            [
              -58.6743235,
              -34.5776303
            ],
            [
              -58.6742561,
              -34.5774597
            ],
            [
              -58.674171,
              -34.5772946
            ],
            [
              -58.6740689,
              -34.5771362
            ],
            [
              -58.6739505,
              -34.5769858
            ],
            [
              -58.6739349,
              -34.5769765
            ],
            [
              -58.6738518,
              -34.5769214
            ],
            [
              -58.6737747,
              -34.5768606
            ],
            [
              -58.6737044,
              -34.5767944
            ],
            [
              -58.6736413,
              -34.5767234
            ],
            [
              -58.6735859,
              -34.5766481
            ],
            [
              -58.6735386,
              -34.5765691
            ],
            [
              -58.6735366,
              -34.576552
            ],
            [
              -58.673526,
              -34.5764947
            ],
            [
              -58.6735092,
              -34.5764384
            ],
            [
              -58.6734867,
              -34.5763835
            ],
            [
              -58.6734584,
              -34.5763305
            ],
            [
              -58.6734247,
              -34.5762796
            ],
            [
              -58.673392,
              -34.5762327
            ],
            [
              -58.6733368,
              -34.5761398
            ],
            [
              -58.6732916,
              -34.5760432
            ],
            [
              -58.6732726,
              -34.5760012
            ],
            [
              -58.6732414,
              -34.5759452
            ],
            [
              -58.6732043,
              -34.5758917
            ],
            [
              -58.6731618,
              -34.5758411
            ],
            [
              -58.6731141,
              -34.5757938
            ],
            [
              -58.6730616,
              -34.5757501
            ],
            [
              -58.6730047,
              -34.5757104
            ],
            [
              -58.6729439,
              -34.5756749
            ],
            [
              -58.6728794,
              -34.5756439
            ],
            [
              -58.6728635,
              -34.5756399
            ],
            [
              -58.672783,
              -34.5756156
            ],
            [
              -58.6727054,
              -34.5755856
            ],
            [
              -58.6726311,
              -34.5755502
            ],
            [
              -58.6725609,
              -34.5755095
            ],
            [
              -58.6724952,
              -34.5754639
            ],
            [
              -58.6724468,
              -34.5754287
            ],
            [
              -58.6723419,
              -34.5753619
            ],
            [
              -58.6722305,
              -34.5753031
            ],
            [
              -58.6721133,
              -34.5752524
            ],
            [
              -58.6719912,
              -34.5752104
            ],
            [
              -58.6718651,
              -34.5751774
            ],
            [
              -58.6717157,
              -34.5751721
            ],
            [
              -58.6715389,
              -34.575154
            ],
            [
              -58.6715205,
              -34.5751512
            ],
            [
              -58.6714696,
              -34.5751409
            ],
            [
              -58.6714201,
              -34.5751269
            ],
            [
              -58.6713722,
              -34.5751094
            ],
            [
              -58.6713264,
              -34.5750886
            ],
            [
              -58.6712828,
              -34.5750644
            ],
            [
              -58.6712421,
              -34.5750372
            ],
            [
              -58.6712043,
              -34.5750073
            ],
            [
              -58.6711698,
              -34.5749746
            ],
            [
              -58.6711389,
              -34.5749397
            ],
            [
              -58.6711118,
              -34.5749026
            ],
            [
              -58.6710887,
              -34.5748638
            ],
            [
              -58.6710698,
              -34.5748234
            ],
            [
              -58.6710552,
              -34.5747818
            ],
            [
              -58.6710451,
              -34.5747393
            ],
            [
              -58.6710395,
              -34.5746962
            ],
            [
              -58.6710384,
              -34.5746529
            ],
            [
              -58.6710419,
              -34.5746096
            ],
            [
              -58.6710434,
              -34.5746068
            ],
            [
              -58.6710632,
              -34.5745619
            ],
            [
              -58.6710782,
              -34.5745157
            ],
            [
              -58.6710883,
              -34.5744687
            ],
            [
              -58.6710934,
              -34.5744211
            ],
            [
              -58.6710934,
              -34.5743733
            ],
            [
              -58.6710885,
              -34.5743257
            ],
            [
              -58.6710786,
              -34.5742786
            ],
            [
              -58.6710611,
              -34.5740918
            ],
            [
              -58.6710422,
              -34.5738896
            ],
            [
              -58.6710322,
              -34.5738208
            ],
            [
              -58.6710068,
              -34.573712
            ],
            [
              -58.6709701,
              -34.5736054
            ],
            [
              -58.6709223,
              -34.5735018
            ],
            [
              -58.6708637,
              -34.5734021
            ],
            [
              -58.6707949,
              -34.573307
            ],
            [
              -58.6707791,
              -34.5732509
            ],
            [
              -58.6707534,
              -34.5731849
            ],
            [
              -58.670721,
              -34.5731209
            ],
            [
              -58.6706818,
              -34.5730594
            ],
            [
              -58.6694228,
              -34.5737192
            ],
            [
              -58.6690405,
              -34.5739127
            ],
            [
              -58.6687808,
              -34.5738693
            ],
            [
              -58.6685248,
              -34.5738385
            ],
            [
              -58.6682072,
              -34.5737754
            ],
            [
              -58.6678944,
              -34.5737595
            ],
            [
              -58.6676377,
              -34.5737661
            ],
            [
              -58.6672123,
              -34.573656
            ],
            [
              -58.667147,
              -34.5736264
            ],
            [
              -58.6670749,
              -34.5735877
            ],
            [
              -58.6669843,
              -34.573514
            ],
            [
              -58.6668362,
              -34.573446
            ],
            [
              -58.6667104,
              -34.5734194
            ],
            [
              -58.6663153,
              -34.5729909
            ],
            [
              -58.6657697,
              -34.5723916
            ],
            [
              -58.6654487,
              -34.5720188
            ],
            [
              -58.664859,
              -34.5717387
            ],
            [
              -58.6645139,
              -34.5715402
            ],
            [
              -58.6642867,
              -34.5712226
            ],
            [
              -58.6641934,
              -34.5709123
            ],
            [
              -58.6641677,
              -34.570359
            ],
            [
              -58.6640828,
              -34.5700773
            ],
            [
              -58.6639706,
              -34.5698345
            ],
            [
              -58.6638481,
              -34.5697665
            ],
            [
              -58.6636934,
              -34.5697307
            ],
            [
              -58.6635437,
              -34.5697182
            ],
            [
              -58.6633856,
              -34.5697055
            ],
            [
              -58.6632156,
              -34.569701
            ],
            [
              -58.6630888,
              -34.5696969
            ],
            [
              -58.6629072,
              -34.5696922
            ],
            [
              -58.6627523,
              -34.5696918
            ],
            [
              -58.6625694,
              -34.5696885
            ],
            [
              -58.6623746,
              -34.5696903
            ],
            [
              -58.6622193,
              -34.5696913
            ],
            [
              -58.6619806,
              -34.5696452
            ],
            [
              -58.6618367,
              -34.5695837
            ],
            [
              -58.6617103,
              -34.5695496
            ],
            [
              -58.6616191,
              -34.5694674
            ],
            [
              -58.6615487,
              -34.5694115
            ],
            [
              -58.6615267,
              -34.5692864
            ],
            [
              -58.6614376,
              -34.5683912
            ],
            [
              -58.6613752,
              -34.5681915
            ],
            [
              -58.6611523,
              -34.5678907
            ],
            [
              -58.6607547,
              -34.56774
            ],
            [
              -58.6602285,
              -34.5676755
            ],
            [
              -58.6597015,
              -34.567716
            ],
            [
              -58.659353,
              -34.5676993
            ],
            [
              -58.659123,
              -34.567549
            ],
            [
              -58.6590563,
              -34.5672872
            ],
            [
              -58.6588769,
              -34.5666585
            ],
            [
              -58.6586813,
              -34.5663917
            ],
            [
              -58.6583792,
              -34.5661888
            ],
            [
              -58.6579143,
              -34.56622
            ],
            [
              -58.6572687,
              -34.5663907
            ],
            [
              -58.656967,
              -34.566476
            ],
            [
              -58.6550931,
              -34.5658371
            ],
            [
              -58.6547115,
              -34.5652918
            ],
            [
              -58.6543556,
              -34.5648745
            ],
            [
              -58.653971,
              -34.5647725
            ],
            [
              -58.6534224,
              -34.5648224
            ],
            [
              -58.6528175,
              -34.5649652
            ],
            [
              -58.6526384,
              -34.5649564
            ],
            [
              -58.6521386,
              -34.5648909
            ],
            [
              -58.6511976,
              -34.5645322
            ],
            [
              -58.6500938,
              -34.5644869
            ],
            [
              -58.6488389,
              -34.5637761
            ],
            [
              -58.647799,
              -34.5636739
            ],
            [
              -58.6471465,
              -34.5635129
            ],
            [
              -58.6463792,
              -34.5627807
            ]
          ]
        ]
      }
    }
  ]
}
