{
  "type": "FeatureCollection",
  "name": "arba_chacra_hurlingham",
  "metadata": {
    "generated_at": "2026-06-29T00:09:48.931378+00:00",
    "crs": "EPSG:4326",
    "scope": "Partido de Hurlingham, Buenos Aires, Argentina",
    "source_name": "ARBA GeoARBA",
    "source_url": "https://www.arba.gov.ar/geoarba/inicio.asp",
    "wfs_url": "https://geo.arba.gov.ar/geoserver/idera/wfs?service=WFS&request=GetCapabilities&version=2.0.0",
    "wfs_type": "idera:Chacra",
    "source_archive": "135_chacra.tar.gz",
    "input_crs": "EPSG:5347",
    "metric_crs_used_for_source_area": "EPSG:5347",
    "license": "Public official geospatial data; cite ARBA/GeoARBA. Commercialization restrictions may apply according to IDEBA notice.",
    "data_confidence": "high",
    "notes": null,
    "total_source_records": 9,
    "output_feature_count": 9,
    "outside_hurlingham_zone_count": 0,
    "invalid_geometries_repaired": 0,
    "geometry_type_counts": {
      "MultiPolygon": 7,
      "Polygon": 2
    },
    "assigned_zone_counts": {
      "Curapaytí": 1,
      "La Leonor": 3,
      "Los Troncos": 1,
      "San Alberto": 1,
      "Santa Leonor": 1,
      "Virgen Esperanza": 2
    }
  },
  "features": [
    {
      "type": "Feature",
      "properties": {
        "cca": "135040E0005000",
        "ara1": 3218.67,
        "sag": "ARBA",
        "source_name": "ARBA GeoARBA",
        "source_url": "https://www.arba.gov.ar/geoarba/inicio.asp",
        "source_layer": "Chacra",
        "source_archive": "135_chacra.tar.gz",
        "wfs_type": "idera:Chacra",
        "input_crs": "EPSG:5347",
        "generated_at": "2026-06-29T00:09:48.931378+00:00",
        "assigned_zone_name": "Virgen Esperanza",
        "data_confidence": "high"
      },
      "geometry": {
        "type": "Polygon",
        "coordinates": [
          [
            [
              -58.6500212,
              -34.5965642
            ],
            [
              -58.6497207,
              -34.5963084
            ],
            [
              -58.6495412,
              -34.5961556
            ],
            [
              -58.6494465,
              -34.5962301
            ],
            [
              -58.6493202,
              -34.596336
            ],
            [
              -58.6491436,
              -34.5964812
            ],
            [
              -58.649322,
              -34.596631
            ],
            [
              -58.6496233,
              -34.5968826
            ],
            [
              -58.6500212,
              -34.5965642
            ]
          ]
        ]
      }
    },
    {
      "type": "Feature",
      "properties": {
        "cca": "135040E0007000",
        "ara1": 88193.8,
        "sag": "ARBA",
        "source_name": "ARBA GeoARBA",
        "source_url": "https://www.arba.gov.ar/geoarba/inicio.asp",
        "source_layer": "Chacra",
        "source_archive": "135_chacra.tar.gz",
        "wfs_type": "idera:Chacra",
        "input_crs": "EPSG:5347",
        "generated_at": "2026-06-29T00:09:48.931378+00:00",
        "assigned_zone_name": "Santa Leonor",
        "data_confidence": "high"
      },
      "geometry": {
        "type": "MultiPolygon",
        "coordinates": [
          [
            [
              [
                -58.6578414,
                -34.5930863
              ],
              [
                -58.6573999,
                -34.5927113
              ],
              [
                -58.6567813,
                -34.5932136
              ],
              [
                -58.6572548,
                -34.5936216
              ],
              [
                -58.6573134,
                -34.5935745
              ],
              [
                -58.6576319,
                -34.5933179
              ],
              [
                -58.657594,
                -34.5932857
              ],
              [
                -58.6578414,
                -34.5930863
              ]
            ]
          ],
          [
            [
              [
                -58.6580933,
                -34.5938118
              ],
              [
                -58.6582479,
                -34.5936873
              ],
              [
                -58.6584051,
                -34.5935596
              ],
              [
                -58.6581821,
                -34.5933756
              ],
              [
                -58.6580316,
                -34.5932477
              ],
              [
                -58.6577224,
                -34.5934967
              ],
              [
                -58.6578729,
                -34.5936246
              ],
              [
                -58.6580933,
                -34.5938118
              ]
            ]
          ],
          [
            [
              [
                -58.6535941,
                -34.5956956
              ],
              [
                -58.6546533,
                -34.5965906
              ],
              [
                -58.6552827,
                -34.5960883
              ],
              [
                -58.6556858,
                -34.5957637
              ],
              [
                -58.6559177,
                -34.595577
              ],
              [
                -58.6555841,
                -34.5953074
              ],
              [
                -58.6548475,
                -34.5946864
              ],
              [
                -58.654218,
                -34.5951932
              ],
              [
                -58.6531482,
                -34.5942846
              ],
              [
                -58.6528997,
                -34.5944846
              ],
              [
                -58.6525188,
                -34.5947869
              ],
              [
                -58.6535941,
                -34.5956956
              ]
            ]
          ],
          [
            [
              [
                -58.6511574,
                -34.5977508
              ],
              [
                -58.6513204,
                -34.5978799
              ],
              [
                -58.6514131,
                -34.5979549
              ],
              [
                -58.6515015,
                -34.5980291
              ],
              [
                -58.6512697,
                -34.5982208
              ],
              [
                -58.6511537,
                -34.5983186
              ],
              [
                -58.6508003,
                -34.5986032
              ],
              [
                -58.6507064,
                -34.5986787
              ],
              [
                -58.6506678,
                -34.5987099
              ],
              [
                -58.6502867,
                -34.5990166
              ],
              [
                -58.6508049,
                -34.5996668
              ],
              [
                -58.650843,
                -34.5996717
              ],
              [
                -58.6518204,
                -34.5988848
              ],
              [
                -58.6527977,
                -34.5980979
              ],
              [
                -58.6534383,
                -34.5975777
              ],
              [
                -58.6536262,
                -34.5974221
              ],
              [
                -58.6537587,
                -34.5973154
              ],
              [
                -58.6540293,
                -34.5970975
              ],
              [
                -58.6536261,
                -34.5967505
              ],
              [
                -58.6535777,
                -34.5967095
              ],
              [
                -58.6535561,
                -34.5966957
              ],
              [
                -58.6535239,
                -34.5966683
              ],
              [
                -58.6530723,
                -34.5962847
              ],
              [
                -58.65297,
                -34.5962025
              ],
              [
                -58.6529038,
                -34.5962558
              ],
              [
                -58.6524289,
                -34.5966382
              ],
              [
                -58.652335,
                -34.5967138
              ],
              [
                -58.6517332,
                -34.5971938
              ],
              [
                -58.6517222,
                -34.5972027
              ],
              [
                -58.6511037,
                -34.5977007
              ],
              [
                -58.6511574,
                -34.5977508
              ]
            ]
          ]
        ]
      }
    },
    {
      "type": "Feature",
      "properties": {
        "cca": "135040E0010000",
        "ara1": 74293.19,
        "sag": "ARBA",
        "source_name": "ARBA GeoARBA",
        "source_url": "https://www.arba.gov.ar/geoarba/inicio.asp",
        "source_layer": "Chacra",
        "source_archive": "135_chacra.tar.gz",
        "wfs_type": "idera:Chacra",
        "input_crs": "EPSG:5347",
        "generated_at": "2026-06-29T00:09:48.931378+00:00",
        "assigned_zone_name": "Los Troncos",
        "data_confidence": "high"
      },
      "geometry": {
        "type": "MultiPolygon",
        "coordinates": [
          [
            [
              [
                -58.6531617,
                -34.6005356
              ],
              [
                -58.6543159,
                -34.5996019
              ],
              [
                -58.6544264,
                -34.5995085
              ],
              [
                -58.6547135,
                -34.5992773
              ],
              [
                -58.6546866,
                -34.5992545
              ],
              [
                -58.6544769,
                -34.5990764
              ],
              [
                -58.6542941,
                -34.5989212
              ],
              [
                -58.6539446,
                -34.5986289
              ],
              [
                -58.6534069,
                -34.5981768
              ],
              [
                -58.6533692,
                -34.5981448
              ],
              [
                -58.6532563,
                -34.5980489
              ],
              [
                -58.6531756,
                -34.5979849
              ],
              [
                -58.6529989,
                -34.5981272
              ],
              [
                -58.6516185,
                -34.5992341
              ],
              [
                -58.6518497,
                -34.5994305
              ],
              [
                -58.6520057,
                -34.5995584
              ],
              [
                -58.6521454,
                -34.5996816
              ],
              [
                -58.6524465,
                -34.5999373
              ],
              [
                -58.65278,
                -34.6002114
              ],
              [
                -58.6528928,
                -34.6003118
              ],
              [
                -58.6530864,
                -34.6004717
              ],
              [
                -58.6531617,
                -34.6005356
              ]
            ]
          ],
          [
            [
              [
                -58.6515246,
                -34.5993142
              ],
              [
                -58.6509391,
                -34.59979
              ],
              [
                -58.6509332,
                -34.5998215
              ],
              [
                -58.6509855,
                -34.5998667
              ],
              [
                -58.6505561,
                -34.6002184
              ],
              [
                -58.6505556,
                -34.6002544
              ],
              [
                -58.6519804,
                -34.60146
              ],
              [
                -58.6530467,
                -34.6005659
              ],
              [
                -58.6515626,
                -34.5993191
              ],
              [
                -58.6515246,
                -34.5993142
              ]
            ]
          ],
          [
            [
              [
                -58.6561438,
                -34.5967648
              ],
              [
                -58.6559664,
                -34.5966141
              ],
              [
                -58.6554179,
                -34.5961529
              ],
              [
                -58.6547828,
                -34.5966732
              ],
              [
                -58.6548579,
                -34.5967416
              ],
              [
                -58.6549387,
                -34.5968056
              ],
              [
                -58.6550139,
                -34.5968695
              ],
              [
                -58.6550892,
                -34.5969334
              ],
              [
                -58.6551699,
                -34.5969974
              ],
              [
                -58.6552129,
                -34.5970339
              ],
              [
                -58.6552451,
                -34.5970658
              ],
              [
                -58.6553258,
                -34.5971298
              ],
              [
                -58.6553755,
                -34.5970898
              ],
              [
                -58.655464,
                -34.5970142
              ],
              [
                -58.6555578,
                -34.5969386
              ],
              [
                -58.6557407,
                -34.5970893
              ],
              [
                -58.6561438,
                -34.5967648
              ]
            ]
          ]
        ]
      }
    },
    {
      "type": "Feature",
      "properties": {
        "cca": "135040E0005000",
        "ara1": 14396.88,
        "sag": "ARBA",
        "source_name": "ARBA GeoARBA",
        "source_url": "https://www.arba.gov.ar/geoarba/inicio.asp",
        "source_layer": "Chacra",
        "source_archive": "135_chacra.tar.gz",
        "wfs_type": "idera:Chacra",
        "input_crs": "EPSG:5347",
        "generated_at": "2026-06-29T00:09:48.931378+00:00",
        "assigned_zone_name": "Virgen Esperanza",
        "data_confidence": "high"
      },
      "geometry": {
        "type": "MultiPolygon",
        "coordinates": [
          [
            [
              [
                -58.6500212,
                -34.5965642
              ],
              [
                -58.6497207,
                -34.5963084
              ],
              [
                -58.6495412,
                -34.5961556
              ],
              [
                -58.6494465,
                -34.5962301
              ],
              [
                -58.6493202,
                -34.596336
              ],
              [
                -58.6491436,
                -34.5964812
              ],
              [
                -58.649322,
                -34.596631
              ],
              [
                -58.6496233,
                -34.5968826
              ],
              [
                -58.6500212,
                -34.5965642
              ]
            ]
          ],
          [
            [
              [
                -58.6497218,
                -34.595048
              ],
              [
                -58.6500376,
                -34.5947927
              ],
              [
                -58.6489697,
                -34.5938896
              ],
              [
                -58.6486602,
                -34.5941417
              ],
              [
                -58.6483478,
                -34.5943924
              ],
              [
                -58.6494156,
                -34.5952956
              ],
              [
                -58.6497218,
                -34.595048
              ]
            ]
          ]
        ]
      }
    },
    {
      "type": "Feature",
      "properties": {
        "cca": "135040E0004000",
        "ara1": 81397.16,
        "sag": "ARBA",
        "source_name": "ARBA GeoARBA",
        "source_url": "https://www.arba.gov.ar/geoarba/inicio.asp",
        "source_layer": "Chacra",
        "source_archive": "135_chacra.tar.gz",
        "wfs_type": "idera:Chacra",
        "input_crs": "EPSG:5347",
        "generated_at": "2026-06-29T00:09:48.931378+00:00",
        "assigned_zone_name": "La Leonor",
        "data_confidence": "high"
      },
      "geometry": {
        "type": "MultiPolygon",
        "coordinates": [
          [
            [
              [
                -58.6610586,
                -34.5900406
              ],
              [
                -58.660881,
                -34.589899
              ],
              [
                -58.6601505,
                -34.590453
              ],
              [
                -58.6601859,
                -34.5904827
              ],
              [
                -58.658861,
                -34.5915419
              ],
              [
                -58.6588599,
                -34.5915804
              ],
              [
                -58.6598007,
                -34.5923948
              ],
              [
                -58.6598466,
                -34.5923955
              ],
              [
                -58.6606253,
                -34.5917687
              ],
              [
                -58.6618644,
                -34.590766
              ],
              [
                -58.6618651,
                -34.590721
              ],
              [
                -58.6610586,
                -34.5900406
              ]
            ]
          ],
          [
            [
              [
                -58.6586963,
                -34.5915605
              ],
              [
                -58.6592718,
                -34.5910833
              ],
              [
                -58.6582223,
                -34.5901988
              ],
              [
                -58.6576317,
                -34.590661
              ],
              [
                -58.6570064,
                -34.5911634
              ],
              [
                -58.6575397,
                -34.5916147
              ],
              [
                -58.6580729,
                -34.5920659
              ],
              [
                -58.6586963,
                -34.5915605
              ]
            ]
          ],
          [
            [
              [
                -58.65693,
                -34.5921179
              ],
              [
                -58.6574954,
                -34.5916615
              ],
              [
                -58.6569851,
                -34.5912296
              ],
              [
                -58.6569389,
                -34.5912291
              ],
              [
                -58.6568687,
                -34.5912858
              ],
              [
                -58.6567673,
                -34.5913677
              ],
              [
                -58.6566581,
                -34.5914558
              ],
              [
                -58.656549,
                -34.5915439
              ],
              [
                -58.6564203,
                -34.5916479
              ],
              [
                -58.6564197,
                -34.5916861
              ],
              [
                -58.6565644,
                -34.5918085
              ],
              [
                -58.6567472,
                -34.5919632
              ],
              [
                -58.65693,
                -34.5921179
              ]
            ]
          ],
          [
            [
              [
                -58.6586896,
                -34.5916854
              ],
              [
                -58.658578,
                -34.5917743
              ],
              [
                -58.6584474,
                -34.5918791
              ],
              [
                -58.6583157,
                -34.5919848
              ],
              [
                -58.6581832,
                -34.5920913
              ],
              [
                -58.6580532,
                -34.5921953
              ],
              [
                -58.6579212,
                -34.5923008
              ],
              [
                -58.6577917,
                -34.5924045
              ],
              [
                -58.6576604,
                -34.5925098
              ],
              [
                -58.6575482,
                -34.5925991
              ],
              [
                -58.6575496,
                -34.592637
              ],
              [
                -58.6576839,
                -34.5927509
              ],
              [
                -58.6578156,
                -34.5928651
              ],
              [
                -58.6579396,
                -34.5929706
              ],
              [
                -58.6580847,
                -34.5930947
              ],
              [
                -58.6582329,
                -34.5932213
              ],
              [
                -58.6585067,
                -34.5934549
              ],
              [
                -58.6585534,
                -34.5934552
              ],
              [
                -58.6586543,
                -34.5933747
              ],
              [
                -58.6588205,
                -34.5932417
              ],
              [
                -58.6589405,
                -34.5931454
              ],
              [
                -58.6590948,
                -34.5930216
              ],
              [
                -58.659247,
                -34.5929001
              ],
              [
                -58.6594025,
                -34.5927759
              ],
              [
                -58.6595579,
                -34.5926519
              ],
              [
                -58.6596914,
                -34.5925459
              ],
              [
                -58.659691,
                -34.5925084
              ],
              [
                -58.6594665,
                -34.5923153
              ],
              [
                -58.6593818,
                -34.5922424
              ],
              [
                -58.6591684,
                -34.5920589
              ],
              [
                -58.6589518,
                -34.5918737
              ],
              [
                -58.6588681,
                -34.5918021
              ],
              [
                -58.6587322,
                -34.591687
              ],
              [
                -58.6586896,
                -34.5916854
              ]
            ]
          ]
        ]
      }
    },
    {
      "type": "Feature",
      "properties": {
        "cca": "135040E0004000",
        "ara1": 56315.75,
        "sag": "ARBA",
        "source_name": "ARBA GeoARBA",
        "source_url": "https://www.arba.gov.ar/geoarba/inicio.asp",
        "source_layer": "Chacra",
        "source_archive": "135_chacra.tar.gz",
        "wfs_type": "idera:Chacra",
        "input_crs": "EPSG:5347",
        "generated_at": "2026-06-29T00:09:48.931378+00:00",
        "assigned_zone_name": "La Leonor",
        "data_confidence": "high"
      },
      "geometry": {
        "type": "MultiPolygon",
        "coordinates": [
          [
            [
              [
                -58.6601859,
                -34.5904827
              ],
              [
                -58.658861,
                -34.5915419
              ],
              [
                -58.6588599,
                -34.5915804
              ],
              [
                -58.6598007,
                -34.5923948
              ],
              [
                -58.6598466,
                -34.5923955
              ],
              [
                -58.6606253,
                -34.5917687
              ],
              [
                -58.6618644,
                -34.590766
              ],
              [
                -58.6618651,
                -34.590721
              ],
              [
                -58.6610586,
                -34.5900406
              ],
              [
                -58.660881,
                -34.589899
              ],
              [
                -58.6601505,
                -34.590453
              ],
              [
                -58.6601859,
                -34.5904827
              ]
            ]
          ],
          [
            [
              [
                -58.6580729,
                -34.5920659
              ],
              [
                -58.6586963,
                -34.5915605
              ],
              [
                -58.6592718,
                -34.5910833
              ],
              [
                -58.6582223,
                -34.5901988
              ],
              [
                -58.6576317,
                -34.590661
              ],
              [
                -58.6570064,
                -34.5911634
              ],
              [
                -58.6575397,
                -34.5916147
              ],
              [
                -58.6580729,
                -34.5920659
              ]
            ]
          ]
        ]
      }
    },
    {
      "type": "Feature",
      "properties": {
        "cca": "135040E0004000",
        "ara1": 3730.74,
        "sag": "ARBA",
        "source_name": "ARBA GeoARBA",
        "source_url": "https://www.arba.gov.ar/geoarba/inicio.asp",
        "source_layer": "Chacra",
        "source_archive": "135_chacra.tar.gz",
        "wfs_type": "idera:Chacra",
        "input_crs": "EPSG:5347",
        "generated_at": "2026-06-29T00:09:48.931378+00:00",
        "assigned_zone_name": "La Leonor",
        "data_confidence": "high"
      },
      "geometry": {
        "type": "Polygon",
        "coordinates": [
          [
            [
              -58.6608217,
              -34.58743
            ],
            [
              -58.6608261,
              -34.5875067
            ],
            [
              -58.660831,
              -34.5875473
            ],
            [
              -58.6608309,
              -34.5875653
            ],
            [
              -58.6608461,
              -34.587651
            ],
            [
              -58.66085,
              -34.5877728
            ],
            [
              -58.6608538,
              -34.587899
            ],
            [
              -58.6608742,
              -34.5880073
            ],
            [
              -58.660874,
              -34.5880253
            ],
            [
              -58.6609111,
              -34.5881114
            ],
            [
              -58.6608694,
              -34.5883903
            ],
            [
              -58.6611983,
              -34.5886681
            ],
            [
              -58.661227,
              -34.5885512
            ],
            [
              -58.6612395,
              -34.5884251
            ],
            [
              -58.6612233,
              -34.5884159
            ],
            [
              -58.6612183,
              -34.5883799
            ],
            [
              -58.6612076,
              -34.5883618
            ],
            [
              -58.6612084,
              -34.5882987
            ],
            [
              -58.6612145,
              -34.5882537
            ],
            [
              -58.661204,
              -34.5882175
            ],
            [
              -58.6611945,
              -34.5881092
            ],
            [
              -58.6611952,
              -34.5880552
            ],
            [
              -58.661201,
              -34.5880237
            ],
            [
              -58.6612026,
              -34.5878975
            ],
            [
              -58.6611978,
              -34.5878524
            ],
            [
              -58.661198,
              -34.5878344
            ],
            [
              -58.661193,
              -34.5877983
            ],
            [
              -58.6611565,
              -34.5876673
            ],
            [
              -58.6611742,
              -34.5875638
            ],
            [
              -58.6611204,
              -34.5875092
            ],
            [
              -58.6609263,
              -34.5873453
            ],
            [
              -58.6608492,
              -34.5874077
            ],
            [
              -58.6608217,
              -34.58743
            ]
          ]
        ]
      }
    },
    {
      "type": "Feature",
      "properties": {
        "cca": "135040E0012000",
        "ara1": 49418.7,
        "sag": "ARBA",
        "source_name": "ARBA GeoARBA",
        "source_url": "https://www.arba.gov.ar/geoarba/inicio.asp",
        "source_layer": "Chacra",
        "source_archive": "135_chacra.tar.gz",
        "wfs_type": "idera:Chacra",
        "input_crs": "EPSG:5347",
        "generated_at": "2026-06-29T00:09:48.931378+00:00",
        "assigned_zone_name": "San Alberto",
        "data_confidence": "high"
      },
      "geometry": {
        "type": "MultiPolygon",
        "coordinates": [
          [
            [
              [
                -58.6555007,
                -34.6010389
              ],
              [
                -58.6567352,
                -34.6000384
              ],
              [
                -58.6567358,
                -34.5999844
              ],
              [
                -58.6554584,
                -34.5989066
              ],
              [
                -58.655393,
                -34.5989061
              ],
              [
                -58.6550474,
                -34.5991864
              ],
              [
                -58.654197,
                -34.5998755
              ],
              [
                -58.6541583,
                -34.5999066
              ],
              [
                -58.6541577,
                -34.5999607
              ],
              [
                -58.6554239,
                -34.6010291
              ],
              [
                -58.6555007,
                -34.6010389
              ]
            ]
          ],
          [
            [
              [
                -58.6543297,
                -34.6019253
              ],
              [
                -58.6541198,
                -34.6017637
              ],
              [
                -58.6538231,
                -34.6015046
              ],
              [
                -58.653014,
                -34.6007981
              ],
              [
                -58.6521444,
                -34.6015277
              ],
              [
                -58.6521444,
                -34.6015662
              ],
              [
                -58.6534397,
                -34.6026525
              ],
              [
                -58.6534853,
                -34.6026523
              ],
              [
                -58.6543297,
                -34.6019253
              ]
            ]
          ]
        ]
      }
    },
    {
      "type": "Feature",
      "properties": {
        "cca": "135040E0001000",
        "ara1": 48852.4,
        "sag": "ARBA",
        "source_name": "ARBA GeoARBA",
        "source_url": "https://www.arba.gov.ar/geoarba/inicio.asp",
        "source_layer": "Chacra",
        "source_archive": "135_chacra.tar.gz",
        "wfs_type": "idera:Chacra",
        "input_crs": "EPSG:5347",
        "generated_at": "2026-06-29T00:09:48.931378+00:00",
        "assigned_zone_name": "Curapaytí",
        "data_confidence": "high"
      },
      "geometry": {
        "type": "MultiPolygon",
        "coordinates": [
          [
            [
              [
                -58.6457775,
                -34.5901457
              ],
              [
                -58.6460552,
                -34.5903832
              ],
              [
                -58.6463446,
                -34.5906308
              ],
              [
                -58.6469353,
                -34.5901474
              ],
              [
                -58.6475474,
                -34.5896533
              ],
              [
                -58.646934,
                -34.5891221
              ],
              [
                -58.6455916,
                -34.5879776
              ],
              [
                -58.6449667,
                -34.5884882
              ],
              [
                -58.6443899,
                -34.5889588
              ],
              [
                -58.6450833,
                -34.589552
              ],
              [
                -58.6453745,
                -34.5898018
              ],
              [
                -58.6456674,
                -34.5900516
              ],
              [
                -58.6456683,
                -34.5900523
              ],
              [
                -58.6457775,
                -34.5901457
              ]
            ]
          ],
          [
            [
              [
                -58.6489785,
                -34.586941
              ],
              [
                -58.6481382,
                -34.5870038
              ],
              [
                -58.6483473,
                -34.5871778
              ],
              [
                -58.6484201,
                -34.5872385
              ],
              [
                -58.6487645,
                -34.5875251
              ],
              [
                -58.6488803,
                -34.5876205
              ],
              [
                -58.6490862,
                -34.587792
              ],
              [
                -58.6494717,
                -34.5881137
              ],
              [
                -58.64993,
                -34.5877447
              ],
              [
                -58.6489785,
                -34.586941
              ]
            ]
          ]
        ]
      }
    }
  ]
}
