{
  "type": "FeatureCollection",
  "name": "arba_seccion_catastral_hurlingham",
  "metadata": {
    "generated_at": "2026-06-13T00:57:25.261787+00:00",
    "crs": "EPSG:4326",
    "scope": "Partido de Hurlingham, Buenos Aires, Argentina",
    "source_name": "ARBA GeoARBA",
    "source_url": "https://www.arba.gov.ar/geoarba/inicio.asp",
    "wfs_url": "https://geo.arba.gov.ar/geoserver/idera/wfs?service=WFS&request=GetCapabilities&version=2.0.0",
    "wfs_type": "idera:Seccion_Catastral",
    "source_archive": "135_seccion_catastral.tar.gz",
    "input_crs": "EPSG:5347",
    "metric_crs_used_for_source_area": "EPSG:5347",
    "license": "Public official geospatial data; cite ARBA/GeoARBA. Commercialization restrictions may apply according to IDEBA notice.",
    "data_confidence": "high",
    "notes": null,
    "total_source_records": 8,
    "output_feature_count": 8,
    "outside_hurlingham_zone_count": 0,
    "invalid_geometries_repaired": 0,
    "geometry_type_counts": {
      "MultiPolygon": 2,
      "Polygon": 6
    },
    "assigned_zone_counts": {
      "Carola Lorenzini": 1,
      "El Palanco": 1,
      "Jorge Newbery": 1,
      "Mitre": 1,
      "Parque Quirno": 1,
      "Roca 1": 1,
      "Villa Club": 1,
      "Virgen Esperanza": 1
    }
  },
  "features": [
    {
      "type": "Feature",
      "properties": {
        "cca": "135040P",
        "ara3": 3348.11,
        "sag": "ARBA",
        "source_name": "ARBA GeoARBA",
        "source_url": "https://www.arba.gov.ar/geoarba/inicio.asp",
        "source_layer": "Seccion Catastral",
        "source_archive": "135_seccion_catastral.tar.gz",
        "wfs_type": "idera:Seccion_Catastral",
        "input_crs": "EPSG:5347",
        "generated_at": "2026-06-13T00:57:25.261787+00:00",
        "assigned_zone_name": "Mitre",
        "data_confidence": "high"
      },
      "geometry": {
        "type": "MultiPolygon",
        "coordinates": [
          [
            [
              [
                -58.633722,
                -34.6207594
              ],
              [
                -58.6323787,
                -34.6245304
              ],
              [
                -58.6349429,
                -34.624103
              ],
              [
                -58.6349044,
                -34.6240279
              ],
              [
                -58.6348283,
                -34.6237146
              ],
              [
                -58.6346706,
                -34.6230711
              ],
              [
                -58.6346392,
                -34.6229357
              ],
              [
                -58.6349151,
                -34.6229821
              ],
              [
                -58.6353361,
                -34.623053
              ],
              [
                -58.6360672,
                -34.6231794
              ],
              [
                -58.6361016,
                -34.6232064
              ],
              [
                -58.6362397,
                -34.6238007
              ],
              [
                -58.6362553,
                -34.6238662
              ],
              [
                -58.6367916,
                -34.6237821
              ],
              [
                -58.6371901,
                -34.6244001
              ],
              [
                -58.6383169,
                -34.6286546
              ],
              [
                -58.6438609,
                -34.6276977
              ],
              [
                -58.6437777,
                -34.6276706
              ],
              [
                -58.6425299,
                -34.6260671
              ],
              [
                -58.645862,
                -34.6233296
              ],
              [
                -58.6473358,
                -34.6220443
              ],
              [
                -58.6490769,
                -34.6206138
              ],
              [
                -58.6504971,
                -34.6221462
              ],
              [
                -58.6539389,
                -34.6192933
              ],
              [
                -58.6523348,
                -34.6179369
              ],
              [
                -58.6524148,
                -34.6178712
              ],
              [
                -58.6553585,
                -34.6154014
              ],
              [
                -58.651746,
                -34.6128363
              ],
              [
                -58.6525908,
                -34.6121444
              ],
              [
                -58.6492195,
                -34.6099243
              ],
              [
                -58.6492725,
                -34.6098693
              ],
              [
                -58.6518992,
                -34.6077037
              ],
              [
                -58.6495396,
                -34.605735
              ],
              [
                -58.6495266,
                -34.6057242
              ],
              [
                -58.6498642,
                -34.6054424
              ],
              [
                -58.6498508,
                -34.6054069
              ],
              [
                -58.649723,
                -34.6052207
              ],
              [
                -58.649478,
                -34.604871
              ],
              [
                -58.6493651,
                -34.6047706
              ],
              [
                -58.6491409,
                -34.6044842
              ],
              [
                -58.6489113,
                -34.6041887
              ],
              [
                -58.6488889,
                -34.6041471
              ],
              [
                -58.6488559,
                -34.6041278
              ],
              [
                -58.6457034,
                -34.6067189
              ],
              [
                -58.6457249,
                -34.6067402
              ],
              [
                -58.6459079,
                -34.606882
              ],
              [
                -58.6459109,
                -34.6068845
              ],
              [
                -58.6459993,
                -34.6069596
              ],
              [
                -58.6460477,
                -34.6070007
              ],
              [
                -58.64608,
                -34.6070236
              ],
              [
                -58.6461553,
                -34.6070875
              ],
              [
                -58.6461823,
                -34.6071058
              ],
              [
                -58.6463168,
                -34.6072155
              ],
              [
                -58.6463391,
                -34.607235
              ],
              [
                -58.6462675,
                -34.6072938
              ],
              [
                -58.6462987,
                -34.6073189
              ],
              [
                -58.6463149,
                -34.6073326
              ],
              [
                -58.646573,
                -34.6075473
              ],
              [
                -58.6466053,
                -34.6075702
              ],
              [
                -58.6466698,
                -34.6076295
              ],
              [
                -58.6467775,
                -34.6077118
              ],
              [
                -58.6468365,
                -34.6077666
              ],
              [
                -58.6468527,
                -34.6077758
              ],
              [
                -58.6469119,
                -34.607826
              ],
              [
                -58.6469226,
                -34.6078351
              ],
              [
                -58.6469388,
                -34.6078443
              ],
              [
                -58.646981,
                -34.6078708
              ],
              [
                -58.6465834,
                -34.6081883
              ],
              [
                -58.6463705,
                -34.6083661
              ],
              [
                -58.6463259,
                -34.6083333
              ],
              [
                -58.6460568,
                -34.6081185
              ],
              [
                -58.6457394,
                -34.6078626
              ],
              [
                -58.6456209,
                -34.6077711
              ],
              [
                -58.6453789,
                -34.6075746
              ],
              [
                -58.6450345,
                -34.6072959
              ],
              [
                -58.6450136,
                -34.6072744
              ],
              [
                -58.6448592,
                -34.6073112
              ],
              [
                -58.6424736,
                -34.609234
              ],
              [
                -58.6420366,
                -34.6095696
              ],
              [
                -58.6400174,
                -34.6112122
              ],
              [
                -58.6363035,
                -34.6141996
              ],
              [
                -58.6375513,
                -34.6153082
              ],
              [
                -58.6339848,
                -34.6181772
              ],
              [
                -58.633922,
                -34.6187521
              ],
              [
                -58.6398412,
                -34.6223427
              ],
              [
                -58.6384171,
                -34.6235407
              ],
              [
                -58.633722,
                -34.6207594
              ]
            ],
            [
              [
                -58.6448739,
                -34.6199236
              ],
              [
                -58.646012,
                -34.6208992
              ],
              [
                -58.6444557,
                -34.6221479
              ],
              [
                -58.6433267,
                -34.6211478
              ],
              [
                -58.6433984,
                -34.6210909
              ],
              [
                -58.6434149,
                -34.6210776
              ],
              [
                -58.6441605,
                -34.6204865
              ],
              [
                -58.6443427,
                -34.6203443
              ],
              [
                -58.644525,
                -34.6201976
              ],
              [
                -58.6448011,
                -34.6199798
              ],
              [
                -58.6448739,
                -34.6199236
              ]
            ],
            [
              [
                -58.6362399,
                -34.6186837
              ],
              [
                -58.6381775,
                -34.6176676
              ],
              [
                -58.6382038,
                -34.6177025
              ],
              [
                -58.6382838,
                -34.6178116
              ],
              [
                -58.6383425,
                -34.6178889
              ],
              [
                -58.6383958,
                -34.6179661
              ],
              [
                -58.6384545,
                -34.6180433
              ],
              [
                -58.6385104,
                -34.6181173
              ],
              [
                -58.6385694,
                -34.6181952
              ],
              [
                -58.6386289,
                -34.6182738
              ],
              [
                -58.6386839,
                -34.6183479
              ],
              [
                -58.6387427,
                -34.6184206
              ],
              [
                -58.6388068,
                -34.6185025
              ],
              [
                -58.6388815,
                -34.6186024
              ],
              [
                -58.6389396,
                -34.6186789
              ],
              [
                -58.6370136,
                -34.6196951
              ],
              [
                -58.6362399,
                -34.6186837
              ]
            ]
          ],
          [
            [
              [
                -58.6544918,
                -34.601919
              ],
              [
                -58.6583233,
                -34.6046485
              ],
              [
                -58.6639177,
                -34.600106
              ],
              [
                -58.6633975,
                -34.5996846
              ],
              [
                -58.6711684,
                -34.5933664
              ],
              [
                -58.6683417,
                -34.5908534
              ],
              [
                -58.6628771,
                -34.5951841
              ],
              [
                -58.6563239,
                -34.6004244
              ],
              [
                -58.6544918,
                -34.601919
              ]
            ]
          ]
        ]
      }
    },
    {
      "type": "Feature",
      "properties": {
        "cca": "135040E",
        "ara3": 6304.88,
        "sag": "ARBA",
        "source_name": "ARBA GeoARBA",
        "source_url": "https://www.arba.gov.ar/geoarba/inicio.asp",
        "source_layer": "Seccion Catastral",
        "source_archive": "135_seccion_catastral.tar.gz",
        "wfs_type": "idera:Seccion_Catastral",
        "input_crs": "EPSG:5347",
        "generated_at": "2026-06-13T00:57:25.261787+00:00",
        "assigned_zone_name": "Virgen Esperanza",
        "data_confidence": "high"
      },
      "geometry": {
        "type": "Polygon",
        "coordinates": [
          [
            [
              -58.633722,
              -34.6207594
            ],
            [
              -58.633922,
              -34.6187521
            ],
            [
              -58.6339848,
              -34.6181772
            ],
            [
              -58.6375513,
              -34.6153082
            ],
            [
              -58.6363035,
              -34.6141996
            ],
            [
              -58.6448592,
              -34.6073112
            ],
            [
              -58.6450136,
              -34.6072744
            ],
            [
              -58.6457034,
              -34.6067189
            ],
            [
              -58.6488559,
              -34.6041278
            ],
            [
              -58.6518992,
              -34.6016955
            ],
            [
              -58.653363,
              -34.6027975
            ],
            [
              -58.6543736,
              -34.6019104
            ],
            [
              -58.6544421,
              -34.6019613
            ],
            [
              -58.6544918,
              -34.601919
            ],
            [
              -58.6683417,
              -34.5908534
            ],
            [
              -58.6668552,
              -34.5895522
            ],
            [
              -58.672576,
              -34.584947
            ],
            [
              -58.6716374,
              -34.5839372
            ],
            [
              -58.6691771,
              -34.5858574
            ],
            [
              -58.6686528,
              -34.5854258
            ],
            [
              -58.6711768,
              -34.5833366
            ],
            [
              -58.6709292,
              -34.5831581
            ],
            [
              -58.6704648,
              -34.5835355
            ],
            [
              -58.6702005,
              -34.5833579
            ],
            [
              -58.6697885,
              -34.5832227
            ],
            [
              -58.6694742,
              -34.5831156
            ],
            [
              -58.669317,
              -34.5830643
            ],
            [
              -58.6691273,
              -34.5829992
            ],
            [
              -58.6689973,
              -34.5829527
            ],
            [
              -58.66884,
              -34.5829014
            ],
            [
              -58.6685907,
              -34.582822
            ],
            [
              -58.668563,
              -34.5828488
            ],
            [
              -58.6684313,
              -34.5829059
            ],
            [
              -58.6682754,
              -34.5827735
            ],
            [
              -58.6681947,
              -34.5827051
            ],
            [
              -58.6680758,
              -34.5826452
            ],
            [
              -58.6680924,
              -34.5826318
            ],
            [
              -58.667757,
              -34.5824794
            ],
            [
              -58.6676165,
              -34.5824058
            ],
            [
              -58.6673304,
              -34.5822359
            ],
            [
              -58.667244,
              -34.5821854
            ],
            [
              -58.6671468,
              -34.5821303
            ],
            [
              -58.6668931,
              -34.5819788
            ],
            [
              -58.6667527,
              -34.5819006
            ],
            [
              -58.6665618,
              -34.5817925
            ],
            [
              -58.6664548,
              -34.5817381
            ],
            [
              -58.6663235,
              -34.5816718
            ],
            [
              -58.6661991,
              -34.5816054
            ],
            [
              -58.6662537,
              -34.5815613
            ],
            [
              -58.6662796,
              -34.5815404
            ],
            [
              -58.6662842,
              -34.5815019
            ],
            [
              -58.6663335,
              -34.5814507
            ],
            [
              -58.6663882,
              -34.5814068
            ],
            [
              -58.6664344,
              -34.581356
            ],
            [
              -58.6664936,
              -34.5813192
            ],
            [
              -58.6665449,
              -34.5812692
            ],
            [
              -58.6665994,
              -34.5812255
            ],
            [
              -58.6666534,
              -34.5811795
            ],
            [
              -58.6667097,
              -34.5811304
            ],
            [
              -58.6667597,
              -34.5810902
            ],
            [
              -58.6668227,
              -34.5810519
            ],
            [
              -58.6668957,
              -34.5810224
            ],
            [
              -58.6668962,
              -34.5810223
            ],
            [
              -58.6669507,
              -34.5809767
            ],
            [
              -58.6669741,
              -34.5809069
            ],
            [
              -58.6670096,
              -34.5808476
            ],
            [
              -58.667078,
              -34.5808154
            ],
            [
              -58.667125,
              -34.5807657
            ],
            [
              -58.6671803,
              -34.5807227
            ],
            [
              -58.6672201,
              -34.5806643
            ],
            [
              -58.6672576,
              -34.5806072
            ],
            [
              -58.6672895,
              -34.5805481
            ],
            [
              -58.6673302,
              -34.5804906
            ],
            [
              -58.6673323,
              -34.5804889
            ],
            [
              -58.6673846,
              -34.580447
            ],
            [
              -58.6674031,
              -34.5804629
            ],
            [
              -58.6674412,
              -34.5804323
            ],
            [
              -58.6672005,
              -34.5802508
            ],
            [
              -58.6671471,
              -34.5802106
            ],
            [
              -58.667084,
              -34.5801629
            ],
            [
              -58.6670752,
              -34.5801563
            ],
            [
              -58.6670222,
              -34.5801164
            ],
            [
              -58.6669537,
              -34.5800647
            ],
            [
              -58.6668828,
              -34.5800112
            ],
            [
              -58.6668118,
              -34.5799577
            ],
            [
              -58.6667358,
              -34.5799004
            ],
            [
              -58.666665,
              -34.579847
            ],
            [
              -58.6665682,
              -34.5797741
            ],
            [
              -58.6665203,
              -34.579738
            ],
            [
              -58.6664482,
              -34.5796835
            ],
            [
              -58.6663759,
              -34.5796288
            ],
            [
              -58.6663026,
              -34.5795734
            ],
            [
              -58.6662362,
              -34.5795232
            ],
            [
              -58.6661592,
              -34.5794651
            ],
            [
              -58.6660911,
              -34.5794137
            ],
            [
              -58.6659922,
              -34.5793444
            ],
            [
              -58.665898,
              -34.5792784
            ],
            [
              -58.6658069,
              -34.5792147
            ],
            [
              -58.6657037,
              -34.5791424
            ],
            [
              -58.6656153,
              -34.5790805
            ],
            [
              -58.6654915,
              -34.5789845
            ],
            [
              -58.6654054,
              -34.5789159
            ],
            [
              -58.6653085,
              -34.5788428
            ],
            [
              -58.665217,
              -34.5787741
            ],
            [
              -58.6651093,
              -34.5786964
            ],
            [
              -58.665007,
              -34.5786186
            ],
            [
              -58.6649101,
              -34.5785455
            ],
            [
              -58.6648883,
              -34.5785452
            ],
            [
              -58.6647129,
              -34.5784168
            ],
            [
              -58.6645645,
              -34.5783172
            ],
            [
              -58.6643571,
              -34.5782081
            ],
            [
              -58.6590251,
              -34.5819119
            ],
            [
              -58.6533405,
              -34.5856998
            ],
            [
              -58.6510336,
              -34.586509
            ],
            [
              -58.6491359,
              -34.5867948
            ],
            [
              -58.6381474,
              -34.5872319
            ],
            [
              -58.6377999,
              -34.5883291
            ],
            [
              -58.6362248,
              -34.5927923
            ],
            [
              -58.6355835,
              -34.6002326
            ],
            [
              -58.6351908,
              -34.6050791
            ],
            [
              -58.634514,
              -34.6133239
            ],
            [
              -58.6342521,
              -34.615725
            ],
            [
              -58.6314897,
              -34.6179742
            ],
            [
              -58.633722,
              -34.6207594
            ]
          ]
        ]
      }
    },
    {
      "type": "Feature",
      "properties": {
        "cca": "135040A",
        "ara3": 2487.82,
        "sag": "ARBA",
        "source_name": "ARBA GeoARBA",
        "source_url": "https://www.arba.gov.ar/geoarba/inicio.asp",
        "source_layer": "Seccion Catastral",
        "source_archive": "135_seccion_catastral.tar.gz",
        "wfs_type": "idera:Seccion_Catastral",
        "input_crs": "EPSG:5347",
        "generated_at": "2026-06-13T00:57:25.261787+00:00",
        "assigned_zone_name": "Villa Club",
        "data_confidence": "high"
      },
      "geometry": {
        "type": "Polygon",
        "coordinates": [
          [
            [
              -58.6165299,
              -34.5880008
            ],
            [
              -58.6292886,
              -34.5876499
            ],
            [
              -58.6381474,
              -34.5872319
            ],
            [
              -58.6408448,
              -34.5789344
            ],
            [
              -58.6438233,
              -34.5746955
            ],
            [
              -58.6446542,
              -34.5735259
            ],
            [
              -58.6392455,
              -34.5688189
            ],
            [
              -58.6367856,
              -34.5709067
            ],
            [
              -58.6302569,
              -34.5763893
            ],
            [
              -58.625255,
              -34.5805472
            ],
            [
              -58.619418,
              -34.5855082
            ],
            [
              -58.6165299,
              -34.5880008
            ]
          ]
        ]
      }
    },
    {
      "type": "Feature",
      "properties": {
        "cca": "135040B",
        "ara3": 3533.26,
        "sag": "ARBA",
        "source_name": "ARBA GeoARBA",
        "source_url": "https://www.arba.gov.ar/geoarba/inicio.asp",
        "source_layer": "Seccion Catastral",
        "source_archive": "135_seccion_catastral.tar.gz",
        "wfs_type": "idera:Seccion_Catastral",
        "input_crs": "EPSG:5347",
        "generated_at": "2026-06-13T00:57:25.261787+00:00",
        "assigned_zone_name": "Roca 1",
        "data_confidence": "high"
      },
      "geometry": {
        "type": "Polygon",
        "coordinates": [
          [
            [
              -58.6643571,
              -34.5782081
            ],
            [
              -58.6675089,
              -34.5760183
            ],
            [
              -58.6677712,
              -34.575593
            ],
            [
              -58.6658886,
              -34.5737096
            ],
            [
              -58.6667104,
              -34.5734194
            ],
            [
              -58.6663153,
              -34.5729909
            ],
            [
              -58.6657697,
              -34.5723916
            ],
            [
              -58.6654487,
              -34.5720188
            ],
            [
              -58.664859,
              -34.5717387
            ],
            [
              -58.6645139,
              -34.5715402
            ],
            [
              -58.6642867,
              -34.5712226
            ],
            [
              -58.6641934,
              -34.5709123
            ],
            [
              -58.6641677,
              -34.570359
            ],
            [
              -58.6640828,
              -34.5700773
            ],
            [
              -58.6639706,
              -34.5698345
            ],
            [
              -58.6638481,
              -34.5697665
            ],
            [
              -58.6636934,
              -34.5697307
            ],
            [
              -58.6635437,
              -34.5697182
            ],
            [
              -58.6633856,
              -34.5697055
            ],
            [
              -58.6632156,
              -34.569701
            ],
            [
              -58.6630888,
              -34.5696969
            ],
            [
              -58.6629072,
              -34.5696922
            ],
            [
              -58.6627523,
              -34.5696918
            ],
            [
              -58.6625694,
              -34.5696885
            ],
            [
              -58.6623746,
              -34.5696903
            ],
            [
              -58.6622193,
              -34.5696913
            ],
            [
              -58.6619806,
              -34.5696452
            ],
            [
              -58.6618367,
              -34.5695837
            ],
            [
              -58.6617103,
              -34.5695496
            ],
            [
              -58.6616191,
              -34.5694674
            ],
            [
              -58.6615487,
              -34.5694115
            ],
            [
              -58.6615267,
              -34.5692864
            ],
            [
              -58.6614376,
              -34.5683912
            ],
            [
              -58.6613752,
              -34.5681915
            ],
            [
              -58.6611523,
              -34.5678907
            ],
            [
              -58.6607547,
              -34.56774
            ],
            [
              -58.6602285,
              -34.5676755
            ],
            [
              -58.6597015,
              -34.567716
            ],
            [
              -58.659353,
              -34.5676993
            ],
            [
              -58.659123,
              -34.567549
            ],
            [
              -58.6590563,
              -34.5672872
            ],
            [
              -58.6588769,
              -34.5666585
            ],
            [
              -58.6586813,
              -34.5663917
            ],
            [
              -58.6583792,
              -34.5661888
            ],
            [
              -58.6579143,
              -34.56622
            ],
            [
              -58.6572687,
              -34.5663907
            ],
            [
              -58.656967,
              -34.566476
            ],
            [
              -58.6554869,
              -34.567707
            ],
            [
              -58.6553942,
              -34.5684593
            ],
            [
              -58.6543592,
              -34.5685138
            ],
            [
              -58.6505234,
              -34.5715759
            ],
            [
              -58.6492253,
              -34.5704177
            ],
            [
              -58.6438233,
              -34.5746955
            ],
            [
              -58.6408448,
              -34.5789344
            ],
            [
              -58.6381474,
              -34.5872319
            ],
            [
              -58.6430432,
              -34.5870343
            ],
            [
              -58.6491359,
              -34.5867948
            ],
            [
              -58.6510336,
              -34.586509
            ],
            [
              -58.6533405,
              -34.5856998
            ],
            [
              -58.6590251,
              -34.5819119
            ],
            [
              -58.6643571,
              -34.5782081
            ]
          ],
          [
            [
              -58.6487969,
              -34.5824302
            ],
            [
              -58.6462902,
              -34.5837613
            ],
            [
              -58.6461431,
              -34.5836015
            ],
            [
              -58.6468812,
              -34.5831991
            ],
            [
              -58.6468758,
              -34.5831627
            ],
            [
              -58.6468321,
              -34.5831191
            ],
            [
              -58.6467781,
              -34.5830654
            ],
            [
              -58.6467324,
              -34.58302
            ],
            [
              -58.6466839,
              -34.5829718
            ],
            [
              -58.6466432,
              -34.5829316
            ],
            [
              -58.646562,
              -34.5828509
            ],
            [
              -58.6464735,
              -34.5827629
            ],
            [
              -58.6463925,
              -34.5826825
            ],
            [
              -58.6463693,
              -34.5826594
            ],
            [
              -58.646465,
              -34.582586
            ],
            [
              -58.6464948,
              -34.5825631
            ],
            [
              -58.6465566,
              -34.5825157
            ],
            [
              -58.6466515,
              -34.5824428
            ],
            [
              -58.6467564,
              -34.5823541
            ],
            [
              -58.6468163,
              -34.5823073
            ],
            [
              -58.6468612,
              -34.5822723
            ],
            [
              -58.6469452,
              -34.5822068
            ],
            [
              -58.6469668,
              -34.5821899
            ],
            [
              -58.647027,
              -34.582143
            ],
            [
              -58.6470883,
              -34.5820953
            ],
            [
              -58.6471121,
              -34.5820766
            ],
            [
              -58.6471578,
              -34.582041
            ],
            [
              -58.647221,
              -34.5819917
            ],
            [
              -58.6472814,
              -34.5819447
            ],
            [
              -58.6473608,
              -34.5818827
            ],
            [
              -58.6473974,
              -34.5818541
            ],
            [
              -58.647441,
              -34.5818201
            ],
            [
              -58.6475234,
              -34.5817559
            ],
            [
              -58.6475815,
              -34.5817106
            ],
            [
              -58.6476029,
              -34.5816939
            ],
            [
              -58.6476486,
              -34.5816582
            ],
            [
              -58.64771,
              -34.5816103
            ],
            [
              -58.6478189,
              -34.58152
            ],
            [
              -58.6479071,
              -34.5814509
            ],
            [
              -58.6481774,
              -34.5816812
            ],
            [
              -58.6482168,
              -34.5817148
            ],
            [
              -58.6483177,
              -34.5818008
            ],
            [
              -58.648229,
              -34.5818723
            ],
            [
              -58.6481974,
              -34.5819255
            ],
            [
              -58.6487969,
              -34.5824302
            ]
          ]
        ]
      }
    },
    {
      "type": "Feature",
      "properties": {
        "cca": "135040C",
        "ara3": 1229.68,
        "sag": "ARBA",
        "source_name": "ARBA GeoARBA",
        "source_url": "https://www.arba.gov.ar/geoarba/inicio.asp",
        "source_layer": "Seccion Catastral",
        "source_archive": "135_seccion_catastral.tar.gz",
        "wfs_type": "idera:Seccion_Catastral",
        "input_crs": "EPSG:5347",
        "generated_at": "2026-06-13T00:57:25.261787+00:00",
        "assigned_zone_name": "Jorge Newbery",
        "data_confidence": "high"
      },
      "geometry": {
        "type": "Polygon",
        "coordinates": [
          [
            [
              -58.6381474,
              -34.5872319
            ],
            [
              -58.6292886,
              -34.5876499
            ],
            [
              -58.6165299,
              -34.5880008
            ],
            [
              -58.6164252,
              -34.5885433
            ],
            [
              -58.616562,
              -34.5899893
            ],
            [
              -58.6166754,
              -34.5905313
            ],
            [
              -58.6168732,
              -34.5907162
            ],
            [
              -58.6171578,
              -34.5929444
            ],
            [
              -58.617841,
              -34.5955669
            ],
            [
              -58.6180354,
              -34.5959675
            ],
            [
              -58.6187087,
              -34.5965563
            ],
            [
              -58.6187836,
              -34.5968893
            ],
            [
              -58.6192023,
              -34.5980521
            ],
            [
              -58.6271031,
              -34.5938321
            ],
            [
              -58.6377999,
              -34.5883291
            ],
            [
              -58.6381474,
              -34.5872319
            ]
          ]
        ]
      }
    },
    {
      "type": "Feature",
      "properties": {
        "cca": "135040J",
        "ara3": 2528.87,
        "sag": "ARBA",
        "source_name": "ARBA GeoARBA",
        "source_url": "https://www.arba.gov.ar/geoarba/inicio.asp",
        "source_layer": "Seccion Catastral",
        "source_archive": "135_seccion_catastral.tar.gz",
        "wfs_type": "idera:Seccion_Catastral",
        "input_crs": "EPSG:5347",
        "generated_at": "2026-06-13T00:57:25.261787+00:00",
        "assigned_zone_name": "El Palanco",
        "data_confidence": "high"
      },
      "geometry": {
        "type": "Polygon",
        "coordinates": [
          [
            [
              -58.633722,
              -34.6207594
            ],
            [
              -58.6309927,
              -34.617354
            ],
            [
              -58.629511,
              -34.6154715
            ],
            [
              -58.6263915,
              -34.6115465
            ],
            [
              -58.624407,
              -34.6118875
            ],
            [
              -58.6212366,
              -34.6124296
            ],
            [
              -58.6207362,
              -34.613129
            ],
            [
              -58.6200702,
              -34.6140599
            ],
            [
              -58.6202666,
              -34.61449
            ],
            [
              -58.6244267,
              -34.6144833
            ],
            [
              -58.6244353,
              -34.6151849
            ],
            [
              -58.6244187,
              -34.61619
            ],
            [
              -58.6244254,
              -34.6180008
            ],
            [
              -58.6193253,
              -34.617974
            ],
            [
              -58.619153,
              -34.6179732
            ],
            [
              -58.6180137,
              -34.6200427
            ],
            [
              -58.618259,
              -34.6203965
            ],
            [
              -58.6185756,
              -34.6211022
            ],
            [
              -58.6183632,
              -34.6210997
            ],
            [
              -58.6184505,
              -34.6216593
            ],
            [
              -58.6185097,
              -34.6220357
            ],
            [
              -58.6187535,
              -34.6232984
            ],
            [
              -58.6189729,
              -34.6240508
            ],
            [
              -58.6190224,
              -34.624562
            ],
            [
              -58.6192861,
              -34.6249639
            ],
            [
              -58.6198315,
              -34.6248812
            ],
            [
              -58.6201656,
              -34.6256988
            ],
            [
              -58.6197006,
              -34.6257893
            ],
            [
              -58.6196628,
              -34.6265678
            ],
            [
              -58.6197249,
              -34.6266512
            ],
            [
              -58.6199014,
              -34.6276585
            ],
            [
              -58.6202172,
              -34.6285472
            ],
            [
              -58.62,
              -34.6288319
            ],
            [
              -58.6197488,
              -34.6290557
            ],
            [
              -58.61994,
              -34.6297264
            ],
            [
              -58.6201232,
              -34.6303859
            ],
            [
              -58.6201999,
              -34.6306859
            ],
            [
              -58.6202325,
              -34.6308256
            ],
            [
              -58.620379,
              -34.6314187
            ],
            [
              -58.6206721,
              -34.6314086
            ],
            [
              -58.6213922,
              -34.6322465
            ],
            [
              -58.6281823,
              -34.6324806
            ],
            [
              -58.6282073,
              -34.6321298
            ],
            [
              -58.6294776,
              -34.6324154
            ],
            [
              -58.6297648,
              -34.6316972
            ],
            [
              -58.630365,
              -34.6301225
            ],
            [
              -58.6333995,
              -34.6295661
            ],
            [
              -58.6383169,
              -34.6286546
            ],
            [
              -58.6371901,
              -34.6244001
            ],
            [
              -58.6367916,
              -34.6237821
            ],
            [
              -58.6362553,
              -34.6238662
            ],
            [
              -58.6349429,
              -34.624103
            ],
            [
              -58.6323787,
              -34.6245304
            ],
            [
              -58.633722,
              -34.6207594
            ]
          ],
          [
            [
              -58.625667,
              -34.6152306
            ],
            [
              -58.625669,
              -34.6151862
            ],
            [
              -58.6262007,
              -34.6151877
            ],
            [
              -58.6261885,
              -34.6159272
            ],
            [
              -58.6256677,
              -34.6160211
            ],
            [
              -58.6256688,
              -34.6159542
            ],
            [
              -58.625667,
              -34.6152306
            ]
          ]
        ]
      }
    },
    {
      "type": "Feature",
      "properties": {
        "cca": "135040D",
        "ara3": 3138.9,
        "sag": "ARBA",
        "source_name": "ARBA GeoARBA",
        "source_url": "https://www.arba.gov.ar/geoarba/inicio.asp",
        "source_layer": "Seccion Catastral",
        "source_archive": "135_seccion_catastral.tar.gz",
        "wfs_type": "idera:Seccion_Catastral",
        "input_crs": "EPSG:5347",
        "generated_at": "2026-06-13T00:57:25.261787+00:00",
        "assigned_zone_name": "Parque Quirno",
        "data_confidence": "high"
      },
      "geometry": {
        "type": "Polygon",
        "coordinates": [
          [
            [
              -58.6342521,
              -34.615725
            ],
            [
              -58.634514,
              -34.6133239
            ],
            [
              -58.6351908,
              -34.6050791
            ],
            [
              -58.6352485,
              -34.6047445
            ],
            [
              -58.6355835,
              -34.6002326
            ],
            [
              -58.6362248,
              -34.5927923
            ],
            [
              -58.6377999,
              -34.5883291
            ],
            [
              -58.6271031,
              -34.5938321
            ],
            [
              -58.6192023,
              -34.5980521
            ],
            [
              -58.6196089,
              -34.5982341
            ],
            [
              -58.6209525,
              -34.6008229
            ],
            [
              -58.6208327,
              -34.6009271
            ],
            [
              -58.6213205,
              -34.6018126
            ],
            [
              -58.621435,
              -34.6021792
            ],
            [
              -58.6212591,
              -34.6044123
            ],
            [
              -58.6205249,
              -34.6050682
            ],
            [
              -58.6203287,
              -34.6047837
            ],
            [
              -58.619776,
              -34.6053918
            ],
            [
              -58.6198606,
              -34.6061311
            ],
            [
              -58.6199908,
              -34.6067635
            ],
            [
              -58.6200839,
              -34.6072129
            ],
            [
              -58.6201819,
              -34.6085756
            ],
            [
              -58.620295,
              -34.6090252
            ],
            [
              -58.6211834,
              -34.6099816
            ],
            [
              -58.6217972,
              -34.6105365
            ],
            [
              -58.6219902,
              -34.6110202
            ],
            [
              -58.6218004,
              -34.6114741
            ],
            [
              -58.6212366,
              -34.6124296
            ],
            [
              -58.624407,
              -34.6118875
            ],
            [
              -58.6263915,
              -34.6115465
            ],
            [
              -58.629511,
              -34.6154715
            ],
            [
              -58.6309927,
              -34.617354
            ],
            [
              -58.6314897,
              -34.6179742
            ],
            [
              -58.6342521,
              -34.615725
            ]
          ]
        ]
      }
    },
    {
      "type": "Feature",
      "properties": {
        "cca": "135040G",
        "ara3": 1447.28,
        "sag": "ARBA",
        "source_name": "ARBA GeoARBA",
        "source_url": "https://www.arba.gov.ar/geoarba/inicio.asp",
        "source_layer": "Seccion Catastral",
        "source_archive": "135_seccion_catastral.tar.gz",
        "wfs_type": "idera:Seccion_Catastral",
        "input_crs": "EPSG:5347",
        "generated_at": "2026-06-13T00:57:25.261787+00:00",
        "assigned_zone_name": "Carola Lorenzini",
        "data_confidence": "high"
      },
      "geometry": {
        "type": "MultiPolygon",
        "coordinates": [
          [
            [
              [
                -58.6614729,
                -34.6217948
              ],
              [
                -58.6611879,
                -34.6220393
              ],
              [
                -58.6609085,
                -34.6222744
              ],
              [
                -58.661017,
                -34.6223628
              ],
              [
                -58.6611218,
                -34.622449
              ],
              [
                -58.6612077,
                -34.6225197
              ],
              [
                -58.6613073,
                -34.6226023
              ],
              [
                -58.661427,
                -34.6227011
              ],
              [
                -58.6615549,
                -34.6228088
              ],
              [
                -58.6615574,
                -34.6228075
              ],
              [
                -58.6616643,
                -34.6228999
              ],
              [
                -58.6619399,
                -34.6231364
              ],
              [
                -58.6621199,
                -34.6232875
              ],
              [
                -58.6621528,
                -34.6233282
              ],
              [
                -58.6627418,
                -34.6228405
              ],
              [
                -58.6627125,
                -34.6228251
              ],
              [
                -58.6625299,
                -34.6226671
              ],
              [
                -58.6624622,
                -34.6226087
              ],
              [
                -58.6621924,
                -34.6223831
              ],
              [
                -58.6620759,
                -34.6222865
              ],
              [
                -58.6619569,
                -34.6221871
              ],
              [
                -58.6618392,
                -34.6220902
              ],
              [
                -58.6617197,
                -34.621993
              ],
              [
                -58.6616016,
                -34.6218966
              ],
              [
                -58.6614729,
                -34.6217948
              ]
            ]
          ],
          [
            [
              [
                -58.6383169,
                -34.6286546
              ],
              [
                -58.6333995,
                -34.6295661
              ],
              [
                -58.630365,
                -34.6301225
              ],
              [
                -58.6297648,
                -34.6316972
              ],
              [
                -58.630089,
                -34.6316563
              ],
              [
                -58.6309485,
                -34.6315546
              ],
              [
                -58.6309832,
                -34.6317944
              ],
              [
                -58.6315247,
                -34.6317526
              ],
              [
                -58.6320786,
                -34.6321418
              ],
              [
                -58.6397947,
                -34.6314756
              ],
              [
                -58.6458103,
                -34.6309841
              ],
              [
                -58.6476795,
                -34.6308231
              ],
              [
                -58.6476857,
                -34.6308232
              ],
              [
                -58.6511789,
                -34.6309159
              ],
              [
                -58.6517008,
                -34.6308897
              ],
              [
                -58.6521471,
                -34.630767
              ],
              [
                -58.652984,
                -34.63018
              ],
              [
                -58.6530991,
                -34.6302423
              ],
              [
                -58.653334,
                -34.6300792
              ],
              [
                -58.6539788,
                -34.6300253
              ],
              [
                -58.6571088,
                -34.6274719
              ],
              [
                -58.6590064,
                -34.6259367
              ],
              [
                -58.6614348,
                -34.6239229
              ],
              [
                -58.6614265,
                -34.623909
              ],
              [
                -58.6610265,
                -34.6235807
              ],
              [
                -58.6606512,
                -34.6232728
              ],
              [
                -58.6605333,
                -34.6231721
              ],
              [
                -58.6601833,
                -34.6228891
              ],
              [
                -58.6604064,
                -34.6227096
              ],
              [
                -58.6603989,
                -34.6227028
              ],
              [
                -58.6603345,
                -34.6226839
              ],
              [
                -58.6602263,
                -34.6226492
              ],
              [
                -58.6601564,
                -34.6226275
              ],
              [
                -58.660093,
                -34.6226069
              ],
              [
                -58.6600819,
                -34.6226046
              ],
              [
                -58.6600744,
                -34.6226032
              ],
              [
                -58.6600689,
                -34.6226021
              ],
              [
                -58.6600462,
                -34.6224935
              ],
              [
                -58.6600022,
                -34.622434
              ],
              [
                -58.6599897,
                -34.6224237
              ],
              [
                -58.6597815,
                -34.6222523
              ],
              [
                -58.6597271,
                -34.6222075
              ],
              [
                -58.6596724,
                -34.6221625
              ],
              [
                -58.6596064,
                -34.6221082
              ],
              [
                -58.6595329,
                -34.6220477
              ],
              [
                -58.6595285,
                -34.6220441
              ],
              [
                -58.6594345,
                -34.6219666
              ],
              [
                -58.6594094,
                -34.621946
              ],
              [
                -58.6593959,
                -34.621935
              ],
              [
                -58.6593384,
                -34.6218876
              ],
              [
                -58.6593258,
                -34.6218772
              ],
              [
                -58.6592024,
                -34.6217756
              ],
              [
                -58.6591677,
                -34.6217471
              ],
              [
                -58.6590881,
                -34.6216816
              ],
              [
                -58.6590459,
                -34.6216467
              ],
              [
                -58.6590109,
                -34.621618
              ],
              [
                -58.6590067,
                -34.6216145
              ],
              [
                -58.6589218,
                -34.6215446
              ],
              [
                -58.6588929,
                -34.6215209
              ],
              [
                -58.658883,
                -34.6215127
              ],
              [
                -58.6588585,
                -34.6214925
              ],
              [
                -58.6588177,
                -34.6214589
              ],
              [
                -58.6587911,
                -34.621437
              ],
              [
                -58.6587831,
                -34.6214305
              ],
              [
                -58.6587245,
                -34.6213822
              ],
              [
                -58.6587034,
                -34.6213648
              ],
              [
                -58.6586921,
                -34.6213555
              ],
              [
                -58.6585497,
                -34.6212383
              ],
              [
                -58.6584451,
                -34.6211358
              ],
              [
                -58.6584228,
                -34.6211176
              ],
              [
                -58.6583927,
                -34.6210926
              ],
              [
                -58.6583217,
                -34.6210342
              ],
              [
                -58.6583129,
                -34.6210269
              ],
              [
                -58.6582875,
                -34.6210061
              ],
              [
                -58.6582478,
                -34.6209733
              ],
              [
                -58.6582091,
                -34.6209415
              ],
              [
                -58.6581313,
                -34.6208773
              ],
              [
                -58.658058,
                -34.620817
              ],
              [
                -58.6579746,
                -34.6207483
              ],
              [
                -58.6578867,
                -34.6206759
              ],
              [
                -58.6578208,
                -34.6206216
              ],
              [
                -58.657699,
                -34.6205213
              ],
              [
                -58.6576803,
                -34.6205055
              ],
              [
                -58.6576716,
                -34.6204974
              ],
              [
                -58.6575697,
                -34.6204045
              ],
              [
                -58.6575439,
                -34.6203828
              ],
              [
                -58.6572829,
                -34.6201625
              ],
              [
                -58.6572593,
                -34.6201427
              ],
              [
                -58.6572071,
                -34.6200986
              ],
              [
                -58.657128,
                -34.6200319
              ],
              [
                -58.6570585,
                -34.6199732
              ],
              [
                -58.6570434,
                -34.6199606
              ],
              [
                -58.6570162,
                -34.6199376
              ],
              [
                -58.6569801,
                -34.619907
              ],
              [
                -58.6569161,
                -34.6198553
              ],
              [
                -58.6535192,
                -34.6226627
              ],
              [
                -58.648329,
                -34.6269026
              ],
              [
                -58.6438609,
                -34.6276977
              ],
              [
                -58.6383169,
                -34.6286546
              ]
            ]
          ],
          [
            [
              [
                -58.6610002,
                -34.6164977
              ],
              [
                -58.658914,
                -34.6182213
              ],
              [
                -58.6619687,
                -34.6207363
              ],
              [
                -58.6621215,
                -34.6208424
              ],
              [
                -58.6622927,
                -34.6209766
              ],
              [
                -58.6623723,
                -34.6210391
              ],
              [
                -58.6624383,
                -34.620985
              ],
              [
                -58.6624898,
                -34.6209427
              ],
              [
                -58.6624999,
                -34.6209343
              ],
              [
                -58.6625189,
                -34.6209187
              ],
              [
                -58.6625345,
                -34.6209059
              ],
              [
                -58.6626101,
                -34.6208439
              ],
              [
                -58.662611,
                -34.6208431
              ],
              [
                -58.6626119,
                -34.6208424
              ],
              [
                -58.6626892,
                -34.6207789
              ],
              [
                -58.6627666,
                -34.6207154
              ],
              [
                -58.662844,
                -34.6206519
              ],
              [
                -58.6628881,
                -34.6206157
              ],
              [
                -58.662932,
                -34.6205796
              ],
              [
                -58.6630067,
                -34.6205183
              ],
              [
                -58.6630793,
                -34.6204586
              ],
              [
                -58.6630812,
                -34.6204571
              ],
              [
                -58.6631585,
                -34.6203937
              ],
              [
                -58.6632231,
                -34.6203407
              ],
              [
                -58.6633084,
                -34.6202707
              ],
              [
                -58.6633396,
                -34.620245
              ],
              [
                -58.6634577,
                -34.6201465
              ],
              [
                -58.6635528,
                -34.6200693
              ],
              [
                -58.6635882,
                -34.6200406
              ],
              [
                -58.6636263,
                -34.6200096
              ],
              [
                -58.6637022,
                -34.619948
              ],
              [
                -58.6637801,
                -34.6198848
              ],
              [
                -58.6638617,
                -34.6198185
              ],
              [
                -58.6638944,
                -34.6197919
              ],
              [
                -58.6639295,
                -34.6197635
              ],
              [
                -58.6640072,
                -34.6197004
              ],
              [
                -58.6640851,
                -34.6196372
              ],
              [
                -58.6641014,
                -34.619624
              ],
              [
                -58.6641629,
                -34.6195741
              ],
              [
                -58.664244,
                -34.6195083
              ],
              [
                -58.6643068,
                -34.6194572
              ],
              [
                -58.6643499,
                -34.6194223
              ],
              [
                -58.6643538,
                -34.6194192
              ],
              [
                -58.6643651,
                -34.6194099
              ],
              [
                -58.664395,
                -34.6193856
              ],
              [
                -58.6644202,
                -34.6193652
              ],
              [
                -58.6644612,
                -34.6193325
              ],
              [
                -58.6610002,
                -34.6164977
              ]
            ]
          ]
        ]
      }
    }
  ]
}
